store_id,store,address,discription,openTime,latitude,longtitute,mapReview,region,soup,transport,city_name
1,辣麻味噌沾麵 鬼金棒(總店沾麵部),10491台北市中山區中山北路一段92號,來自日本東京，口味在日本台灣都是自成一派的「辣麻味噌沾麵、拉麵」。總店為沾麵專賣店，販賣品項為可調整辣度、麻度的辣麻味噌沾麵以及博多豚骨拉麵。店主對於食材挑選極為用心，店內叉燒除了類似控肉的角煮外，也有低溫烹調的和牛及依比利豬叉燒可供選擇，白飯使用伊馬嵐池上米，博多豚骨拉麵使用杜蘭小麥。建議前往前先參考官方粉專。,週一-五 12:00~14:00、17:00~20:30週六-日 12:00~20:30,25.04939,121.521141953181,Tsao Ray - 濃厚辣麻味噌拉麵   https://bit.ly/3iCSg3y   鄭傑瑞 - 特製台灣辣麻味噌沾麵   https://bit.ly/3fOBfla   湯凱程 - 特製辣麻味增沾麵   https://bit.ly/3i7x1a8,北,#ramentw #台灣拉麵愛好會 #拉麵 #沾麵 #辣味 #麻味 #味噌 #豚骨 #豚骨魚介 #2019金賞,鬼金棒／捷運台北車站,台北市
2,辣麻味噌拉麵 鬼金棒(總店拉麵部),10491台北市中山區中山北路一段94號,來自日本東京，口味在日本台灣都是自成一派的「辣麻味噌拉麵」。本店為拉(湯)麵專賣店，販賣品項為可調整辣度麻度的辣麻味噌拉麵以及鬼金棒的豚骨拉麵。店內招牌的辣麻味噌拉麵是混合豚骨及魚介兩種湯底（目前夏日為豚雞魚介湯）再混入味噌，麵條也是三種不同麵條混合，叉燒則是類似控肉的角煮，在在顯露出強烈的自我風格。店內不時會有特殊限定，建議前往前先參考官方粉專。,"週一-五 11:30–14:00, 17:00–20:30週六-日 11:30–20:30",25.04945,121.521132317599,Queena Peng - 特製辣麻味噌拉麵   https://bit.ly/32YwiTA   Tsao Ray - 濃厚辣麻味噌拉麵   https://bit.ly/3iCSg3y   Yuko Seika - 辣麻味增拉麵   https://bit.ly/340Eunj,北,#ramentw #台灣拉麵愛好會 #拉麵 #辣味 #麻味 #味噌 #豚骨 #豚骨魚介 #2019金賞,鬼金棒/捷運台北車站,台北市
3,辣麻味噌拉麵 鬼金棒(松江南京店),10491台北市中山區松江路123巷8-2號,來自日本東京，口味在日本台灣都是自成一派的「辣麻味噌拉麵」。南京松江店為拉(湯)麵專賣店，販賣品項為可調整辣度麻度的辣麻味噌拉麵以及鬼金棒的豚骨拉麵。與中山店不同的是店內的辣麻味噌拉麵是只使用豚骨單一湯底再混入味噌，麵條也是單一的粗麵，叉燒則是類似控肉的角煮，是最接近日本本店的味道。麻辣的程度也是三店之冠，角煮也是最為穩定且大塊的一家分店。,11:30–14:00、17:00–20:30,25.05309,121.533955368516,紅陵 - 辣麻味噌拉麵   http://bit.ly/2MJG1ml   Bill Chang - 鬼金棒的豚骨拉麵   http://bit.ly/2MNjcOU   Jeff Chiang - 辣麻味噌拉麵   http://bit.ly/2OA38Aj,北,#ramentw #台灣拉麵愛好會 #拉麵 #辣味 #麻味 #味噌 #豚骨 #2019金賞,四平公園/捷運南京松江站,台北市
4,雞吉君拉麵とりよしくんラーメン雞白湯專門店,114台北市內湖區環山路一段33號,雞吉君是雞湯愛好者必朝聖的一間店，口味上從清淡到濃厚分別是淡麗->濃厚->特濃，三種口味各有千秋，可以按照自己的喜好做選擇。叉燒飯則有分大小，唯一須注意是店內無廁所，請留心。(週日中午有提供煮干拉麵),週一 店休 PS：⚠️適逢每月雙數週休一、二週二~四 17:30~21:00(或售完)週五~日 11:30~14:00、17:30~21:00(或售完)營業時間調整從⚠️9月1日(二)起⚠️，至店主完成準備後將恢復原本營業時間。,25.086283,121.566969,Zhanyao Zhang-濃厚煮干雞拉麵   https://bit.ly/2QmFNoJ   侯懿純 - 鹽味雞清湯拉麵   https://bit.ly/32mpcsu   朱禾 - 鹽味雞湯拉麵+手柔拌麵   https://bit.ly/2P6o44s,北,#ramentw #台灣拉麵愛好會 #拉麵 #油拌麵 #淡麗 #雞白 #雞濃 #雞清 #煮干 #2019金賞,西湖國小／捷運西湖站,台北市
5,勝王,104台北市中山區林森北路306號,2020年8月22日重新開幕，本店為台灣第一個二毛作(原意為同一塊耕地一年內種植不同作物，在餐飲業為在不同時間提供不同服務及商品)的拉麵店。勝王在台灣是間實驗性質相當高的店家，除了經常出現各種特別煮干、魚類食材外，各式醬油、香料、麵體、甚至水也是店家嘗試的對象，可以說是台灣新潮流拉麵的頂點，每週的特別食材除了吸引大量拉麵愛好者前來之外，台灣的店家，甚至日本拉麵店長也都前來嘗試過。,11:30~14:00、17:00~20:30,25.056086,121.525334,鄭傑瑞 - 橘醋清雞湯拉麵   https://bit.ly/38lDEnC   侯懿純 - 八幡屋七味葡萄山椒奶油雞白湯   https://bit.ly/31FxTwA   林哲祥 - 黑蔥蒜麻油 會臭的豬頭豚湯柳麵   https://bit.ly/3m8guok,北,#ramentw #台灣拉麵愛好會 #拉麵 #雞白湯 #薩索雞 #變化  #2019金賞,金光鐘錶,台北市
6,五之神製作所 台灣,110台北市信義區忠孝東路四段553巷6弄6號,為拉麵界較為少見的，以蝦作為基底的拉麵店，一共分為豚骨蝦湯麵、蝦沾麵與番茄蝦沾麵，其叉燒飯則為相當傳統的鹹甜醬香口味，其周末經常有限定沾麵/拉麵與對應的限定飯，均為水準之作，惟其麵條鹼水味較為鮮明，還請留意。,週一~五 11:30~15:00、17:00~21:00週二 公休週六~日 11:30~21:00,25.042253,121.563041,Michael Lin - 雞白湯拉麵   https://bit.ly/360ZBqo   Sky Walker - 新潟燕三条背脂拉麵   https://bit.ly/395B4SX   Ck Chen - 燕三条拉麵   https://bit.ly/39iDkXh,北,#ramentw #台灣拉麵愛好會 #拉麵 #沾麵 #豚骨 #豚骨魚介 #蝦豚骨 #限定 #變化 #2019金賞 #雞白湯 #冷凍包,松菸／捷運市政府站 - 1號出口,台北市
7,Okaeriお帰り吃碗拉麵吧,106台北市大安區延吉街60號,年休中，10月26日(一)11:30再開。開拓台灣純正日本口味拉麵疆土的老店之一、與雞吉君為同一店主。店內基本為熬煮12小時以上的濃厚豚骨湯頭為主，厚實順口的豚骨湯加上厚切夠份量的叉燒、清甜爽口的高麗菜，再以近乎偏執的完美擺盤，在台灣是辨識度相當高的一家店。除了豚骨湯底之外，也有京都醬油拉麵、大阪炒麵、甚至咖哩飯等品項，店內現點現包的煎餃其美味及數量稀少，往往在一開店即銷售一空。,週二~週日: 11:30～15:00或（售完為止）17:30～21:00或（售完為止）每週一公休（每月第二及第四週的週一和週二也為公休日）,25.043711,121.553755,Queena Peng - 濃厚豚骨拉麵／辛口豚骨拉麵   https://bit.ly/3nEt4gv   Tsao Ray - 濃厚豚骨拉麵   https://bit.ly/303qFCj   蔡旻原 - 京都醬油拉麵   https://bit.ly/3hzoRa2,北,#ramentw #台灣拉麵愛好會 #拉麵 #豚骨 #豚骨魚介 #辣味 #煎餃 #2019金賞,華視／捷運國父紀念館站,台北市
8,隱家拉麵-士林店,111台北市士林區中山北路五段505巷1號,開業於2019年10月，本店的風格為多樣化的湯頭，目前提供雞湯與豚骨湯二種湯頭，以及濃厚蝦沾麵的品項。店主對於拉麵的專精與與人為善的熱情，造就本店的自信美味，但店主想在此店傳達除了美味之外，更在乎店家與食客之間心的連繫，因此創立了隱家拉麵，希望可以與食客一起分享美食與生活。詳情可察看下方網友食記。,11:30~14:30、16:30~22:00,25.093249,121.52747,風月 - 辛豚骨拉麵   https://bit.ly/37Ljcfw   高晉 - 黃金雞湯拉麵   https://bit.ly/36ZQcQV   鄭傑瑞 - 醬油豚骨拉麵   https://bit.ly/3mavQcy,北,#ramentw #台灣拉麵愛好會 #拉麵 #沾麵 #豚骨 #雞清湯 #豚骨蝦 #限定 #加麵一球免費,捷運士林站,台北市
9,隱家拉麵-赤峰店,104台灣台北市大同區,開幕於2020年5月，本店為隱家拉麵二店，主打黃金雞湯、辛豚骨，並有每日限定擔擔麵、鯛白湯沾麵享用。詳情請見下方食記。,11:30~14:00、16:30~22:00,23.975744,120.979772,風月 - 辛豚骨拉麵   https://bit.ly/37Ljcfw   高晉 - 黃金雞湯拉麵   https://bit.ly/36ZQcQV   Raven Chen - 極·濃厚海老沾麵   https://bit.ly/340e83o,北,#ramentw #台灣拉麵愛好會 #拉麵 #雞清湯 #豚骨 #魚白湯 #擔擔麵 #加麵一球免費,捷運雙連站,台北市
10,柑橘 Shinn,106台北市大安區仁愛路四段228-6號,開業於2017年3月，融合美日台三種文化風格融合的油拌麵，面對的族群以女性客人及上班族居多，自推出柑橘系列的拉麵之後，大受各方饕客好評，目前首推 柑橘蛤蜊鹽味淡麗雞清湯 ，是台灣難得一見的淡麗味覺，後續推出鴨蔥拉麵，饕客間皆有不錯的好評，詳情請見下方食記。,週一~五 11:30 - 14:00、17:00 - 20:30週六~日 11:30 - 20:30,25.037301,121.552133,Jimmy Lai - 柑橘濃厚雞白湯   https://bit.ly/3it4hss   Joey Lai - 柑橘濃厚雞白湯   https://bit.ly/32YZvhZ   Chen Yun Yun - 柑橘醬油魚介   https://bit.ly/2CuKUjp,北,#ramentw #台灣拉麵愛好會 #拉麵 #油拌麵 #柑橘 #雞白 #雞濃 #雞清 #淡麗 #2019金賞,仁愛路國中步行2分／捷運信義安和站,台北市
11,山嵐拉麵-台灣總店,106台北市大安區杭州南路二段75號,於2019年6月遷移至現址，店內所售品項分為白湯(豚骨)、赤湯(加辣)、海湯(加魚粉)，三種口味也各有沾麵與蔥爆、叉燒版本，均為特色與水準之作，柔嫩的叉燒與風味十足的風味油更是在吃時讓人相當喜愛，沾湯內的高麗菜滋味十足，湯頭內的豬背脂油而不膩讓人回味再三。本店特色限定為紅味噌拉麵。,11:30~14:30、17:15~20:45,25.029168,121.522079,姿婷王 - 白湯豚骨／赤湯豚骨   https://bit.ly/3689RvY   Is Amy - 白系豚骨   https://bit.ly/3kiBmbX   蔡旻原 - 海湯拉麵   https://bit.ly/3jU8u97,北,#ramentw #台灣拉麵愛好會 #拉麵 #沾麵 #豚骨 #豚骨魚介 #辣味 #2019金賞,南門市場 / 捷運古亭站步行4分,台北市
12,山嵐拉麵-公館店,100台北市中正區羅斯福路四段136巷1弄13號,在東區的分店開設後，山嵐決定於公館開設第二間店，本店除了擁有與忠孝店相同的定番外，更常常推出與忠孝店不同的限定以饗饕客；而鄰近的公館商圈除了有為數眾多的夜市小吃外，更有金石文化廣場與東南亞秀泰影城可供遊憩。,週日~周四: 11:30~21:00周五~周六: 11:30~21:30,25.013039,121.535375,姿婷王 - 白湯豚骨／赤湯豚骨   https://bit.ly/3689RvY   Is Amy - 白系豚骨   https://bit.ly/3kiBmbX   蔡旻原 - 海湯拉麵   https://bit.ly/3jU8u97,北,#ramentw #台灣拉麵愛好會 #拉麵 #沾麵 #豚骨 #豚骨魚介 #辣味 #2019金賞,台大／捷運公館站,台北市
13,山嵐拉麵-大安店,106台北市大安區復興南路二段,於2019年11月開幕，店內所售品項分為白湯(豚骨)、赤湯(加辣)、海湯(加魚粉)，三種口味也各有沾麵與蔥爆、叉燒版本，均為特色與水準之作，柔嫩的叉燒與風味十足的風味油更是在吃時讓人相當喜愛，沾湯內的高麗菜滋味十足，湯頭內的豬背脂油而不膩讓人回味再三。本店目前的期間限定為濃厚番茄拉麵、海鮮咖哩沾麵。,11:30~14:30、17:15~20:45,25.027178,121.54347,姿婷王 - 白湯豚骨／赤湯豚骨   https://bit.ly/3689RvY   Is Amy - 白系豚骨   https://bit.ly/3kiBmbX   蔡旻原 - 海湯拉麵   https://bit.ly/3jU8u97,北,#ramentw #台灣拉麵愛好會 #拉麵 #沾麵 #豚骨 #豚骨魚介 #蕃茄 #咖哩 #2019金賞,瑞安街 / 捷運大安站步行3分,台北市
14,拉麵公子,104台北市中山區八德路二段279號,開業於2019年12月3日，此店為知名拉麵部落客，品嘗各地拉麵吃出心得，轉而開店的範例之一，本店是以雞湯與進階型煮干為主軸的店家，雞湯甘美香醇，煮干苦鮮醇厚，詳情可察看下方網友食記。,11:30~13:30、17:30~20:30無公休 不定休,25.047167,121.541717,Noriaki McMahon - 濃厚豚骨雞白湯   https://bit.ly/3cwoSKN   陳聖諺 - 蘭姆酒濃厚咖哩拉麵   https://bit.ly/3ljJV75   谷祖豪 - 限定蘭姆酒濃厚咖哩拉麵   https://bit.ly/3hfgsJ0,北,#ramentw #台灣拉麵愛好會 #拉麵 #雞白 #雞清 #煮干 #變化,中崙大潤發,台北市
15,麵屋壹慶,10491台北市中山區雙城街32巷2號1 1c號,開業於2018年9月，台灣首間以泡系為主題的店家，豚骨醬油、豚骨塩味、清湯醬油以上三種味道都有其特色，領先市場推出的泡系雞白湯，湯溫心暖醇郁順口，亦有不錯的好評，詳情可察看下方網友食記。,17:00–21:00星期一、日 公休,25.066451,121.523999,Stars Yang - 醬油清湯特盛   https://bit.ly/2Eod94e   李雋恩 - 特盛醬油拉麵   https://bit.ly/3eADd8A   Alicia Yang - 雞白湯拉麵   http://bit.ly/38DVHm9,北,#ramentw #台灣拉麵愛好會 #拉麵 #雞白 #豚骨 #泡系 #醬油 #2019金賞,欣葉台菜餐廳,台北市
16,麵屋壹の穴 ICHI,106台北市大安區延吉街137巷22號,老闆號稱180，除了招牌的魚介湯頭外，亦開發了豚骨、雞湯、煮干、醬油等湯頭，也有日式擔擔麵，是少數可以品嚐到多種拉麵的店家。除了這些之外，壹之穴也有推出大份量的二郎系拉麵，分成壹之二郎與痛風二郎兩種，份量相當大。除此之外，壹之穴除了汁無し擔擔麵以外都可以免費加細麵一次，份量與價格皆相當實在。除了多樣化的拉麵外，其他副食則有相當受到好評的叉燒飯、唐揚雞塊、醃漬小番茄可供選擇。配料的部分叉燒和溏心蛋皆可以加點，中午用餐時段也有優惠的套餐組合。,11:30~15:00，17:30~21:00週一公休,25.041918,121.555236,劉孟誠 - 干貝醬油拉麵   https://bit.ly/38Mi0H4   Stars Yang - 秋刀魚醬油干貝醬拉麵+堅果拌麵   https://bit.ly/31u1fyQ   Zhanyao Zhang - 秋刀魚醬油拉麵   https://bit.ly/2z1e4Vt,北,#ramentw #台灣拉麵愛好會 #拉麵 #油拌麵 #豚骨 #豚骨魚介 #二郎風 #限定 #變化 #2019金賞,華視／捷運國父紀念館站-1號出口,台北市
17,創作拉麵 悠然,10491台北市中山區林森北路487號1 樓 209 室,"店長繼承過往拉麵店家修業經驗，加上自身對於拉麵的詮釋及對品質的堅持，重新定義了""台灣拉麵""一詞。從初期第一碗名為""琢磨""的虱目魚鹽味拉麵，創作了以季節為主的十二碗拉麵，並不時創作以節慶為主的限定拉麵，以嚮麵友們的味蕾。目前是以一週固定只販賣一種拉麵的方式經營，每週販賣品項請參考粉專。",週三~六 17:00~20:00週日 11:00~14:00，17:00~20:00週一~二  公休,25.06138,121.525725,李雋恩 - 辣雞白湯拉麵   https://bit.ly/2GqLGQt   侯懿純 - 煮干醬油雞湯(黑潮)   https://bit.ly/33KLlkq   侯懿純 - 南歐風鹽味清湯   https://bit.ly/2SzMlkQ,北,#ramentw #台灣拉麵愛好會 #淡麗系 #限定 #雞清湯 #2019名店,趣旅館／捷運中山國小站,台北市
18,麵屋武藏本店,100台北市中正區忠孝西路一段36號B1,來自日本的品牌，開啟W湯頭的領航者，位於HOYII和億B2，不同於麵屋武藏-神山，本店以雞白湯頭為主打，有沾麵和拉麵可供選擇。,11:00~22:00,25.04627,121.51703,Yao Shun-yuan - 海老鮮味金瓜沾麵   https://bit.ly/2HFkTQC   邱炳憲 - 牡蠣魚介鹽味拉麵   https://bit.ly/2OXDyHB   陳聖諺 - 限定螃蟹雞白湯   https://bit.ly/36ICLma,北,#ramentw #台灣拉麵愛好會 #拉麵 #沾麵 #雞白湯  #加麵一球免費 #限定 #變化 #2019名店,添好運／台北車站,
19,道樂屋台,111台北市士林區基河路112號,"""屋台""(やたい,YATAI) 就是所謂的路邊攤，晚上才開始營業，與一般日式居酒屋不同，反而像是台灣的路邊攤，形成福岡當地的特色。道樂屋台是全台最為熱門的屋台之一，不定時出現的限定餐點，也受到麵友們的喜愛。",12:00~14:00、17:00~21:00週一 公休,25.0884,121.5235,Stars Yang - 雞白湯拉麵   https://bit.ly/2QQDkmF   鄭傑瑞 - 豪華豚骨拉麵   https://bit.ly/32ScnVl   莊家豪 - 大雞腿雞白湯拉麵   https://bit.ly/2xOdABu,北,#ramentw #台灣拉麵愛好會 #拉麵 #豚骨 #雞湯  #加麵一球免費 #限定 #變化 #2019名店,公有士林市場／劍潭捷運站,
20,道樂ラーメン專門店,111台北市士林區大北路9號,開業於2018年8月，位於士林夜市文林路旁，與原道樂屋台味道迥異的拉麵店，主打平民小吃，屋台風情，店內的豪華豚骨、蛤蜊豚骨、海老豚骨拉麵都有其愛好者，不定時出現的限定餐點，也受到麵友們的喜愛，詳情可察看下方網友食記。,17:00~23:30週一 公休,25.08963,121.52666,Sam Huang - 豪華叉燒拉麵   https://bit.ly/3dHUPQw   Stars Yang - 肋排家系拉麵   http://bit.ly/2W1dXlY   蔡承澔 - 豪華豚骨拉麵   http://bit.ly/2B3TJyZ,北,#ramentw #台灣拉麵愛好會 #拉麵 #豚骨 #雞白 #家系 #限定 #變化 #加麵一球免費 #2019名店,士林夜市/捷運士林站步行5分,台北市
21,道樂商店,108台北市萬華區成都路27巷12號,於2020年5月開幕，本店為道樂四店，主打平民小吃，屋台風情，店內的豪華豚骨、蛤蜊豚骨、海老豚骨拉麵都有其愛好者，不定時出現的限定餐點，也受到麵友們的喜愛，詳情可察看下方網友食記。,12:00~14:00、17:00~21:00週一 公休,25.04344,121.50683,Yu-Ro Tsai - 雞白湯拉麵   https://bit.ly/2QPGkjf   TinAn Chen - 雞白湯拉麵   https://bit.ly/3gCIH3H   鄭傑瑞 - 味玉雞白湯拉麵   https://bit.ly/2BHvyHy,北,#ramentw #台灣拉麵愛好會 #拉麵 #豚骨 #雞白 #家系 #限定 #變化 #加麵一球免費,美觀園／捷運西門站6號出口,
22,吉天元拉麵店,108台北市萬華區西寧南路70號B1,開業於2018年10月，位於西門町萬年大樓B1，湯頭是以雞白湯為主軸，湯頭濃醇鮮鹹甘，是西門町區域的優選雞白湯拉麵店，主推野菜雞白湯拉麵，不定時會推出限定以嚮麵友們的味蕾，詳情可察看下方網友食記。,週二~五 12:00~15:00、17:00~21:00週六~日 12:00~21:00週一 公休,25.04386,121.50593,Yang Kevin - 野菜雞白湯   https://bit.ly/35Z6FV1   Jimmy Lai - 濃雞白湯，咖哩拉麵，鹽味雞湯   https://bit.ly/2AKBNKE   張正一 - 雞白湯   https://bit.ly/2YfowCZ,北,#ramentw #台灣拉麵愛好會 #拉麵 #雞白湯 #泡系 #限定 #2019名店,萬年大樓／捷運西門站步行3分,
23,鷹流拉麵【台灣本店】,106台北市大安區忠孝東路四段216巷27弄14號,來自東京高田馬場，號稱全台最濃厚的鹽味豚骨拉麵，是台灣濃厚豚骨湯頭的先驅，搭配上全粒粉的多加水自家製麵，拉麵風格跟店主鷹峰一樣相當強烈。每個月29日會有叉燒增量的活動，限定拉麵多為每季一次，另外每年年初發售的月曆也是拉麵界盛事。老闆目前在台北六家口味不同的分店，為非連鎖體系中擁有分店最多的。,週一~六 11:30–22:00週日 11:30–21:0010/1起週一~六 17:00～22:00週日 17:00～21:00,25.039743,121.553841,Stars Yang - 鷹流沾麵+筍干   http://bit.ly/2PWbZzz   Sky Walker - 東京醬油豚骨拉麵   http://bit.ly/2vHBVVA   Zhanyao Zhang - 鷹流沾麵   http://bit.ly/2MMc0T1,北,#ramentw #台灣拉麵愛好會 #拉麵 #沾麵 #豚骨 #豚濃 #限定 #每月29號 #2019名店,明曜百貨／捷運忠孝敦化站,台北市
24,真劍拉麵,106台北市大安區師大路126巷1號,開幕於2018年11月，以鹽味翠雞拉麵擁有的藍色雞湯味湯頭而知名的拉麵店，是台灣IG照片上的常客，店門口吊個沙包也是特色，是屬於師大區域的知名店家，詳情請見下方食記。,11:30~14:00，17:30~21:30有不定休可能，請參閱粉專,25.02165,121.527859,Sky Walker - 醬油雞湯拉麵   https://bit.ly/3kTEcDI   David Lu - 豚骨拉麵+鹽味翠雞+醬油拉麵 https://bit.ly/38oyM0P   陳宥宣 - 豚骨拉麵   https://bit.ly/3mtmr06,北,#ramentw #台灣拉麵愛好會 #拉麵 #雞清 #豚骨 #加麵一球免費 #2019名店,頂好超市／捷運台電大樓站步行1分,台北市
25,雞二拉麵-本店,106台北市大安區文昌街30號,主打超大份量，且價格實惠的雞湯拉麵，主要分成三種分量：小小雞、小雞二、大雞二。大雞二是許多大食量麵友喜愛挑戰的目標，小雞二則適合一般食量的麵友。經典款的拉麵有醬油和鹽味，也有推出如蝦醬雞白湯等特殊口味，若愛吃鹹的麵友，建議味道加鹹，會感覺更加豐厚。,11:30~20:30週日 公休,25.032905,121.549791,Zhanyao Zhang - 鹽味大雞二   https://bit.ly/2X9TfRz   潔西李 - 鹽味大雞二拉麵、醬油大雞二拉麵 https://bit.ly/337U6lc   吳俊青 - 大雞二醬油   http://bit.ly/2LHtq1T,北,#ramentw #台灣拉麵愛好會 #拉麵 #雞白 #雞魚介 #二郎風 #大食 #2019名店,師大附中／捷運信義安和站、大安站,台北市
26,雞二二店,106台北市大安區羅斯福路三段139號,二店開幕於2018年11月26日，主打超大份量，且價格實惠的雞湯拉麵，主要分成三種分量：小小雞、小雞二、大雞二。大雞二是許多大食量麵友喜愛挑戰的目標，小雞二則適合一般食量的麵友。經典款的拉麵有醬油和鹽味，也有推出如蝦醬雞白湯等特殊口味。若愛吃鹹的麵友，建議味道加鹹，會感覺更加豐厚。,11:30~20:30週日 公休,25.021854,121.527181,潔西李 - 鹽味大雞二拉麵、醬油大雞二拉麵 https://bit.ly/337U6lc   吳俊青 - 大雞二醬油   http://bit.ly/2LHtq1T   Stars Yang - 鹽味小小雞   http://bit.ly/2wtNejq,北,#ramentw #台灣拉麵愛好會 #拉麵 #雞白 #雞魚介 #二郎風 #大食 #2019名店,師大商圈／捷運台電大樓站,台北市
27,豚人ラ－メン-敦化本店,10688台北市大安區忠孝東路四段170巷5弄10號,於2018年7月2日試營運，10月3日開幕，本店為豚人台灣本店，此店承襲前夢語店面，是來自京都的拉麵店，主要顧客以學生居多，特色是軟嫩叉燒肉與多樣性的麵條，目前提供三種麵條，以及二郎旁系拉麵，深受大食麵友喜愛，詳情可察看下方網友食記。,週日~四 11:30~21:00(L.O 20:30)週五~六 11:30~27:00(L.O 26:30),25.040762,121.551222,Daidai Huang - 日本昭和風味煮干拉麵   https://bit.ly/309UqBa   Michael Lin - 徹濃豚骨拉麵   https://bit.ly/3gtzo6q   Ayaka Ayatsuji - 徹濃醬油豚骨   https://bit.ly/2CL1JH4,北,#ramentw #台灣拉麵愛好會 #拉麵 #豚骨 #二郎風 #大食 #2019名店,明曜百貨 / 捷運忠孝敦化站步行3分,台北市
28,豚人ラ－メン-復興店,106台北市大安區大安路一段16巷6號,開業於2020年2月14日，來自京都的拉麵店，特色是軟嫩叉燒肉與多樣性的麵條，目前提供三種麵條，以及二郎旁系拉麵，深受大食麵友喜愛，本店的限定味道為辣味鹽豚骨，亦有不少客人喜愛，詳情可察看下方網友食記。,週一 12:00~15:00、17:00~22:00週二 公休週三 17:00~22:00週四 12:00~15:00、17:00~22:00週五~六 12:00~15:00、17:00~26:00週日 12:00~15:00、17:00~22:00,25.044347,121.545903,黃友廷 - 明太子in醇厚豚骨拉麵   https://bit.ly/3o3rYKz   Michael Lin - 煮干豚骨拉麵   https://bit.ly/2GOxtgf   Chih-Hao Chen - 涼拉麵   https://bit.ly/3mZHI1A,北,#ramentw #台灣拉麵愛好會 #拉麵 #豚骨 #二郎風 #限定,大安路／捷運忠孝復興站步行3分,台北市
29,鳥人拉麵-台灣總店TOTTO Ramen,106台北市大安區復興南路一段107巷5弄9號,來自紐約的雞湯名店，此間為台灣總本店，品項有雞湯、雞湯味噌，與一般少見的，以蔬菜打底的素食拉麵，低溫雞叉燒與一般的豬肉叉燒都相當可口，辣味噌與味噌品項更是適合重口味人士；此外特定營業日其營業時段直至凌晨4點，相當適合晚歸的朋友在凌晨來一碗熱呼呼的拉麵提振心情。,週日~四 : 11:30~22:00週五~六 : 11:30~28:00,25.044163,121.544382,Max Lin - 白湯拉麵   https://bit.ly/2PDJuVF   Una Weng - 白湯拉麵   https://bit.ly/2NgtEP0   江元裕 - 白湯拉麵   https://bit.ly/2Nv2IuN,北,#ramentw #台灣拉麵愛好會 #拉麵 #雞白 #咖哩  #每月17日 #2019名店,微風廣場／捷運忠孝復興站-5號出口,台北市
30,Totto Ramen 鳥人拉麵-西門店,108台北市萬華區中華路一段114巷3號,來自紐約的雞湯名店，此間為第三家分店，品項有雞湯、雞湯味噌，與一般少見的，以蔬菜打底的素食拉麵，低溫雞叉燒與一般的豬肉叉燒都相當可口，辣味噌與味噌品項更是適合重口味人士；此外特定營業日其營業時段直至凌晨4點，相當適合晚歸的朋友在凌晨來一碗熱呼呼的拉麵提振心情。,週日~一 : 11:30–22:00週五~六 : 11:30–28:00,25.043942,121.508222,Chih-Hung Weng - 鳥人蔬菜拉麵   https://bit.ly/2MyQaWQ   陳逸凡 - 鳥人白湯   https://bit.ly/2woCwL8,北,#ramentw #台灣拉麵愛好會 #拉麵 #雞白 #咖哩 #2019名店,西門町佳佳唱片行／捷運西門站-6號出口步行2分,台北市
31,Totto Ramen 鳥人拉麵-中山店,10491台北市中山區中山北路一段105巷7號,來自紐約的雞湯名店，此間為二店，服務的客人大多是以七條通的客人為主，品項有雞湯、雞湯味噌，與一般少見的，以蔬菜打底的素食拉麵，低溫雞叉燒與一般的豬肉叉燒都相當可口，辣味噌與味噌品項更是適合種口味人士；此外特定營業日其營業時段直至凌晨4點，相當適合晚歸的朋友在凌晨來一碗熱呼呼的拉麵提振心情。,週日~一 : 11:30~22:00週二~六 : 11:30~28:00,25.05111,121.52287,Chih-Hung Weng - 鳥人蔬菜拉麵   https://bit.ly/2MyQaWQ   陳逸凡 - 鳥人白湯   https://bit.ly/2woCwL8,北,#ramentw #台灣拉麵愛好會 #拉麵 #雞白 #咖哩 #素食 #2019名店,新光三越台北南西館／捷運中山站-2號出口,
32,麵屋昕家,114台北市內湖區東湖路24號,開業於2019年9月，修業自麵屋真登，湯頭屬於雞湯系味道舒服和緩的路線，詳情可察看下方網友食記。,週二~四 17:00~20:30週五~日 11:30~13:30、17:00~20:30週一 公休,25.068746,121.612793,Stars Yang - 雞白湯玉子拉麵 https://bit.ly/353t6Y1   A Hsun Chen - 特製背脂醬油拉麵 https://bit.ly/370IfZJ   蔡旻原 - 醬油拉麵   http://bit.ly/2Ixi4Ox,北,#ramentw #台灣拉麵愛好會 #拉麵 #雞白 #雞清 #泡系 #醬油 #限定 #變化,東湖康寧路／捷運東湖站,台北市
33,橫濱家系ラーメン大和家,106台北市大安區市民大道四段12號,日本發祥台灣初上陸「橫濱家系大和家拉麵」是直營的拉麵連鎖店，在日本目前擁有11家分店，且持續擴大中。“最強家系拉麵”在競爭激烈的日本拉麵市場中，期望以濃厚豚骨醬油湯頭、Q彈中粗直條麵，自豪的橫濱家系大和家拉麵能成為拉麵業界NO.1，因此將滿腔熱血化為文字，朝「家系最強」目標邁進。,11:30–22:30,25.04464,121.544384,吳俊青 - 沾麵   https://bit.ly/2MOuIcO,北,#ramentw #台灣拉麵愛好會 #拉麵 #家系 #豚骨 #每月1號 #每月20號 #2019名店,微風廣場／捷運忠孝復興站,台北市
34,麵屋一燈 Menya Itto Taiwan,10491台北市中山區南京東路一段29號,來自日本，長年雄霸Ramen DB的名店，其招牌濃厚魚介沾麵沾湯為相當特別的雞骨魚介風味，低溫雞肉叉燒與豬肉叉燒軍軟嫩彈牙而無纖維感，非常可口。其拉麵款式中，最為出眾的則為干貝雞湯拉麵，在一般雞湯湯底的香甜之餘，更可額外加入干貝醬增添醇厚風味。此外，也有當日限定的副食可以加點，均相當有特色。,11:30~21:30,25.052363,121.524368,Michael Lin - 濃厚魚介沾麵   https://bit.ly/2I16Gxw   Stars Yang - 濃厚魚介拉麵(定番)／金澄幸貝拉麵(定番)／柚香雞湯辛拉麵(限定)   https://bit.ly/2UcacJj   Stars Yang - 濃厚魚介沾麵   https://bit.ly/2BFZ14d,北,#ramentw #台灣拉麵愛好會 #拉麵 #沾麵 #雞煮干 #雞魚介 #點餐前加麵免費 #2019名店,新光三越南西／捷運中山站-2號出口,台北市
35,麵屋一燈Express,10491台北市中山區南京西路14號,開業於2019年11月，位於B2誠品信義美食街，詳情可察看下方網友食記。,11:00~22:00(last order 21:30),25.052443,121.520619,由你來寫第一篇   ,北,#ramentw #台灣拉麵愛好會 #拉麵 #沾麵 #雞魚介,誠品信義/捷運市政府站,台北市
36,橫濱家系拉麵 特濃屋,104台北市中山區中山北路二段77巷22號,主打橫濱家系的拉麵，豪邁大海苔和菠菜是特色之一。炸雞是麵友推薦必點項目，所以又有炸雞屋的別稱。,11:30-15:00、17:00-22:00週一公休,25.057384,121.524997,朱禾 - 和風豚骨   DX https://bit.ly/33WP0LW   林英傑 - 叉燒沾麵   https://bit.ly/3c7F2Ix   彭冠華 - 豚骨醬油DX   http://bit.ly/39zbBOW,北,#ramentw #台灣拉麵愛好會 #拉麵 #豚骨 #家系 #辣味 #炸雞 #2019名店,林森錢櫃／捷運雙連站,台北市
37,墨洋拉麵,100台北市中正區羅斯福路四段136巷10號,於2020年1月18日於公館商圈開業，是屬於台灣少見魚貝系店家，主打貝系醬油風味，限定品項大多皆為海鮮品系，詳情可察看下方網友食記。,週一~五 12:00~14:00 、17:00~21:00週六~日 12:00~14:30 、17:00~21:00,25.01289,121.53544,吳清宏 - 極上貝貝拉麵   https://bit.ly/30WYKE7   Raven Chen - 柚香貝出汁拉麵 https://bit.ly/35PiPzs   王俊富 - 極上貝貝拉麵   https://bit.ly/3m1WzIv,北,#ramentw #台灣拉麵愛好會 #拉麵 #魚貝 #限定 #變化 #加麵無限免費,水源市場／捷運公館站,
38,麵屋武藏-神山,104台北市中山區中山北路一段121巷18號,"來自日本的品牌，在日本是""動物系""加上""魚介系""雙湯頭的創始名店。神山店延續日本雙湯頭的特色，加上粗麵以及豪邁的大塊炙燒叉燒，為台灣拉麵風潮的開拓者之一，也是屬於深夜食堂之中的名店。",11:30 - 21:30 （Last Order 21:00）深夜食堂：週一～週六　21:30 - 23:30（Last Order 23:00）（深夜食堂每月第二個週二為消毒日暫停營業）,25.051011,121.523552,Noraneko Park - 「二刀流」雙刀叉燒濃厚魚介拉麵   https://bit.ly/2UvXrZ9   Stars Yang - 味玉塩味拉麵   https://bit.ly/2Ir8CQg   Tsao Ray - 武藏創始味拉麵   https://bit.ly/34h5jUk,北,#ramentw #台灣拉麵愛好會 #拉麵 #沾麵 #豚骨魚介 #布丁 #限定 #變化 #加麵一球免費 #2019名店,捷運中山站/肥前屋,台北市
39,鷹流東京醤油拉麺【蘭丸ranmaru】延吉街店,105台北市松山區延吉街2號,來自鷹流老闆鷹峰涼一，魚介風味的醬油拉麵，湯底有清湯以及濃湯可供選擇，店內使用的是自家製麵的細麵，可以無限加麵，味付玉子(糖心蛋)以及生玉子(生蛋)都是自由捐獻，一個30元起。蘭丸雖然是醬油拉麵，但是口味跟鷹流一樣相當強烈而且豪邁，搭配齒切感十足的細麵以及鮮嫩的叉燒，排隊人潮絡繹不絕，該店也是台灣第一個使用弓削多醬油，以及將叉燒排成肉圈圈的店家，每月29日有特別叉燒增量活動。有別於另一家中山店，本店限定為弓削多生薑醬油拉麵。,11:30–14:00，17:30–21:30,25.046737,121.553224,Michael Lin - 清湯東京醬油叉燒麵   https://bit.ly/35449Mu   徐耀德 - 拌麵   https://bit.ly/2FHbx5Z   Stars Yang - 蘭丸拌麵   https://bit.ly/3hfPot9,北,#ramentw #台灣拉麵愛好會 #拉麵 #醬油 #豚骨魚介 #加麵一球免費 #每月29號 #2019名店,城市舞台／公車美仁里站,台北市
40,鷹流東京醤油拉麺【蘭丸ranmaru】中山店,103台北市大同區南京西路18巷6-3號,來自鷹流老闆鷹峰涼一，魚介風味的醬油拉麵，湯底有清湯以及濃湯可供選擇，店內使用的是自家製麵的細麵，可以無限加麵，味付玉子(糖心蛋)以及生玉子(生蛋)都是自由捐獻，一個30元起。蘭丸雖然是醬油拉麵，但是口味跟鷹流一樣相當強烈而且豪邁，搭配齒切感十足的細麵以及鮮嫩的叉燒，排隊人潮絡繹不絕，該店也是台灣第一個使用弓削多醬油，以及將叉燒排成肉圈圈的店家，每月29日有特別叉燒增量活動。有別於另一家延吉店，本店限定為鹽味拉麵。,11:30–14:00，17:00–22:00,25.05209,121.52017,Michael Lin - 清湯東京醬油叉燒麵   https://bit.ly/35449Mu   徐耀德 - 拌麵   https://bit.ly/2FHbx5Z   Stars Yang - 蘭丸拌麵   https://bit.ly/3hfPot9,北,#ramentw #台灣拉麵愛好會 #拉麵 #醬油 #豚骨魚介 #加麵一球免費 #每月29號 #2019名店,新光三越南西店／捷運中山站,
41,鳳華拉麵 （らぁ麺 鳳華）,114台北市內湖區內湖路一段411巷6號,開業於2019年9月，店主修業自鷹流，以雞豚湯為主體，並主打泡系雞豚湯拉麵，之後有大更換菜單變成有煮干、豚雞系列。且不定時出現的限定拉麵，讓內湖的麵友們有耳目一新的感覺，亦有肉暴走選項讓肉食系麵友享用，詳情可察看下方網友食記。,週一~五 11:45~14:45、17:30~21:00週日 12:00~15:00、17:30~21:00週六 公休,25.082045,121.570944,高晉 - 鷄煮干双湯魚介醬油拉麵   https://bit.ly/35xKvIy   谷祖豪 - 煮干雞豚濃湯醬油拉麵   https://bit.ly/3j0FwEF   朱禾 - 泡系雞豚濃湯拉麵   https://bit.ly/345wtvM,北,#ramentw #台灣拉麵愛好會 #拉麵 #雞豚白湯 #雞豚清湯 #雞豚煮干 #泡系  #限定',三商巧福／捷運西湖站,台北市
42,一番星拉麵,114台北市內湖區內湖路一段285號2樓101攤位,位於西湖市場2樓飲食區內，拌麵和醬油為定番，也不定期會推出限定品項，同時由於位於飲食區，座位動線也與一般美食街相若，較為寬敞，詳情請見下方食記。,11:30~14:00、17:30~19:30週六、日 公休會有不定休，請參閱粉專,25.08262,121.56643,Sky Walker - SP超背脂拉麵 https://bit.ly/36YHdxx   朱禾 - 煮干拉麵   https://bit.ly/31SvK0I   Hsing Chuan Chen - SP超背脂醬油拉麵   https://bit.ly/2GLRtQJ,北,#ramentw #台灣拉麵愛好會 #拉麵 #雞湯 #限定 #2019名店,西湖市場／捷運西湖站-1號出口,台北市
43,鷹流東京豚骨拉麺【極匠gokujoh】公館店,100台北市中正區汀州路三段104巷4號,來自鷹流老闆鷹峰涼一，加入背脂的豚骨濃湯，以及自家製麵的粗麵，可以加麵二球但是加麵只限細麵，味付玉子(糖心蛋)以及生玉子(生蛋)都是自由捐獻，一個30元起。除了濃湯外，還有搭配細麵的博多拉麵，博多拉麵沒有蒜末，但是會加上一匙辣醬，每月29日有特別叉燒增量活動。,11:30–14:30、17:00–21:00,25.014138,121.53309,黃北極 - 濃湯東京豚骨野菜拉麵   https://bit.ly/3acJZ2P   鄭立群 - 濃湯極匠肉肉SP   http://bit.ly/2ODxEJt   吳俊青 - 博多拉麵   http://bit.ly/2vM0znP,北,#ramentw #台灣拉麵愛好會 #拉麵 #豚骨魚介 #加麵一球免費 #每月29號 #2019名店,台灣大學／捷運公館站,台北市
44,一幻拉麵台北信義店,110台北市信義區松壽路30號1樓,來自北海道的一幻拉麵，主打鮮蝦湯頭，混合豚骨湯頭，佐以味噌、醬油、鹽味等調味，相當具有特色且適合喜愛蝦味的朋友。,週一到週五：11:00～15:00，17:00～22:30週六日：11:30～15:30，17:00～23:00,25.03580,121.56817,許秩綱-原味鹽味蝦拉麵   http://bit.ly/35dj3fK   廖雪 - 原味鹽味拉麵   https://bit.ly/2JWcOUw,北,#ramentw #台灣拉麵愛好會 #拉麵 #豚骨 ＃豚骨蝦  #2019名店,Neo19、捷運象山、世貿101、市府站,
45,博多幸龍総本店,10552台北市松山區八德路二段366巷16號,開業於2019年3月，以豚骨湯為主體，是博多一幸舍的子品牌，湯品稠度中等，沒有一幸舍般的豚骨重味，是適合全家人皆可享用的豚骨味覺，麵友們建議本店湯品不建議主動加鹹，將會失去味道的平衡感，詳情可察看下方網友食記。,週一~六 11:00~14:30(L.O14:30)17:00~27:00(L.O 26:30)週日 11:00~21:00,25.04747,121.545912,陳妍蓁 - 鹽味豚骨拉麵、味噌豚骨拉麵   https://bit.ly/3gCL1rc   Stars Yang -味噌拉麵   https://bit.ly/3dzspYb   Tree Chuang - 綠豚骨拉麵   https://bit.ly/35WQfu2,北,#ramentw #台灣拉麵愛好會 #拉麵 #豚骨 #煽り系 #限定,微風廣場,台北市
46,麵屋壹の穴ichi-沾麵專門店,106台北市大安區復興南路二段350號,預定開業於2019年11月，為壹之穴系列第四間店，一、三、五出咖哩沾麵，二、四、六出煮干沾麵，詳情可察看下方網友食記。,12:00~14:00、17:00~20:00週日 公休,25.022245,121.543193,Haruto Kiru - 藤椒宗田出汁冷蕎麥麵   https://bit.ly/3haJGIY   彭浩齊 - 豚雞沾麵肉盛   https://bit.ly/2RpiZWe   莉莉周 - 叉燒沾麵   https://bit.ly/2Wy48MJ,北,#ramentw #台灣拉麵愛好會 #沾麵 #豚雞 #咖哩 #煮干 #限定,芝加哥比薩,台北市
47,麵屋 千雲 -Chikumo-,10491台北市中山區林森北路105-1號,開幕於2019年2月，前身為鏡花水月拉麵店，之後轉型為麵屋千雲雞白湯拉麵店，湯內有雞肉丸是其特色，並且每日營業至凌晨3點，是台北市少見的深夜拉麵店。,12:00~15:00、18:00~27:00,25.050245,121.525007,朱禾 - 魚介招牌雞白湯沾麵   https://bit.ly/3hDTk6t   林俊安 - 雞白湯麵   https://bit.ly/31iUMoQ   Queena Peng - 柚香塩味雞湯拉麵   https://bit.ly/2Agi59c,北,#ramentw #台灣拉麵愛好會 #拉麵 #沾麵 #雞白 #雞濃 #2019名店,麥當勞,台北市
48,一蘭拉麵-台灣台北本店,110台北市信義區松仁路97號,源自福岡博多的豚骨拉麵，以其在全世界都能維持一貫品質和因地制宜調整而聞名，是全世界數一數二的連鎖拉麵品牌。,全年無休,25.03645,121.56860,黎駿朋 - 拉麵   http://bit.ly/2wBkrcK   Lin Cama-一蘭拉麵   http://bit.ly/2RRoBrS,北,#ramentw #台灣拉麵愛好會 #拉麵 #豚骨,新光三越A11、捷運市府、象山、世貿101站,
49,一蘭拉麵-台灣台北本店別館,110台北市信義區松壽路11號,源自福岡博多的豚骨拉麵，以其在全世界都能維持一貫品質和因地制宜調整而聞名，是全世界數一數二的連鎖拉麵品牌。,全年無休,25.03609,121.567276,黎駿朋 - 拉麵   http://bit.ly/2wBkrcK   Lin Cama-一蘭拉麵   http://bit.ly/2RRoBrS,北,#ramentw #台灣拉麵愛好會 #拉麵 #豚骨,新光三越A11、捷運市府、象山、世貿101站,台北市
50,太陽蕃茄拉麵-站前本店,100台北市中正區忠孝西路一段38號凱撤飯店B1F,太陽蕃茄拉麵源自於日本「大阪王將」企業體系中的拉麵業態，「大阪王將」在日本當地及海外已擁有300餐廳以上的EAT&株式會社。品牌誕生的概念是「能保存美味及兼顧身體健康的日式拉麵」，第一家店誕生於2006年在日本東京的錦系町，以東京23區為中心開出17家店，而海外於2012年10月在台灣台北凱撒飯店B1美食廣場開出第一家，目前陸續籌畫展店中。太陽蕃茄拉麵以創新拉麵概念'「美味、美容、健康」，其創新獨特趕在日本及台灣人氣上昇中。,週日~一 11:00–22:00週五~六 11:00–22:30,25.046254,121.516417,Max Cheng - 太陽海味蝦拉麵   https://bit.ly/3eLexf4   高崇堯 - 茄胡麻雞冷麵/ 雞骨白湯鮮蔬拉麵/半麵系列太陽拉麵   https://bit.ly/30m8jvg   Chang Torge - 胡麻豆乳豚肉拉麵／素太陽滑蛋拉麵   https://bit.ly/3a9Apxz,北,#ramentw #台灣拉麵愛好會  #拉麵 #雞清 #蕃茄 #義式 #素食 #限定 #變化 #2019名店,台北車站／捷運台北車站-M6出口,台北市
51,太陽番茄拉麵-忠孝店,106台北市大安區忠孝東路四段216巷27弄8號,太陽蕃茄拉麵源自於日本「大阪王將」企業體系中的拉麵業態，「大阪王將」在日本當地及海外已擁有300餐廳以上的EAT&株式會社。品牌誕生的概念是「能保存美味及兼顧身體健康的日式拉麵」，第一家店誕生於2006年在日本東京的錦系町，以東京23區為中心開出17家店，而海外於2012年10月在台灣台北凱撒飯店B1美食廣場開出第一家，目前陸續籌畫展店中。太陽蕃茄拉麵以創新拉麵概念'「美味、美容、健康」，其創新獨特趕在日本及台灣人氣上昇中。,11:30–15:00，17:00–21:30週六~周日11:30–21:30,25.039752,121.553495,Max Cheng - 太陽海味蝦拉麵   https://bit.ly/3eLexf4   高崇堯 - 茄胡麻雞冷麵/ 雞骨白湯鮮蔬拉麵/半麵系列太陽拉麵   https://bit.ly/30m8jvg   Max Lin - 太陽滑蛋拉麵   https://bit.ly/2N77zWl,北,#ramentw #台灣拉麵愛好會 #拉麵 #雞清 #蕃茄 #義式 #素食 #限定 #變化 #2019名店,明曜百貨／捷運忠孝敦化站-3號出口,台北市
52,太陽蕃茄拉麵-誠品信義店,110台北市信義區松高路11號B2,太陽蕃茄拉麵源自於日本「大阪王將」企業體系中的拉麵業態，「大阪王將」在日本當地及海外已擁有300餐廳以上的EAT&株式會社。品牌誕生的概念是「能保存美味及兼顧身體健康的日式拉麵」，第一家店誕生於2006年在日本東京的錦系町，以東京23區為中心開出17家店，而海外於2012年10月在台灣台北凱撒飯店B1美食廣場開出第一家，目前陸續籌畫展店中。太陽蕃茄拉麵以創新拉麵概念'「美味、美容、健康」，其創新獨特趕在日本及台灣人氣上昇中。,11:00–22:00,25.039524,121.565222,Max Cheng - 太陽海味蝦拉麵   https://bit.ly/3eLexf4   高崇堯 - 茄胡麻雞冷麵/ 雞骨白湯鮮蔬拉麵/半麵系列太陽拉麵   https://bit.ly/30m8jvg   Max Lin - 太陽滑蛋拉麵   https://bit.ly/2N77zWl,北,#ramentw #台灣拉麵愛好會 #拉麵 #雞清 #蕃茄 #義式 #素食 #限定 #變化 #2019名店,信義誠品／捷運市政府站-2號出口,台北市
53,太陽蕃茄拉麵-美麗華店,10491台北市中山區敬業三路20號B1,太陽蕃茄拉麵源自於日本「大阪王將」企業體系中的拉麵業態，「大阪王將」在日本當地及海外已擁有300餐廳以上的EAT&株式會社。品牌誕生的概念是「能保存美味及兼顧身體健康的日式拉麵」，第一家店誕生於2006年在日本東京的錦系町，以東京23區為中心開出17家店，而海外於2012年10月在台灣台北凱撒飯店B1美食廣場開出第一家，目前陸續籌畫展店中。太陽蕃茄拉麵以創新拉麵概念'「美味、美容、健康」，其創新獨特趕在日本及台灣人氣上昇中。,11:00–22:00,25.08283,121.55695,Max Cheng - 太陽海味蝦拉麵   https://bit.ly/3eLexf4   高崇堯 - 茄胡麻雞冷麵/ 雞骨白湯鮮蔬拉麵/半麵系列太陽拉麵   https://bit.ly/30m8jvg   Max Lin - 太陽滑蛋拉麵   https://bit.ly/2N77zWl,北,#ramentw #台灣拉麵愛好會 #拉麵 #雞清 #蕃茄 #義式 #素食 #限定 #變化 #2019名店,美麗華／捷運捷運劍南路站-3號出口,台北市
54,太陽蕃茄拉麺-大葉髙島屋店,11148台北市士林區忠誠路二段55號,太陽蕃茄拉麵源自於日本「大阪王將」企業體系中的拉麵業態，「大阪王將」在日本當地及海外已擁有300餐廳以上的EAT&株式會社。品牌誕生的概念是「能保存美味及兼顧身體健康的日式拉麵」，第一家店誕生於2006年在日本東京的錦系町，以東京23區為中心開出17家店，而海外於2012年10月在台灣台北凱撒飯店B1美食廣場開出第一家，目前陸續籌畫展店中。太陽蕃茄拉麵以創新拉麵概念'「美味、美容、健康」，其創新獨特趕在日本及台灣人氣上昇中。,11:00-21:30週五~週六11:00-22:00(含國定假日前夕),25.111845,121.531417,Max Cheng - 太陽海味蝦拉麵   https://bit.ly/3eLexf4   高崇堯 - 茄胡麻雞冷麵/ 雞骨白湯鮮蔬拉麵/半麵系列太陽拉麵   https://bit.ly/30m8jvg   Max Lin - 太陽滑蛋拉麵   https://bit.ly/2N77zWl,北,#ramentw #台灣拉麵愛好會 #拉麵 #雞清 #蕃茄 #義式 #素食 #限定 #變化 #2019名店,高島屋,台北市
55,太陽蕃茄EXPRESS,10491台北市中山區南京西路14號,本店為太陽蕃茄拉麵的子品牌，於2020年10月7日，開設於南港中國信託金融園區C棟3F。主打快速出餐服務。▎鄰近地標或大眾運輸：誠品南西店／捷運中山站,,25.052443,121.520619,可參考太陽蕃茄拉麵相關食記   ,北,#ramentw #台灣拉麵愛好會 #拉麵 #雞清 #蕃茄 #義式 #素食 #變化 #2019名店,誠品南西店／捷運中山站▎營業時間：11:00~21:30,台北市
56,ラーメン凪 Ramen Nagi-大直店,10491台北市中山區樂群三路301號2樓,用拉麵跟全世界交朋友『ラーメン凪(Nagi)』豚骨拉麵在日本連年獲TRY拉麵大賞與各大拉麵評鑑冠軍，生田主廚憑藉著對拉麵的熱誠，堅持Nagi Spirit is a bridge to the world精神，希望能藉由Nagi讓全世界都愛上日本拉麵。經典四大天王 - 豚王、赤王、翠王、黑王，款款迷人，各擅勝場！每週限定王 - 每週推出一種口味拉麵，讓人驚喜,週日~四 11:30 - 21:30(最晚供餐時間:21:00)週五~六 11:30 - 22:00(最晚供餐時間:21:30),25.082728,121.559398,洪宥名 - 赤王   https://bit.ly/32m7y6t   朱禾 - 咖哩王   https://bit.ly/2Z6XNbM   大頭小寶 - 麥迪王 乾+湯   https://bit.ly/3173gRw,北,#ramentw #台灣拉麵愛好會 #拉麵 #豚骨 #辣味#限定 #2019名店,大直美麗華／捷運劍南路站,台北市
57,ラーメン凪 Ramen Nagi-西門店,108台北市萬華區漢中街52號6樓,用拉麵跟全世界交朋友『ラーメン凪(Nagi)』豚骨拉麵在日本連年獲TRY拉麵大賞與各大拉麵評鑑冠軍，生田主廚憑藉著對拉麵的熱誠，堅持Nagi Spirit is a bridge to the world精神，希望能藉由Nagi讓全世界都愛上日本拉麵。經典四大天王 - 豚王、赤王、翠王、黑王，款款迷人，各擅勝場！每週限定王 - 每週推出一種口味拉麵，讓人驚喜,11:30 - 21:30,25.043934,121.507194,洪宥名 - 赤王   https://bit.ly/32m7y6t   朱禾 - 咖哩限定王   https://bit.ly/2Z6XNbM   大頭小寶 - 麥迪王 乾+湯   https://bit.ly/3173gRw,北,#ramentw #台灣拉麵愛好會 #拉麵 #豚骨 #辣味#限定 #2019名店,西門町商圈／捷運西門站,台北市
58,ラーメン凪 Ramen Nagi-天母店,111台北市士林區天母東路50巷10弄2號,用拉麵跟全世界交朋友『ラーメン凪(Nagi)』豚骨拉麵在日本連年獲TRY拉麵大賞與各大拉麵評鑑冠軍，生田主廚憑藉著對拉麵的熱誠，堅持Nagi Spirit is a bridge to the world精神，希望能藉由Nagi讓全世界都愛上日本拉麵。經典四大天王 - 豚王、赤王、翠王、黑王，款款迷人，各擅勝場！每週限定王 - 每週推出一種口味拉麵，讓人驚喜,周日~四 11:30 - 21:30(最晚供餐時間:21:00)週五~六 11:30 - 22:00(最晚供餐時間:21:30),25.117663,121.533398,洪宥名 - 赤王   https://bit.ly/32m7y6t   大頭小寶 - 麥迪王 乾+湯   https://bit.ly/3173gRw   Sky Walker - 綠咖哩王(限定   https://bit.ly/3cF2r4,北,#ramentw #台灣拉麵愛好會 #拉麵 #豚骨 #辣味#限定 #2019名店,天母東路／新光三越天母店,台北市
59,ラーメン凪 Ramen Nagi-忠孝店,106台北市大安區大安路一段75巷5號1,用拉麵跟全世界交朋友『ラーメン凪(Nagi)』豚骨拉麵在日本連年獲TRY拉麵大賞與各大拉麵評鑑冠軍，生田主廚憑藉著對拉麵的熱誠，堅持Nagi Spirit is a bridge to the world精神，希望能藉由Nagi讓全世界都愛上日本拉麵。經典四大天王 - 豚王、赤王、翠王、黑王，款款迷人，各擅勝場！每週限定王 - 每週推出一種口味拉麵，讓人驚喜,周日~四 11:30 - 22:00(最晚供餐時間:21:30)週五~六 11:30 - 22:30(最晚供餐時間:22:00),25.04256,121.54659,洪宥名 - 赤王   https://bit.ly/32m7y6t   大頭小寶 - 麥迪王 乾+湯   https://bit.ly/3173gRw   Sky Walker - 綠咖哩王(限定   https://bit.ly/3cF2r4,北,#ramentw #台灣拉麵愛好會 #拉麵 #豚骨 #辣味#限定 #2019名店,東區商圈／捷運忠孝復興站,台北市
60,ラーメン凪 Ramen Nagi-信義店,110台北市信義區松壽路22號2樓,用拉麵跟全世界交朋友『ラーメン凪(Nagi)』豚骨拉麵在日本連年獲TRY拉麵大賞與各大拉麵評鑑冠軍，生田主廚憑藉著對拉麵的熱誠，堅持Nagi Spirit is a bridge to the world精神，希望能藉由Nagi讓全世界都愛上日本拉麵。經典四大天王 - 豚王、赤王、翠王、黑王，款款迷人，各擅勝場！每週限定王 - 每週推出一種口味拉麵，讓人驚喜,周日~四 11:30 - 22:00(最晚供餐時間:21:30)週五~六 11:30 - 22:30(最晚供餐時間:22:00),25.035584,121.567732,洪宥名 - 赤王   https://bit.ly/32m7y6t   大頭小寶 - 麥迪王 乾+湯   https://bit.ly/3173gRw   Sky Walker - 綠咖哩王(限定   https://bit.ly/3cF2r4,北,#ramentw #台灣拉麵愛好會 #拉麵 #豚骨 #辣味#限定 #2019名店 #外送,Neo19／台北市政府,台北市
61,鷹流東京涼麺・油そば本舗【涼風庵Ryofuh-An】,110台北市信義區忠孝東路五段183號,來自鷹流老闆鷹峰涼一，店內品項為油拌麵及涼麵，店內還有類似subway的配料吧檯可供顧客自行挑選喜愛的配料。涼麵有胡麻跟醬油兩種醬底選擇，麵條可選冷、熱，二者各有不同的咀嚼風格。店內提供外帶。,週一~日 : 17:00–23:00星期五、六 中午營業,25.041217,121.569115,王宇璋 - 九鬼胡麻肉三種盛り   https://bit.ly/3jhlSVr   CanCan Lu - 九鬼胡麻三種肉盛リ涼麵 https://bit.ly/2NaWZfm   Raven Chen - 大蒜ニンニク塩油そば   https://bit.ly/3a1xCWe,北,#ramentw #台灣拉麵愛好會 #油拌麵 #每月29號 #2019名店,微風松高／捷運市政府站,台北市
62,鶏そば本舗【梓山azusayama】,104台北市中山區晴光市場,開業於2019年9月，是鷹流系列的雞白湯拉麵店(鶏そば本舗)，亦有99元雞清湯拉麵可供選擇，詳情可察看下方網友食記。,週一~五 11:30~14:00、18:00~22:00(Last Order 21:30)週六~日 18:00~22:00(Last Order 21:30),25.06463266,121.5334376,蔡承澔 - 玉米雞濃湯   https://bit.ly/3mOjtlX   Austan Wang - 白雞麵sp   https://bit.ly/2OoENQ5   Hsing Chuan Chen - 背脂煮干拉麵   https://bit.ly/2Wlzq7B,北,#ramentw #台灣拉麵愛好會 #拉麵 #雞清 #雞白 #每月29號,晴光市場,台北市
63,北一家 食事処,114台北市內湖區江南街71巷16弄38號,2019年4月，於現址重新開幕。2020年7月30日，將煽り系風味從招牌移除。2020年8月18日復業並更名為北一家 食事処，雖不強調煽り系，但在製程上保留煽り系製作方式。本店是屬於北海道風格的拉麵，由於出餐的製程繁複，等候需一段時間，建議可在餐期前提早排隊用餐，才有可能吃到，詳情可察看下方網友食記。,17:30~20:30週一 公休,25.075619,121.577637,林子傑 - 鹽味清湯拉麵   https://bit.ly/31hKAOJ   大頭小寶 - 魚介風味味噌拉麵   https://bit.ly/3hLx7DV   林英傑 - 醬油拉麵   https://bit.ly/2YXORWc,北,#ramentw #台灣拉麵愛好會 #拉麵 #味噌,文德3號公園旁,台北市
64,東京油組総本店 台北敦南組,106台北市大安區敦化南路一段236巷5號,來自日本的店家，由台灣頂呱呱代理，有多種配料可供選擇的拌麵專賣店，可自行組合拌麵內的調味是吃油組的樂趣之一，味感繽紛且獨特，對喜愛拌麵的朋友是好選擇。,11:30 - 22:00,25.040672,121.547818,Wanyu Chen - 招牌醬油油麵   https://bit.ly/2Zwevlm   Yu-Ro Tsai - 辣味味噌油麵   https://bit.ly/2DQvAxI   Max Lin - 醬油油麵   https://bit.ly/2P9lI2w,北,#ramentw #台灣拉麵愛好會 #油拌麵 #醬油 #味噌 #每月5號 #2019名店,SOGO敦南／捷運忠孝復興、忠孝敦化站間,台北市
65,東京油組總本店 台北華山組,100台北市中正區忠孝東路一段140號,來自日本的店家，由台灣頂呱呱代理，有多種配料可供選擇的拌麵專賣店，可自行組合拌麵內的調味是吃油組的樂趣之一，味感繽紛且獨特，對喜愛拌麵的朋友是好選擇。,11:30 - 22:00,25.044081,121.525454,Wanyu Chen - 招牌醬油油麵   https://bit.ly/2Zwevlm   Yu-Ro Tsai - 辣味味噌油麵   https://bit.ly/2DQvAxI   Stars Yang - 醬油油麵   https://bit.ly/2ocUKLY,北,#ramentw #台灣拉麵愛好會 #油拌麵 #醬油 #味噌 #每月5號 #2019名店,光華商場／捷運善導寺站、忠孝新生站間,台北市
66,小川拉麺専門店 台灣分店,106台北市大安區復興南路二段190號,源自日本的品牌，主打直拳豚骨湯頭、自家製麵。湯頭相當濃厚，但無論是湯頭濃淡、油量、麵條軟硬度都能按照個人喜好調整，適合豚骨拉麵的愛好者。,11:30-14:30、17:30-21:00週一 公休,25.027152,121.543231,Is Amy - 豚骨拉麵   https://bit.ly/36aviMR   Zhanyao Zhang - 味玉W叉燒拉麵 https://bit.ly/2I6JnTA   朱禾 - 豚骨味玉拉麵   https://bit.ly/2x6CWds,北,#ramentw #台灣拉麵愛好會 #拉麵 #豚骨 #豚清 #辣味 #2019名店,捷運科技大樓站、科技部,台北市
67,鷹流東京蝦拉麺【小桜koharu】,105台北市松山區八德路三段76號,開幕於2018年11月，位於中崙市場2樓，是鷹流系列店家中，專攻蝦風味的店家，每日各品項採限量發售，皆獲得麵友們不錯的好評，若需攻略本店的麵友，由於店家無準備水，建議帶瓶水或飲料過去，以便舒緩味覺。,18:00–20:00,25.048074,121.552759,David Fan - 蝦雞白湯SP、極！蝦油拌麵   http://bit.ly/2NetTfr   劉劉穎 - 濃厚雞白湯蝦拉麵SP   http://bit.ly/2zhdIXT   Queena Peng－蝦雞白湯拉麵／濃厚蝦雞白湯味噌拉麵（限定）   http://bit.ly/2KWpbUT,北,#ramentw #台灣拉麵愛好會 #拉麵 #雞白 #雞濃 #雞蝦 #每月29號 #2019名店,中崙市場,台北市
68,屯京拉麵-忠孝敦化店,106台北市大安區敦化南路一段187巷36號,1992年源自東京池袋開店，主打是以豬大骨為基礎，加上雞腳等素材，再調入特製秘方的香濃醬油所組成的東京豚骨拉麵。主打平價及CP值，香酥的炸雞也是該店的一大特色。在台北、台南、高雄皆有分店。,11：00〜23：00,25.04268,121.55118,YenYu Chen - 魚介叉燒拉麵   http://bit.ly/2mwBYi0   許嘉欽 - 超值東京豚骨拉麵   http://bit.ly/2Lctuv6,北,#ramentw #台灣拉麵愛好會 #拉麵 #沾麵 #豚骨 #炸雞 #點餐前加麵免費 #2019名店,統領百貨／捷運忠孝敦化站-1號出口步行2分,
69,屯京拉麵-站前店,100台北市中正區忠孝西路一段38號B1,1992年源自東京池袋開店，主打是以豬大骨為基礎，加上雞腳等素材，再調入特製秘方的香濃醬油所組成的東京豚骨拉麵。主打平價及CP值，香酥的炸雞也是該店的一大特色。在台北、台南、高雄皆有分店。,週日-四: 11:00〜22:00週五-六: 11:00〜22:30,25.046254,121.516417,YenYu Chen - 魚介叉燒拉麵   http://bit.ly/2mwBYi0   許嘉欽 - 超值東京豚骨拉麵   http://bit.ly/2Lctuv6,北,#ramentw #台灣拉麵愛好會 #拉麵 #沾麵 #豚骨 #炸雞 #點餐前加麵免費 #2019名店,凱撒大飯店B1／捷運台北車站-M6出口步行2分,台北市
70,屯京拉麵-中山店,10491台北市中山區中山北路一段141號,1992年源自東京池袋開店，主打是以豬大骨為基礎，加上雞腳等素材，再調入特製秘方的香濃醬油所組成的東京豚骨拉麵。主打平價及CP值，香酥的炸雞也是該店的一大特色。在台北、台南、高雄皆有分店。,11：00〜23：00,25.05207,121.52269,YenYu Chen - 魚介叉燒拉麵   http://bit.ly/2mwBYi0   許嘉欽 - 超值東京豚骨拉麵   http://bit.ly/2Lctuv6,北,#ramentw #台灣拉麵愛好會 #拉麵 #沾麵 #豚骨 #炸雞 #點餐前加麵免費 #2019名店,玉山銀行／捷運中山站-2號出口步行5分,
71,屯京拉麵-新光三越A8館,110台北市信義區松高路12號B2,1992年源自東京池袋開店，主打是以豬大骨為基礎，加上雞腳等素材，再調入特製秘方的香濃醬油所組成的東京豚骨拉麵。主打平價及CP值，香酥的炸雞也是該店的一大特色。在台北、台南、高雄皆有分店。,一般日: 11：00～21：30假日前一天: 11：00～22：00,25.03795,121.56659,YenYu Chen - 魚介叉燒拉麵   http://bit.ly/2mwBYi0   許嘉欽 - 超值東京豚骨拉麵   http://bit.ly/2Lctuv6,北,#ramentw #台灣拉麵愛好會 #拉麵 #沾麵 #豚骨 #炸雞 #點餐前加麵免費 #2019名店,新光三越A8 B2／捷運市府站-3號出口,
72,重熙老麵,100台北市中正區廣州街8巷7號,主打溫和濃厚的雞白湯拉麵，湯底使用老母雞和雞腳、蔬菜熬煮而成，味道相當濃郁且香氣十足。麵體是捲麵，隨麵會附上櫻花蝦油和蒜酥，雞湯燉飯也相當優秀。,12:00-14:30、17:30-21:30週日 公休,25.034919,121.508155,江元裕 - 雞濃白湯老麵   http://bit.ly/2PRxyzG   邱炳憲 - 雞濃白湯老麵   http://bit.ly/2NzeAMF,北,#ramentw #台灣拉麵愛好會 #拉麵 #雞濃白 ,捷運小南門站、植物園,台北市
73,重熙老麵-樂利店,106台北市大安區樂利路86巷6號,本店開幕於2019年3月。主打溫和濃厚的雞白湯拉麵，湯底使用老母雞和雞腳、蔬菜熬煮而成，味道相當濃郁且香氣十足。麵體是捲麵，隨麵會附上櫻花蝦油和蒜酥，雞湯燉飯也相當優秀。,週一-六 12:00-14:20，17:30-21:20週日 12:00-14:15，17:30-21:15,25.025259,121.55164,江元裕 - 雞濃白湯老麵   http://bit.ly/2PRxyzG   邱炳憲 - 雞濃白湯老麵   http://bit.ly/2NzeAMF,北,#ramentw #台灣拉麵愛好會 #拉麵 #雞濃白,六張犂、樂利路,台北市
74,京都柚子豚骨拉麵研究中心,10491台北市中山區長安西路19巷2弄23-1號,開業於2020年7月13日，來自日本的よってこや，由王座集團下的大阪王將所代理，與太陽的蕃茄麵同集團，湯頭以豚雞湯為主體，來自京都的柚子是本店的招牌味道，詳情可察看下方網友食記。,11:30~15:00，17:00~20:30,25.051043,121.520382,Faust Alastair - 發明一號   https://bit.ly/3fwhVe5   Raven Chen - 發明1號   https://bit.ly/3ptXpzv   邱邱比 - 柚子胡椒味豚骨   https://bit.ly/3j0HZip,北,#ramentw #台灣拉麵愛好會 #拉麵 #豚骨 #柚子,誠品中山館／捷運中山站,台北市
75,半熟堂 Hanjukudo Taiwan,106台北市大安區敦化南路一段190巷32號,開業於2018年10月，以庶民食堂為主軸的店家，店內販售飯食和拉麵，首波販售魚爆拉麵，店內亦有販售麵食組合，客戶可以使用一個價格享受二種風味，對愛嚐鮮的朋友十分划算，詳情可察看下方網友食記。,週一~四 11:30~14:00，17:30~20:30週五 11:30~14:00，17:30~21:00週六 11:30~21:00週日 11:30~20:30,25.042437,121.547073,莊家豪 - 魚介醬油叉燒拉麵   http://bit.ly/2IJMiPU   吳品蓉 - 健康蔬菜拉麵／豚骨醬油拉麵／名古屋半熟拌麵   http://bit.ly/2UPsCkZ   Otis Huang - 豚骨醬油拉麵   https://bit.ly/2ZFmauf,北,#ramentw #台灣拉麵愛好會 #拉麵 #豚骨 #豚骨魚介 #雞清湯 #蒟蒻麵 #每月15日 #2019名店,中心診所 / 捷運忠孝復興站步行4分,台北市
76,麵屋 緣enishi 京都餘香台北分店,106台北市大安區敦化南路二段81巷45弄12號1樓,來自於京都的拉麵店，隱身於台北巷弄內，餐點則為高雅的豚骨魚介，店內座位均為吧檯，可以親炙主廚風采，同時其店內甜點亦相當出色，諸如抹茶布丁、熔岩巧克力等，都是內外兼具的一品。,週二~五 11:30–14:30、17:30–21:00週六、日12:00–15:00、17:00–21:00,25.030797,121.549994,Bill Chang - 咖哩湯麵   https://bit.ly/3b4h4gJ   吳俊青 - 冷製蕃茄沾麵   https://bit.ly/2NfJkFD   吳俊青 - 豚骨魚介湯麵   https://bit.ly/2wAdzgL,北,#ramentw #台灣拉麵愛好會 #拉麵 #沾麵 #豚骨 #豚骨魚介 #2019名店,捷運信義安和站 - 2號出口,台北市
77,麵屋一番-社子店,111台北市士林區社中街2-32號,於2020年2月開業，以雞白湯為主軸，原味味道清爽，若需加鹹，請與店家先行告知，詳情可察看下方網友食記。,17:00~22:00,25.087692,121.509161,谷祖豪 - 蛤蠣雞湯拉麵   https://bit.ly/2Goyag2   Stars Yang - 咖哩雞白湯拉麵   https://bit.ly/373phDH   丁閎 - 雞白湯拉麵   https://bit.ly/3kJoBrn,北,#ramentw #台灣拉麵愛好會 #拉麵 #雞白 #咖哩 #CP值,社子夜市,台北市
78,麵屋秋匠,106台北市大安區大安路一段51巷29號,開業於2019年12月，湯底為牛骨系，味道偏向淡麗風格，亦有販售豚骨系與咖哩飯，詳情可察看下方網友食記。,11:30~14:00，17:30~21:00週日 公休,25.04347,121.54749,Yuan Cheng - 醬油拉麵   https://bit.ly/3iXMcTi   Stars Yang - 醬油拉麵   https://bit.ly/2GFGJTJ   Elvis Hsu - 蝦味拉麵／醬油拉麵   https://bit.ly/3javL6U,北,#ramentw #台灣拉麵愛好會 #拉麵 #牛骨 #牛骨魚介 #豚骨,尚咖啡／捷運忠孝復興站,
79,麵屋輝,104台北市中山區伊通街8-1號,2019年9月復業，來自大阪的魚介豚骨拉麵，鄰近伊通公園，店內環境淨雅，若有清閒，用餐後，也可於附近的袖珍博物館、伊通公園等逛逛，都是不錯的飯後休憩地。,11:30~14:00，17:30~21:00,25.04982,121.53463,Stars Yang - 魚介豚骨沾麵   https://bit.ly/3b16vwI   朱禾 - 叉燒沾麵   https://bit.ly/3grWU4t   Raven Chen - 乾担担麵   http://bit.ly/2TcpexW,北,#ramentw #台灣拉麵愛好會 #拉麵 #沾麵 #豚骨 #豚骨魚介,伊通公園／捷運松江南京站-4號出口,台北市
80,美濃屋拉麵,10491台北市中山區新生北路一段108之1號,日本喜多方拉麵-台北第一家分店，鄰近林森北路七條通區域，老闆娘親赴日本學習當地拉麵，並參加當地老麵會推廣組織，是台北市推廣日式拉麵(非使用業務湯頭)的先驅，不時有日本客人來店，給人一種日本居酒屋式的溫馨。,週二~五 17:00~24:00週六 12:00~24:00週日 12:00~22:00週一 公休,25.04979,121.52821,朱禾 - 喜多方醬油叉燒拉麵   https://bit.ly/3km3zxN   Sky Walker - 叉燒味噌拉麵   https://bit.ly/2APpMn1   Candy Yang : 喜多方拉麵   http://bit.ly/2osvKk8,北,#ramentw台北 #台灣拉麵愛好會 #拉麵 #喜多方,新生北路／好駐旅館,
81,麵屋牛一,106台北市大安區敦化南路1段151號1樓,風格為台日混合，湯頭濃郁，是碗很像拉麵的牛肉麵，層次豐富，以雞骨熬湯為湯頭主體，內容物豐富，再加上個人化食用空間，是間用餐風格印象深刻的拉麵店。,週日~四 12:00-21:00週五~六 12:00-21:30,25.04387,121.549216,Sky Walker - 胡麻味噌紅牛油麵   http://bit.ly/30e2nEg   林佳佳 - 紅燒雞骨牛肉麵、清燉雞骨牛肉麵   http://bit.ly/2xGMaKw,北,#ramentw #台灣拉麵愛好會 #拉麵 #雞湯 #牛骨 #限定,捷運忠孝敦化站,台北市
82,富山天滿,103台北市大同區民族西路223之2號,開業於2019年3月，前身是富園日式料理，湯頭以豚骨湯為主體，並加上堅果做為湯體的厚度層次，湯味為台日混合風格，價格平實，深受附近居民喜愛，詳情可察看下方網友食記。,11:00~14:00、17:00~21:00,25.068803,121.51296,黃宣蒲 - 堅果叉燒拉麵／檜木煙燻牛舌拉麵   https://bit.ly/2SvbGgi   Max Cheng - 堅果叉燒拉麵   https://bit.ly/2xqLNqH   Raven Chen - 堅果叉燒拉麵   https://bit.ly/2Xd2n7T,北,#ramentw #台灣拉麵愛好會 #拉麵 #豚骨 #堅果,大龍峒、延三夜市,台北市
83,一風堂-中山本店,10491台北市中山區中山北路一段85號,一風堂成立於 1985 年，發源自博多。創業者河原成美打造出貼心、溫暖且充滿活力的用餐氣氛，從此顛覆了日本拉麵文化。2008 年起，一風堂陸續在紐約、新加坡、首爾、香港等地開店，成立之初即為當地拉麵市場帶來一番新氣象。時至今日，一風堂仍以拉麵界的先驅之姿，在全球掀起陣陣旋風。,週一至週日 11:30 - 24:00(閉店前30分鐘為最後點餐)(四人以上可接受預約),25.05071,121.52229,Nora Neko - 京都黑醬油拉麵(限定)   https://bit.ly/2KS5cS9   David Lai - 海老沾麵(限定)   https://bit.ly/2OyV3Ms   Daxon Tsai - 海老沾麵(限定)   https://bit.ly/2PaoNAi,北,#ramentw #台灣拉麵愛好會 #拉麵 #豚骨,台北當代藝術館／捷運中山站,
84,一風堂-新光三越店A8館,110台北市信義區松高路12號B1,一風堂成立於 1985 年，發源自博多。創業者河原成美打造出貼心、溫暖且充滿活力的用餐氣氛，從此顛覆了日本拉麵文化。2008 年起，一風堂陸續在紐約、新加坡、首爾、香港等地開店，成立之初即為當地拉麵市場帶來一番新氣象。時至今日，一風堂仍以拉麵界的先驅之姿，在全球掀起陣陣旋風。,週日~週四 11:00 - 21:30週五、週六(假日前)11:00 - 22:00(閉店前30分鐘為最後點餐),25.03798,121.56689,Nora Neko - 京都黑醬油拉麵(限定)   https://bit.ly/2KS5cS9   David Lai - 海老沾麵(限定)   https://bit.ly/2OyV3Ms   Daxon Tsai - 海老沾麵(限定)   https://bit.ly/2PaoNAi,北,#ramentw #台灣拉麵愛好會 #拉麵 #豚骨,新光三越A8／捷運市府站,
85,一風堂-微風台北車站店,100台北市中正區北平西路3號2樓,一風堂成立於 1985 年，發源自博多。創業者河原成美打造出貼心、溫暖且充滿活力的用餐氣氛，從此顛覆了日本拉麵文化。2008 年起，一風堂陸續在紐約、新加坡、首爾、香港等地開店，成立之初即為當地拉麵市場帶來一番新氣象。時至今日，一風堂仍以拉麵界的先驅之姿，在全球掀起陣陣旋風。,週一至週日 10:00 - 22:00(閉店前30分鐘為最後點餐),25.04809,121.51700,Nora Neko - 京都黑醬油拉麵(限定)   https://bit.ly/2KS5cS9   David Lai - 海老沾麵(限定)   https://bit.ly/2OyV3Ms   Daxon Tsai - 海老沾麵(限定)   https://bit.ly/2PaoNAi,北,#ramentw #台灣拉麵愛好會 #拉麵 #豚骨,台北車站,
86,一風堂-微風中研院店,115台北市南港區中研里,一風堂成立於 1985 年，發源自博多。創業者河原成美打造出貼心、溫暖且充滿活力的用餐氣氛，從此顛覆了日本拉麵文化。2008 年起，一風堂陸續在紐約、新加坡、首爾、香港等地開店，成立之初即為當地拉麵市場帶來一番新氣象。時至今日，一風堂仍以拉麵界的先驅之姿，在全球掀起陣陣旋風。,11:00～20:30（Last Order20:00）,25.05452697,121.6067927,Nora Neko - 京都黑醬油拉麵(限定)   https://bit.ly/2KS5cS9   David Lai - 海老沾麵(限定)   https://bit.ly/2OyV3Ms   Daxon Tsai - 海老沾麵(限定)   https://bit.ly/2PaoNAi,北,#ramentw #台灣拉麵愛好會 #拉麵 #豚骨,中研院學術活動中心,台北市
87,一風堂EXPRESS-微風南山,110台北市信義區松智路17號B2樓,此店位於微風南山B2。一風堂成立於 1985 年，發源自博多。創業者河原成美打造出貼心、溫暖且充滿活力的用餐氣氛，從此顛覆了日本拉麵文化。2008 年起，一風堂陸續在紐約、新加坡、首爾、香港等地開店，成立之初即為當地拉麵市場帶來一番新氣象。時至今日，一風堂仍以拉麵界的先驅之姿，在全球掀起陣陣旋風。,11:00-22:00(21:30last order),25.03459,121.56637,由你來寫第一篇   ,北,#ramentw #台灣拉麵愛好會 #拉麵 #豚骨,微風南山,
88,Le Ming 麵食精釀餐酒館-中山店,104台北市中山區中山北路一段135巷1號,開業於2020年5月，店主插旗中山拉麵戰區，本店的湯體是使用西式手法調理並以干貝雞湯為主體，是目前少見以魚介雞湯系為主的拉麵店，店內亦有販售沾麵及啤酒，詳情可察看下方網友食記。,17:30~22:00,25.05191,121.522939297352,何柏賢 - 松露干貝雞拉麵   https://bit.ly/3i3nsbF   Yu-Ro Tsai - 干貝松露雞拉麵   https://bit.ly/3hwYBgW   CiaoXuan Lin - 松露干貝雞湯拉麵   https://bit.ly/2YOc5OQ,北,#ramentw #台灣拉麵愛好會 #拉麵 #沾麵 #雞白 #干貝雞 #可訂位 ,屯京拉麵,
89,樂麵屋-永康店,106台北市大安區永康街10巷7號,樂麵屋是台灣第一家讓客人選擇自己喜歡口味的拉麵店，讓客人覺得吃完麵之後覺得滿足又幸福是我們唯一的目標，所以我們在各個環節都用最龜毛的方式去做！,11:30~21:00 (Last Order 20:30),25.0323225530121,121.529205726187,Cama Lin - 二郎風蒜味拉麵   https://bit.ly/3ktQW55   Shih-Yao Lin - 綜合赤味增   https://bit.ly/2OGrt7D,北,#ramentw #台灣拉麵愛好會 #拉麵 #豚骨 #無限免費加麵 #限定,永康商圈／捷運東門站-4號出口,
90,樂麵屋-永康公園店,106台北市大安區永康街10巷3號,樂麵屋是台灣第一家讓客人選擇自己喜歡口味的拉麵店，讓客人覺得吃完麵之後覺得滿足又幸福是我們唯一的目標，所以我們在各個環節都用最龜毛的方式去做！,週日~四 11:30~21:00 (Last Order 20:30)週五~六 11:30~21:30 (Last Order 21:00),25.032027,121.529458,Shih-Yao Lin - 綜合赤味增   https://bit.ly/2OGrt7D,北,#ramentw #台灣拉麵愛好會 #拉麵 #豚骨 #無限免費加麵 #限定,永康商圈／捷運東門站-4號出口,台北市
91,樂麵屋-西門店,108台北市萬華區昆明街25號,公司創立於2006年，樂麵店目前有六家店，本店位於西門町鬧區，主打日式湯頭、無限加麵。大部份麵友們的評價評斷此間湯頭偏台日混合豚骨，加上不定時推出的限定麵食，深受學生以及上班族喜愛，本店限定是二郎風拉麵，詳情可察看下方網友食記。,11:00–21:30(Last Order 21:00),25.044728,121.50548,Cama Lin - 二郎風蒜味拉麵   https://bit.ly/3ktQW55,北,#ramentw #台灣拉麵愛好會 #拉麵 #豚骨 #無限加麵 #二郎風,板橋車站／板橋捷運站步行1分,台北市
92,樂麵屋-南港中信店,115台北市南港區經貿二路166號中國信託金融園區A棟2樓,樂麵屋是台灣第一家讓客人選擇自己喜歡口味的拉麵店，讓客人覺得吃完麵之後覺得滿足又幸福是我們唯一的目標，所以我們在各個環節都用最龜毛的方式去做！,11:30-21:00(Last Order 20:30),25.058718,121.616283,Max Lin - 厚豚煮干醬油拉麵   https://bit.ly/2vLQAyV,北,#ramentw #台灣拉麵愛好會 #拉麵 #豚骨 #無限免費加麵 #限定,中國信託金融園區／捷運南港軟體園區站-2號出口,台北市
93,花月嵐-西門武昌店,108台北市萬華區武昌街二段29號,主打為大蒜拳骨拉麵（或是炒飯），全台分店眾多且口味穩定一致，至今仍不斷推出許多限定拉麵是特色之一。桌上配菜辣韭菜是相當受到喜愛，炒飯更是麵友推薦必點項目，所以又有炒飯才是本體的傳說。,週日至週四: 11:00–22:00週五至週六: 11:00–23:00,25.04483,121.507930141531,孫麗瑩 - 叉燒加量原湯拉麵   http://bit.ly/2MHQIGe   林致群 - 大蒜拳骨拉麵   http://bit.ly/2uLLdyo   黃傑夫 - 紅魔鬼大蒜味噌担担麵   https://bit.ly/2qDINA3,北,#ramentw #台灣拉麵愛好會 #拉麵 #豚骨 #大蒜 #限定 #炒飯,西門町／捷運西門站-6號出口,
94,花月嵐-信義威秀店,110台北市信義區松壽路20號2樓,主打為大蒜拳骨拉麵（或是炒飯），全台分店眾多且口味穩定一致，至今仍不斷推出許多限定拉麵是特色之一。桌上配菜辣韭菜是相當受到喜愛，炒飯更是麵友推薦必點項目，所以又有炒飯才是本體的傳說。,週一至週五: 11:00–22:00週六至週日: 10:00–23:00,25.03587,121.567098297352,孫麗瑩 - 叉燒加量原湯拉麵   http://bit.ly/2MHQIGe   林致群 - 大蒜拳骨拉麵   http://bit.ly/2uLLdyo   黃傑夫 - 紅魔鬼大蒜味噌担担麵   https://bit.ly/2qDINA3,北,#ramentw #台灣拉麵愛好會 #拉麵 #豚骨 #大蒜 #限定 #炒飯,信義威秀／捷運市政府站、台北101世貿站-5號出口,
95,花月嵐-松山車站店,110台北市松山區松山路No. 11號2,主打為大蒜拳骨拉麵（或是炒飯），全台分店眾多且口味穩定一致，至今仍不斷推出許多限定拉麵是特色之一。桌上配菜辣韭菜是相當受到喜愛，炒飯更是麵友推薦必點項目，所以又有炒飯才是本體的傳說。,11:00–21:00,25.04942,121.579290010845,孫麗瑩 - 叉燒加量原湯拉麵   http://bit.ly/2MHQIGe   林致群 - 大蒜拳骨拉麵   http://bit.ly/2uLLdyo   黃傑夫 - 紅魔鬼大蒜味噌担担麵   https://bit.ly/2qDINA3,北,#ramentw #台灣拉麵愛好會 #拉麵 #豚骨 #大蒜 #限定 #炒飯,松山車站／捷運松山站-4號出口、台鐵松山站,
96,花月嵐 內湖大潤發店,114台北市內湖區舊宗路一段188號,主打為大蒜拳骨拉麵（或是炒飯），全台分店眾多且口味穩定一致，至今仍不斷推出許多限定拉麵是特色之一。桌上配菜辣韭菜是相當受到喜愛，炒飯更是麵友推薦必點項目，所以又有炒飯才是本體的傳說。,11:00–21:00,25.06304,121.575481026188,孫麗瑩 - 叉燒加量原湯拉麵   http://bit.ly/2MHQIGe   林致群 - 大蒜拳骨拉麵   http://bit.ly/2uLLdyo   黃傑夫 - 紅魔鬼大蒜味噌担担麵   https://bit.ly/2qDINA3,北,#ramentw #台灣拉麵愛好會 #拉麵 #豚骨 #大蒜 #限定 #炒飯,台北花市/公車新湖三路口站,
97,花月嵐 台北凱撒店,100台北市中正區忠孝西路一段38號B1,主打為大蒜拳骨拉麵（或是炒飯），全台分店眾多且口味穩定一致，至今仍不斷推出許多限定拉麵是特色之一。桌上配菜辣韭菜是相當受到喜愛，炒飯更是麵友推薦必點項目，所以又有炒飯才是本體的傳說。,週日至週四: 11:00–22:00週五至週六: 11:00–22:30,25.04640,121.516500783859,孫麗瑩 - 叉燒加量原湯拉麵   http://bit.ly/2MHQIGe   林致群 - 大蒜拳骨拉麵   http://bit.ly/2uLLdyo   黃傑夫 - 紅魔鬼大蒜味噌担担麵   https://bit.ly/2qDINA3,北,#ramentw #台灣拉麵愛好會 #拉麵 #豚骨 #大蒜 #限定 #炒飯,凱撒大飯店／台北車站-M6出口,
98,力量拉麵 (仁愛創始店),106台北市大安區仁愛路四段48巷30-1號,開業於2018年7月，港式煲湯手法、以藥饍入湯的創意拉麵店家，湯底呈古早豚骨濃厚味覺，此店亦有雞白湯可嘗試，詳情可察看下方網友食記。,11:30–15:00、17:00–21:30週日 未營業,25.036295,121.546984,Stars Yang - 豚骨醬油   https://bit.ly/2zsfqcg   林孝賢 - 特製豚骨鹽味拉麵   http://bit.ly/2wcU8tc,北,#ramentw #台灣拉麵愛好會 #拉麵 #豚骨 #雞白 #港式 #煲湯,仁愛醫院步行3分,台北市
99,力量拉麵-安和店,106台北市大安區安和路二段165號,安和店開業於2019年4月，港式煲湯手法、以藥饍入湯的創意拉麵店家，湯底呈古早豚骨濃厚味覺，此店亦有雞白湯可嘗試，詳情可察看下方網友食記。,11:30–15:00、17:00–21:30,25.028356,121.550222,Stars Yang - 豚骨醬油   https://bit.ly/2zsfqcg   林孝賢 - 特製豚骨鹽味拉麵   http://bit.ly/2wcU8tc,北,#ramentw #台灣拉麵愛好會 #拉麵 #豚骨 #煲湯,安和路二段,台北市
100,力量拉麵-內湖店,114台北市內湖區瑞光路251號,內湖店開業於2019年7月，港式煲湯手法、以藥饍入湯的創意拉麵店家，湯底呈古早豚骨濃厚味覺，此店亦有雞白湯可嘗試，詳情可察看下方網友食記。,11:30–15:00、17:00–21:30,25.074766,121.577823,Stars Yang - 豚骨醬油   https://bit.ly/2zsfqcg   林孝賢 - 特製豚骨鹽味拉麵   http://bit.ly/2wcU8tc,北,#ramentw #台灣拉麵愛好會 #拉麵 #豚骨 #煲湯,文德三號公園／北一家,台北市
101,濟善老麵,108台北市萬華區艋舺大道120巷11弄1號,開業於2018年11月，原為承恩老麵，因承恩門附近進行都市更新，故搬遷至現址並更名，湯頭是以雞清湯為主軸，是台灣目前少見的雞清湯淡麗系味道，本店的老雞湯麵採三層轉味設計，極黑羽為每日十食的烏骨雞限定，均為佳作，詳情可察看下方網友食記。,12:00–14:30、17:30–21:30週日 公休,25.032911,121.502343,Yu-Ro Tsai - 極黑羽2.0烏骨雞拉麵   https://bit.ly/3hqT5Nk   黃宣蒲 - 極黑羽拉麵   https://bit.ly/3ccLk9W   柯安妮-老雞湯麵、極黑羽2.0   http://bit.ly/398GR6Q,北,#ramentw #台灣拉麵愛好會 #拉麵 #雞清 #淡麗 #烏骨雞,萬華車站步行3分,台北市
102,一前一町拉麵,114台北市內湖區內湖路一段437巷4弄9號,以雞湯與魚湯為主打的店家，內裝寬敞明亮，有4人桌，適於小聚；不論是招牌的雞湯或魚湯都有野菜與蒜味版本可供選擇，其叉燒除了一般常見的雞肉叉燒外，較為特別的是其有牛肉叉燒可供選擇。,11:00~14:00、17:00~20:00週六、日 休息,25.08221,121.571747237831,林英傑 - 牛雞叉燒雙拼拉麵（雞魚雙湯）   https://bit.ly/37RZNJQ   朱禾 - 招牌雞汁白湯拉麵   https://bit.ly/3bINYUP   Sky Walker-雞牛叉燒雙拼拉麵   http://bit.ly/2NiJtH1,北,#ramentw #台灣拉麵愛好會 #拉麵 #雞湯 #雞魚,內湖科學園區／捷運港墘站-1號出口,
103,誠屋拉麵-中山本店,10491台北市中山區中山北路二段78之3號,是以牛骨湯頭為主軸的店家，牛骨清爽，配菜多變的店家，店內除了有雞骨牛骨等品項，也有台灣限定的肉味噌等，同時其亦有擔擔麵與叉燒丼飯等選擇，相當多變。,周日~四 11:00–22:30週五~六 11:00–00:00,25.05759,121.522584683859,Wanyu Chen - 牛骨白湯拉麵   https://bit.ly/382YEgA   朱禾 - 牛骨白湯   https://bit.ly/2C6u9KR   黃宣蒲 - 特製叉燒雞白湯拉麵、辣味雞白湯拉麵   https://bit.ly/2XAUERt,北,#ramentw #台灣拉麵愛好會 #牛骨 #擔擔麵,馬偕紀念醫院／捷運雙連站,
104,誠屋拉麵-大直店,10491台北市中山區敬業三路123號愛買,本店位於ATT 4 Recharge 6樓。此店是以牛骨湯頭為主軸，牛骨湯頭清爽，深受顧客好評，店內除了有雞骨牛骨等品項，也有台灣限定的肉味噌等，同時其亦有擔擔麵與叉燒丼飯等選擇，品項豐富相當多變。,11:00~21:00(Last Order 21:00),25.081153,121.556157,朱禾 - 牛骨白湯   https://bit.ly/2C6u9KR   黃宣蒲 - 特製叉燒雞白湯拉麵、辣味雞白湯拉麵   https://bit.ly/2XAUERt   吳俊青 - 牛骨白湯拉麵   https://bit.ly/2O8cSBh,北,#ramentw #台灣拉麵愛好會 #牛骨 #擔擔麵,ATT 4 Recharge,台北市
105,山頭火拉麵-京站店,103台北市大同區承德路一段1號B3,位於京站B3美食街。來自日本北海道旭川的Santouka山頭火於1988年成立，並於2012年登陸台灣，目前於日本全國和全球有超過51家分店，山頭火亦盡力將最傳統和一貫的高品質拉麵帶給大家品嚐。,週日~週四11:00 - 21:30週五~週六11:00 - 22:00,25.04918,121.518152812695,Stars Yang - 味噌拉麵(小)   http://bit.ly/2vDfWCm   Claire Chen - 特選豬頰肉拉麵、辣味噌沾麵   http://bit.ly/2VC685S   Stars Yang - 腰內肉套餐組合   https://bit.ly/2MBtLbE,北,#ramentw #台灣拉麵愛好會 #拉麵 #沾麵 #豚骨,京站／捷運台北車站地下街京站出口,
106,山頭火拉麵-sogo復興1號店,106台北市大安區忠孝東路三段300號B2,來自日本北海道旭川的Santouka山頭火於1988年成立，並於2012年登陸台灣，目前於日本全國和全球有超過51家分店，山頭火亦盡力將最傳統和一貫的高品質拉麵帶給大家品嚐。,週日~週四11:00 - 21:30週五~週六11:00 - 22:00,25.04113,121.54322023968,Stars Yang - 味噌拉麵(小)   http://bit.ly/2vDfWCm   Claire Chen - 特選豬頰肉拉麵、辣味噌沾麵   http://bit.ly/2VC685S   Stars Yang - 腰內肉套餐組合   https://bit.ly/2MBtLbE,北,#ramentw #台灣拉麵愛好會 #拉麵 #沾麵 #豚骨,SOGO BR4／捷運忠孝復興站-2號出口,
107,荷麵亭 Hasumentei,111台北市士林區中山北路五段505巷42弄2號,日本師傅對拉麵的堅持，純正日式口味拉麵。專門提供昭和四、五十年代的口味，類似昭和時期的尾道流，非泡系濃厚系，是一間懷舊復古風格的拉麵店。,11:45~13:45；17:15~19:45週一、二 公休,25.093191,121.526627,吳俊青 - 濃厚塩味豚骨   https://bit.ly/2B62oRD   Max Lin - 濃厚豚骨   https://bit.ly/2vFtvOq   Realthee Chou -塩味豚骨   https://bit.ly/2B7bspz,北,#ramentw台北 #台灣拉麵愛好會 #拉麵 #豚骨 #加麵二球免費,士林夜市商圈／士林捷運站,台北市
108,Due italian,110台北市信義區松高路19號,來自於東京，東京米其林必比登連三年推薦拉麵店，餐點別出心裁、擺盤秀雅的拉麵店，招牌是以鹽味為主體的生火腿起司拉麵，座位上則有吧檯與一般美食街常見的四人桌，隔壁即為A4附設超市。,週日-四 10:00–21:30週五、六10:00–22:00,25.039374,121.566647,陳灝儒 - 生火腿起司拉麵   https://bit.ly/2Xtsgjf   Stars Yang -起司拉麵+濃厚系白色雞湯拉麵   http://bit.ly/32V6p5M   Max - 生火腿起司拉麵   https://bit.ly/2Psh6EK,北,#ramentw #台灣拉麵愛好會 #拉麵 #雞清 #義式,新光三越A4館B2／捷運市政府站,台北市
109,宮內屋豚骨らーめん,111台北市士林區通河街64號,2020年5月遷移至現址。日本女婿&台灣媳婦的日本豚骨らーめん♡拉麵！堅持熬10小時的豚骨高湯不加人工調味料的良心商家！はじめましてよろしくお願いします！因現控湯頭製作數量有限，每日限量60碗。,11:30 - 20:30週日 公休,25.080735,121.5209,黃宣蒲 - 豚骨拉麵   https://bit.ly/3aXUqGQ   吳俊青 - 豚骨拉麵   https://bit.ly/2B5NaMs   Yuki Li - 豚骨魚介拉麵   https://bit.ly/2OzuqHb,北,#ramentw #台灣拉麵愛好會 #拉麵 #豚骨 #咖哩飯 #蝦仁餛飩 #真果實冰淇淋,劍潭青年活動中心／劍潭捷運站,台北市
110,麵試十一次,105台北市松山區健康路68號之3號,開幕於2020年1月16日，主軸為雞湯味，詳情可察看下方網友食記。,11:30~14:30 、17:30~20:30週六、日 不定休,25.053285,121.553543,徐煜傑 - 鹽味黃金雞湯麵   https://bit.ly/2NwzPA7   Jimmy Lai - 鹽味黃金雞湯麵、黑醬炙燒雞拌麵   https://bit.ly/3epircn   高晉 - 鹽味黃金雞湯麵   https://bit.ly/3bxyp2Z,北,#ramentw #台灣拉麵愛好會 #拉麵 #雞湯,胖老爹健康路店,台北市
111,麵屋川去 MENYA Kawasari,105台北市松山區敦化北路222巷16號,於2020年1月開業，為淡麗系魚介雞湯為主的沾麵店，亦有販售醬油拉麵，詳情可察看下方網友食記。,11:30~14:00、17:30~20:00週日 公休,25.059326,121.547923,Christine Wang - 川去沾麵   http://bit.ly/3axwKcC   蔡旻原 - （魚介雞骨）沾麵   http://bit.ly/3a3zqyq   Dwayne Weng - 川去沾麵   http://bit.ly/31pdpXF,北,#ramentw #台灣拉麵愛好會 #沾麵 #魚介雞 #拉麵 #醬油,民有三號公園,台北市
112,初 拉麵&煎餃,100台北市中正區南昌路一段59巷17號,巷弄內的樸實小店，店主原在美濃屋修業，傳承自美濃屋的味覺，因此招牌亦為標準的喜多方拉麵，有著淡麗的鹹味與豚骨感受；此外其煎餃內包有胡椒，食用時相當有趣。,11:30–14:00、17:30–21:00週日 公休,25.03166,121.51789563968,周子淳 - 叉燒味噌拉麵   https://bit.ly/2EQyqDB   邱炳憲 - 喜多方醬油   https://bit.ly/2AWPZNF   Daidai Huang - 喜多方醬油   https://bit.ly/2wuL97E,北,#ramentw #台灣拉麵愛好會 #拉麵 #沾麵 #豚骨 #喜多方,金峰滷肉飯／捷運中正紀念堂站 - 2號出口,
113,海拉麵,106台北市大安區浦城街59號,以雞湯為主打的平價店家，同時亦有鰹魚、醬油等口味可供選擇，店內座位主為吧檯式。,"週二-日 11:30–14:00, 17:00–20:30",25.022273,121.526783,Nash Hsu - 招牌雞汁白湯拉麵   https://bit.ly/2PQu8kb   陳盈璋 - 特製魚雞雙湯拉麵   https://bit.ly/2DIsxpt,北,#ramentw #台灣拉麵愛好會 #拉麵 #雞白 #雞魚,台灣金融研訓院／捷運台電大樓站-三號出口,台北市
114,北海道札幌拉麵羽畠食堂,105台北市松山區民生東路四段79號,由原「千歲軒」大廚畠山大樹所開立的北海道札幌拉麵，延續著千歲軒的味道，原汁原味的北海道滋味。,週一-六 11:30–15:00、17:00–20:00週日 公休,25.058093,121.55145,Chih-Hung Weng - 鹽味拉麵、味噌拉麵   http://bit.ly/2J04JOh,北,#ramentw #台灣拉麵愛好會 #拉麵  #豚骨,中山國中站/小巨蛋站/長庚醫院,台北市
115,黑曜麵屋,112台北市北投區尊賢街206巷2號,開業於2019年11月，以豚骨湯為主體的拉麵店，味道屬於台式風格，叉燒肉為此店的特色，詳情可察看下方網友食記。,11:00~21:00,25.115297,121.508182,由你來寫第一篇   ,北,#ramentw #台灣拉麵愛好會 #拉麵 #豚骨,曹家刈包,台北市
116,一真亭ラーメン,110台北市信義區忠孝東路五段71巷3弄2號1樓,開業於2019年6月，是由前一休拉麵的廚師所開設的店舖，湯頭是以豚骨系為主，湯體風格為九州風與久留米風，平實的價格與美味，深受附近居民與麵友們喜愛，詳情可察看下方網友食記。,11:00–14:00、17:00–21:00,25.041555,121.56744,蔡葆淇 - 夏日限定冷麵   https://bit.ly/3e507W5   Brian Chen - 白湯 豚骨拉麵   http://bit.ly/2L7XAi3   David Hsu - 白湯 豚骨糖心蛋拉麵＼叉燒飯   http://bit.ly/2FowEGY,北,#ramentw #台灣拉麵愛好會 #拉麵 #豚骨 #久留米,松山消防局／捷運象山站步行10分,台北市
117,餃 麵,111台北市士林區天母西路13巷1-1號,開幕於2018年4月(未確認)，販售雞濃湯的拉麵，介於比一般台式雞湯濃，比日式濃雞湯略淡的湯底，除此之外，兼有販售煎餃。,17:30~21:00,25.118613,121.528318,Ernest Eli - 原味雞濃湯麵   http://bit.ly/2wFSUb6   Stars Yang - 原味雞濃湯麵   http://bit.ly/2NY9Gbr   Candy Yang - 輕花椒雞濃湯麵/鳳梨醬油雞濃湯麵   http://bit.ly/2QacJlR,北,#ramentw #台灣拉麵愛好會 #拉麵 #雞濃湯,天母商圈，中信商銀斜對面巷弄內,台北市
118,六丁目拉麵,114台北市內湖區民權東路六段215號,台北內湖在地的特色店家，定番價格約200~300間，除了一般的豚骨醬油與味噌外，不定時會有限定菜單，此外特別注意店家無晚餐時段，且無接待8歲以下孩童。,週五~日 11:00~14:00週一~四 公休,25.067114,121.599713,Chih-Hung Weng - 味噌燒牛肉拉麵／元祖叉燒拉麵   https://bit.ly/2Pslkjj,北,#ramentw #台灣拉麵愛好會 #拉麵 #豚骨,捷運東湖站,台北市
119,百八龍拉麵,111台北市士林區大東路133號,百八龍自家製麵在日本已經營業超過五十年，特別選用北海道麵粉製麵，麵體有柚香氣是其特色，自己熬煮豚骨湯完全無其他添加物。,12:00 - 21:30,25.09185,121.525386,Raven Chen - 豚骨鹽味拉麵   https://bit.ly/2K8lIzn   吳俊青 - 豚骨鹽味拉麵   https://bit.ly/2vCoKFo   阮偉程 - 豚骨鹽味拉麵   https://bit.ly/2B78CAE,北,#ramentw #台灣拉麵愛好會 #拉麵 #沾麵 #柚香 #豚骨,士林夜市商圈／士林捷運站,台北市
120,一騎札幌拉麵,105台北市松山區延壽街436號,2020年9月於現址重開。來自日本北海道札幌的味噌拉麵，除了有味噌口味外，也另外有著醬油、麻辣等口味，此外也有味噌奶油玉米與梅鹽等較為少見的口味。,11:00~22:00,25.056167,121.555926,Candy Yang－梅鹽拉麵／一騎拌拌麵／一騎沾麵   http://bit.ly/2PlhqX2,北,#ramentw #台灣拉麵愛好會 #拉麵 #豚骨,大同大學／捷運民權西路站-9號出口,台北市
121,燒燒一碗來,105台北市松山區復興北路313巷30-1號號1F,開業於2019年9月，是以雞白湯為主軸的拉麵店，詳情可察看下方網友食記。,11:30~14:00、17:00~21:00週日 公休,25.058849,121.546425,黃友廷 - 雞白湯拉麵   http://bit.ly/31Slgwo   陳自立 - 雞白湯拉麵   http://bit.ly/2AM3nmU   Maruko Su - 雞白湯拉麵   http://bit.ly/2VeKTVx,北,#ramentw #台灣拉麵愛好會 #拉麵 #雞白,西華飯店,台北市
122,森本家拉麵,100台北市中正區忠孝東路二段134巷20號,沿襲傳統日本拉麵的精華湯頭，堅持以自家製麵的方式，創造出獨特具有魅力的拉麵，熊本冠軍拉麵曾參加過電視冠軍比賽獲獎，是森本家最有特色的招牌，而且本店採用日本引進的自助式販賣機，是本店的特色項目。,"週一~五: 11:30~15:00, 17:00~22:00週六~日: 11:30~22:00",25.040786,121.531622,Chih-Hung Weng - 濃厚牛奶味噌拉麵   https://bit.ly/2wuFWMj,北,#ramentw #台灣拉麵愛好會 #拉麵 #豚骨 #免費加麵二球,光華商場／捷運忠孝新生站-5號出口,台北市
123,樂山窄巷拉麵,112台北市北投區大同街27號,位處巷弄內，除了常見的地獄、奶油玉米外，也有蝦、醬油等品項，同時期店內所販售的丼飯也相當有水準，更有壽司與多樣小菜，是一家屬台式風味，菜單非常多樣化的拉麵店。,11:00–14:30、17:00–21:00,25.13322,121.499026997354,陳勇任 - 厚切叉燒拉麵   https://bit.ly/2CN1qcg,北,#ramentw #台灣拉麵愛好會 #拉麵 #豚骨,北投捷運站,
124,博多拉麵 市大店,106台北市大安區市民大道四段74號,湯頭較為清爽的店家，風格為淡麗偏台式口味，是屬於連鎖型態的店家，店內有多樣小菜可供選擇，較特別的是使用鐵鍋代替碗來盛裝拉麵，當拉麵上桌時會有小爐火額外加熱，饒富趣味。,11:30~14:30、17:00~21:30,25.04495,121.54754,尚無食記可供參考   ,北,#ramentw #台灣拉麵愛好會 #拉麵 #豚骨,微風廣場／捷運忠孝復興站-4號出口,
125,男子漢拉麵食堂-內湖737店,114台北市內湖區內湖路一段737巷76號,適合三五好友小聚的店家，除了有一般拉麵店常有的醬油、味噌與豚骨外，更有著種類不少的油炸食品與飲料可供選擇。,週一~六: 11:30–02:00週日:12:00–00:00,25.081465,121.579136,林敬倫 - 太宰府豚骨叉燒拉麵   https://goo.gl/ya9Bc4   Daidai Huang - 焦蒜黑武士叉燒拉麵   https://goo.gl/U7njYr   Max Lin - 豚骨醬油   https://bit.ly/2Fga5XF,北,#ramentw #台灣拉麵愛好會 #拉麵 #豚骨,國賓飯店／捷運雙連站-1號出口,台北市
126,OSHO拉麵,115台北市南港區園區街6-3號,位處南港軟體園區，店內販售清爽與微辣兩種口味，座位為吧檯式，為較為清爽的口味。,11:30–14:00，17:30–20:00週六、日 公休,25.05933,121.613459595502,韓璐彼 - 豚骨拉麵   https://bit.ly/2CBWbMs   呂俊逸 - 微辣豚骨拉麵   https://bit.ly/2PiSTV7,北,#ramentw #台灣拉麵愛好會 #拉麵 #豚骨,捷運南港軟體園區站-1號出口,
127,つけ麵心心-101店,110台北市信義區信義路五段7號,此店位於台北101地下美食街，為山形心心的沾麵品牌。將製麵者的心跟客人的心連繫在一起，為紀念此願景日本山形總店取名為心心，在台灣也希望能用此日本傳統精神將日本跟台灣人的心彼此更加靠近，故與日本總店取同名。,11:00 - 22:00,25.033424,121.564756,林小逼 - 魚豚野郎(中)   https://bit.ly/2MrYVBz   Candy Yang - 魚豚野郎(大)   https://bit.ly/2Ma1FE2   Nora Neko -定豚野郎拉麵   https://bit.ly/2vE1HtL,北,#ramentw #台灣拉麵愛好會 #拉麵 #沾麵 #豚骨 #二郎風,台北101／捷運世貿站,台北市
128,麵家三士-南港店,115台北市南港區忠孝東路七段369號C棟,「三士」是源自於日本明治維新三傑－西鄉隆盛、木戶孝允及大久保利通。其中西鄉隆盛更是是將薩摩島(即現今鹿兒島)的眼界拓展到世界的中心人物。「麵家三士」就是希望發揮明治維新三位志士的精神，要將最棒的鹿兒島拉麵推廣給全世界的人知道，而成立的品牌。三士拉麵的湯底是用豬骨，特別是頭骨以及蔬菜經過數十小時熬煮而成的半濁湯頭。,11:00-21:30週五~週六11:00am-22:00pm(含國定假日前夕),25.052688,121.607166,魏志利 - 龍馬三士拉麵   http://bit.ly/2UUBfLb   程銘奕 - 華麗三士拉麵   http://bit.ly/2ZqWvXl,北,#ramentw #台灣拉麵愛好會 #拉麵 #沾麵 #豚骨 #限定,CITYLINK南港店C1棟／捷運南港站,台北市
129,赤坂拉麵-京華店,105台北市松山區八德路四段143號,從日本發跡的赤阪拉麵，打著第一屆電視冠軍王的旗幟，在台灣寫下傳奇新頁。赤阪拉麵的湯頭口味道地、味道香濃，湯頭濃郁豬骨香。麵條口感Q滑有勁。,11:00–22:00,25.04906,121.562276468516,Ray Shen - 醬油拉麵   http://bit.ly/2vdlfnV,北,#ramentw #台灣拉麵愛好會 #拉麵 #沾麵 #豚骨,京華城／捷運南京三民站,
130,赤坂拉麵-重慶店,100台北市中正區重慶南路一段96號,從日本發跡的赤阪拉麵，打著第一屆電視冠軍王的旗幟，在台灣寫下傳奇新頁。赤阪拉麵的湯頭口味道地、味道香濃，湯頭濃郁豬骨香。麵條口感Q滑有勁。,11:00–21:00,25.04290,121.513133341531,Wanyu Chen - 電視冠軍拉麵   https://bit.ly/2VWgRHM   Ray Shen - 醬油拉麵   http://bit.ly/2vdlfnV,北,#ramentw #台灣拉麵愛好會 #拉麵 #沾麵 #豚骨,228和平公園台大醫院站,
131,三本拉麵,104台北市中山區建國北路二段26號,相當少見且特殊的素食+手工製麵的店家(蛋與蔥花可以額外提醒不加)，湯頭有咖哩與味噌口味，同時亦有多樣小菜、丼飯與壽司可供選擇，非常特別。,"週一~五 : 11:30–14:30, 17:00–21:30週六~日 : 11:30–21:30",25.05339,121.536439197352,吳俊青 - 上湯咖哩拉麵   https://bit.ly/2RLNcww   Daidai Huang－完熟蕃茄拉麵   http://bit.ly/2W41Kdq,北,#ramentw #台灣拉麵愛好會 #拉麵 #素食,四平公園／捷運松江南京站-6號出口,
132,惠比須麵屋,106台北市大安區光復南路570號1樓,叉燒為較為少見的港式叉燒，湯頭偏清淡，同時其擺盤上亦有不少蔬菜，相當豐富。,11:30–14:30、18:30–21:30,25.034128,121.557281,Chih-Hung Weng-特盛綜合拉麵   https://bit.ly/2DeYKV5,北,#ramentw #台灣拉麵愛好會 #拉麵 #豚骨,捷運信義安和站5號出口、捷運世貿101站1號出口,台北市
133,李好拉麵-大吉大利-今日吃拉麵,10491台北市中山區吉林路26巷16號,2020年4月遷移至現址，湯頭以豚湯為主體，味感屬台式淡麗，層次偏弱，價格平實，亦有不少死忠麵友，詳情請見下方食記。,11:30–14:00、17:00–19:30,25.051436,121.52941,由你來寫第一篇   ,北,#ramentw #台灣拉麵愛好會 #拉麵 #豚骨,吉林路／捷運松江南京站,台北市
134,濃氣屋 拉麵 成功店,106台北市大安區和平東路二段311巷17號,濃気屋拉麵(のんき屋ラ－メン)是來自日本福岡的拉麵公司，由大石峯生先生創立於1959年。我們在2017年11月11日開設第一家台灣分店，致力於提供口味純正但價格實惠的九州拉麵。,11:00–21:00,25.025261,121.54518,Bill Chang - 豚骨拉麵   https://bit.ly/2OzgTyJ   ChanHua Chang - 味增濃湯拉麵   https://bit.ly/2PlY2MY,北,#ramentw #台灣拉麵愛好會 #拉麵 #豚骨,北師美術館／捷運科技大樓站,台北市
135,無敵豚骨拉麵(濃氣屋 忠孝店),106台北市大安區忠孝東路四段205巷9號,濃気屋拉麵(のんき屋ラ－メン)是來自日本福岡的拉麵公司，由大石峯生先生創立於1959年。我們在2018年11月11日開設第一家台灣分店，本店在2018年10月26日開幕，致力於提供口味純正但價格實惠的九州拉麵。,週一~五：11:30–22:00週六~日：11:30–23:00,25.042267,121.552001,Bill Chang - 豚骨拉麵   https://bit.ly/2OzgTyJ   ChanHua Chang - 味增濃湯拉麵   https://bit.ly/2PlY2MY,北,#ramentw #台灣拉麵愛好會 #拉麵 #豚骨,明曜百貨公司／捷運忠孝敦化站,台北市
136,濃氣屋 拉麵 信義店,11065台北市信義區忠孝東路五段177號,濃気屋拉麵(のんき屋ラ－メン)是來自日本福岡的拉麵公司，由大石峯生先生創立於1959年。我們在2018年11月11日開設第一家台灣分店，致力於提供口味純正但價格實惠的九州拉麵。,週日~四：11:30 - 21:30(Last Order 21:00)週五~六：11:30 - 23:00(Last Order 22:30),25.04123,121.568997,Bill Chang - 豚骨拉麵   https://bit.ly/2OzgTyJ   ChanHua Chang - 味增濃湯拉麵   https://bit.ly/2PlY2MY,北,#ramentw #台灣拉麵愛好會 #拉麵 #豚骨,涼風庵／捷運市府站,台北市
137,麵や黒平(永康店),106台北市大安區永康街10-3號,原熱烈一番亭，與一番亭同集團但主打沾麵的新品牌。,11:00–21:30,25.031782,121.529521,Kority Park - 招牌沾麵   http://bit.ly/2W6zI0I,北,#ramentw #台灣拉麵愛好會 #沾麵 #擔擔沾麵,永康公園／捷運東門站-五號出口,台北市
138,大石家拉麵,105台北市松山區南京東路四段178號,以招牌熊本冠軍拉麵作為主打，是偏向台式的清爽口味，鹹度和厚度較薄弱，本店亦有地獄拉麵、豚骨豬排等較為在地的品項可供選擇。,11:30–21:30,25.05164,121.556900895501,Lalla Pu-珍奶拉麵   http://bit.ly/34RiE2E   Claire Pan - 透抽醬油拉麵   http://bit.ly/2XzXRxf   Candy Yang - 熊本冠軍拉麵   http://bit.ly/2vf019c,北,#ramentw #台灣拉麵愛好會 #拉麵 #豚骨,育達商職／捷運小巨蛋站-4號出口,
139,熊二拉麵,110台北市信義區虎林街164巷11-1號,開業於2019年九月，目前有豚骨湯和雞白湯，詳情可察看下方網友食記。,17:00~21:00,25.039003,121.575949,Max Cheng - 野菜拉麵   https://bit.ly/31rinV8   Dominique Nic Huang - 雞白湯野菜拉麵 http://bit.ly/2kMa2cx   Dwayne Weng - 濃厚豚骨   http://bit.ly/2lROWJW,北,#ramentw #台灣拉麵愛好會 #拉麵 #豚骨 #雞白湯,中全公園／捷運永春站,台北市
140,次元食堂,10491台北市中山區中山北路一段105巷No. 4-5號,開幕於2019年7月，以平價食堂為訴求，亦有醬油與豚骨拉麵，價格實惠深受食客喜愛，詳情請見下方食記。,12:00 - 21:30,25.050668,121.522721,陳冠呈 - 醬油拉麵   https://bit.ly/2xnC70c,北,#ramentw #台灣拉麵愛好會 #拉麵 #豚骨 #醬油 #烏龍麵 #丼飯,鳥人拉麵／捷運中山站-2號出口,台北市
141,金沢拉麵,10491台北市中山區農安街24-6號,2018年7月開幕，湯頭以豚湯為主體，味感屬台式淡麗，層次偏弱，詳情請見下方食記。,11:30~14:00、17:00~21:30,25.06485,121.525408,由你來寫第一篇   ,北,#ramentw #台灣拉麵愛好會 #拉麵 #豚骨 #魚介 #麵飯無限吃到飽,農安街／捷運中山國小站,台北市
142,山形心心拉麵-台北站前旗艦店,100台北市中正區公園路22-3號,此店位於公園路2F。將製麵者的心跟客人的心連繫在一起，為紀念此願景日本山形總店取名為心心，在台灣也希望能用此日本傳統精神將日本跟台灣人的心彼此更加靠近，故與日本總店取同名。,11:30 - 20:00,25.045168,121.517051,楊德輝 - 辛味噌拉麵   https://bit.ly/2MOnHdw   林小逼 - 魚豚野郎(中)   https://bit.ly/2MrYVBz   Candy Yang - 魚豚野郎(大)   https://bit.ly/2Ma1FE2,北,#ramentw #台灣拉麵愛好會 #拉麵 #沾麵 #豚骨 #魚豚 #二郎風,青島西路與公園路交叉口／捷運台北車站M8出口,台北市
143,山形心心拉麵-士林店,111台北市士林區小東街25號,將製麵者的心跟客人的心連繫在一起，為紀念此願景日本山形總店取名為心心，在台灣也希望能用此日本傳統精神將日本跟台灣人的心彼此更加靠近，故與日本總店取同名。,17:00 - 01:00,25.08940,121.52619418386,楊德輝 - 辛味噌拉麵   https://bit.ly/2MOnHdw   林小逼 - 魚豚野郎(中)   https://bit.ly/2MrYVBz   Candy Yang - 魚豚野郎(大)   https://bit.ly/2Ma1FE2      #ramentw #台灣拉麵愛好會 #拉麵 #沾麵 #豚骨 #魚豚 #二郎風,北,無提供標籤資訊,士林夜市商圈／士林捷運站,
144,三友拉麵-民生店,105台北市松山區民生東路四段112巷1弄18號,主打豚骨，口味偏向台式味覺，最大的特色為每日限定的豚骨無敵拉麵，除此之外，也以豚骨湯為基底，變化出赤丸、味噌、醬油等品項，而喜歡蔬菜的亦有野菇、韭菜、野菜等口味可供選擇。其小菜亦多元，有非常多種的可樂餅與油炸海鮮可供選擇。,11:00–21:30,25.05796,121.555184497352,Candy Yang－醬拌麵／豚骨無敵拉麵   http://bit.ly/2VZqT8Z   朱黃均－豚骨味噌拉麵   http://bit.ly/2KZj8yW,北,#ramentw #台灣拉麵愛好會 #拉麵  #豚骨,捷運小巨蛋站與松山機場站之間,
145,開漳拉麵,114台北市內湖區內湖路一段323巷4弄8號,開業於2018年8月，2019年4月遷移至北科大，2020年3月遷移至現址，主打平價的豚骨湯頭，店內除豚骨拉麵之外，亦有辣麻味噌拉麵，詳情可察看下方網友食記。,17:00~20:00,25.08295,121.56751858386,簡榆樺 - 豚骨拉麵   http://bit.ly/2Q2afDf   張宗霖 - 味噌拉麵(辣)+豚骨拉麵   http://bit.ly/2wF8B1B,北,#ramentw #台灣拉麵愛好會 #拉麵 #豚骨 #加麵一球免費,丼起來,
146,勝拉麵,10491台北市中山區北安路621巷46號,位於大直實踐校區的拉麵老店，偏向淡麗方向的豚骨湯頭，此店平實的價格及自熬湯頭還是受到學生們的喜愛。,11:30~14:00、17:00~20:00週三 休息,25.082851,121.546625,尚無食記可供參考   ,北,#ramentw #台灣拉麵愛好會 #拉麵 #豚骨,實踐大學／捷運大直站,台北市
147,不二家拉麵,10491台北市中山區中山北路二段59巷10號,中山北路七條通內相當有特色的店家，雖座位上稍嫌擁擠，店面的歷史積澱感讓人神往，主打為不二家拉麵，此外亦販售有醬油、豚骨、味噌與擔擔麵等品項，亦有不少小菜、炸物等，是相當適合三兩好友下班後放鬆的地方。,週一~六 11:30~15:00，17:30~26:00週日 11:30~15:00，17:30~24:00,25.055834,121.523434,Chih-Hung Weng - 不二家拉麵   https://bit.ly/2ELl9LS,北,#ramentw #台灣拉麵愛好會 #拉麵 #豚骨,國賓飯店／捷運雙連站-1號出口,台北市
148,鐵丸十三堂,115台北市南港區昆陽街157巷7號,開業於2013年9月，2020年9月遷移至現址。主打平價的豚骨湯頭，湯體偏淡麗台式，店內除豚骨拉麵之外，亦有飯食販售，此間頗受在地麵友喜愛，詳情可察看下方網友食記。,11:00–14:30、16:30–20:30,25.049863,121.594542,Soron Hsu - 豚骨拉麵／鐵丸特濃豚骨拉麵   https://bit.ly/3nGbEQM   尹聖鈞 - 隱藏限定松露雞湯拉麵、札幌味噌拉麵   http://bit.ly/2Rgf0us,北,#ramentw #台灣拉麵愛好會 #拉麵 #豚骨 #限定 #變化,COMEBUY／捷運昆陽站,台北市
149,勝十蘭拉麵,100台北市中正區南陽街 13-2號,上菜速度令人印象深刻的店家，最特別的點為其使用自動化器械製作餐點，是當地價格平實的台式拉麵選擇。,11:00–20:30,25.04517,121.516163797352,YongTurn Shih - 招牌豚骨   https://bit.ly/2KtcpJz,北,#ramentw #台灣拉麵愛好會 #拉麵 #豚骨,台北車站／捷運台北車站站-M6出口,台北市
150,Mr拉麺の野崎家(台北店),100台北市中正區羅斯福路三段316巷9弄2號,始於2012年10月在台北公館，老闆曾當過記者和東京都議員，在台北念博士班期間開平價拉麵店，很受學生客群歡迎，2013年進軍台南開設勝利分店，成功打開台南市場而快速展店，2017年6月28日改名為Mr拉麺の野崎家，原Mr.拉麵成姊妹店，2017年9月遷移至現址。,11:30~21:00,25.015677,121.532037,邱炳憲 - 野崎家醬油拉麵   http://bit.ly/2vhH1Hb,北,#ramentw #台灣拉麵愛好會 #拉麵 #豚骨,台灣大學／捷運公館站,台北市
151,象子.麵,110台北市信義區信義路五段150巷14弄2-2號,開幕於2019年4月，以雞白濃湯為主軸的拉麵店，雞湯拉麵的轉味元素為蒜蓉奶油，與麵包店合開，是間特殊風格的拉麵小店。,12:00–14:30、17:30–20:30,25.028441,121.569092,Victor Lo - 雞濃白玉雞湯拉麵   http://bit.ly/2VQ2DGj,北,#ramentw #台灣拉麵愛好會 #拉麵 #雞濃白,信義國中、象山步道,台北市
152,裸湯拉麵,106台北市大安區敦化南路一段238巷1號,開業於2018年10月，是以雞豬湯頭為主軸的拉麵店，味道較偏向淡麗系，是間很適合拍照打卡的店家，詳情可察看下方網友食記。,11:00~21:30,25.040262,121.548004,Nora Neko - 裸湯蔥花拉麵   http://bit.ly/2D3xqtK,北,#ramentw #台灣拉麵愛好會 #拉麵 #豚雞,SOGO敦化館／捷運忠孝復興站步行5分,台北市
153,匠麵殿拉麵專門店,106台北市大安區金山南路二段7號,開幕於2019年3月，位於師大商圈附近，以豚骨湯為主體，店內有各式不同的拉麵口味，是屬於入門級的拉麵小店，詳情可察看下方網友食記。,11:30 - 14:00、17:00 - 21:00,25.03364,121.527347,Daxon Tsai - 北海道味噌拉麵   http://bit.ly/2UqArIE   Stars Yang - 豚骨蒜香拉麵   http://bit.ly/2DMwN6z,北,#ramentw #台灣拉麵愛好會 #拉麵 #豚骨,泰順公園,台北市
154,神樂岡旭川拉麵,200基隆市仁愛區仁二路211號2樓,開業於2015年10月，老闆從日本學藝後回台灣開店，是屬於基隆在地的人氣店家，詳情可察看下方網友食記。,11:30~14:00、17:00~21:00,25.128908,121.744249,大頭小寶 - 流沙蟹皇   https://bit.ly/2GenPDg   大頭小寶 - 醬油拉麵   https://bit.ly/2PtP6CF   Joanna Kao - 戰斧豬排拉麵   https://bit.ly/3h2gsfc,北,#ramentw #台灣拉麵愛好會 #拉麵 #豚骨 #限定,基隆廟口夜市商圈,基隆市
155,滝禾製麵所-內湖江南店,114台北市內湖區江南街26號,本店在台中太平，此店開幕於2019年3月，本店的味道以豚骨湯、雞湯為主軸，平價美味深受在地顧客喜愛，詳情請見下方食記。,11:30 - 22:00,25.077665,121.577675,熊本熊 - 濃醇咖喱牛五花拉麵   http://bit.ly/2SdotVq   吳俊青 - 原味肋眼叉燒   http://bit.ly/35JalXT   林浩子 - 原味拉麵   http://bit.ly/2sRZjRj,北,#ramentw #台灣拉麵愛好會 #拉麵 #豚骨 #雞湯,捷運港墘站,台北市
156,奧特拉麵 Ramen Ultra-南港車站店,115台北市南港區忠孝東路七段371號B1,"錦集團之創立,1994年「雞玉錦拉麵」誕生於日本秋田縣大館市，奧特拉麵 Ramen Ultra為其子品牌。以秋田縣為中心、錦集團擴展多家店舗、依毎家店舗調製不同口味，目前台灣桃園為第一家分店，總計台灣有三家分店。",11:00~21:30,25.05259,121.607455,Hsing Chuan Chen-豬背脂味玉香鹽拉麵   http://bit.ly/2tPfSxN   Stars Yang - 雞湯柚子鹽味拉麵   http://bit.ly/2SG5nnE,北,#ramentw #台灣拉麵愛好會 #拉麵 #雞湯,南港車站,台北市
157,大井屋,10491台北市中山區北安路621巷12號,於2020年3月開業，以豚骨湯為主軸，是以CP值為導向的拉麵店，詳情可察看下方網友食記。,無相關資訊,25.082899,121.548168,由你來寫第一篇   ,北,#ramentw #台灣拉麵愛好會 #拉麵 #豚骨,大直北安路,台北市
158,虎記餃子-世貿店,11052台北市信義區基隆路二段39巷14號一樓,粉專創立於2020年2月，三商行所創立的煎餃專賣店，亦販售蔬菜拉麵，詳情可察看下方網友食記。,11:30~14:30、17:00~20:00,25.03107,121.559252755023,Zhanyao Zhang - 蔬菜拉麵   https://bit.ly/329fkjS   Snowy Liou - 虎記蔬菜拉麵   https://bit.ly/3aDzExG,北,#ramentw #台灣拉麵愛好會 #餃子 #拉麵 #煎餃  #煽り系,吳興街／捷運台北101世貿站,台北市
159,吉鴙ラーメン（吉鴙拉麵）,106台北市大安區信義路三段166巷2-3號,於2020年6月開幕，以雞湯為主軸，是台北少見以煮干為定番的店家。詳情請見下方食記。,11:00~14:30、16:00~20:30週日 公休,25.033031,121.541716,Is Amy - 濃厚煮干拉麵   https://bit.ly/34X8WOd   鄭傑瑞 - 濃雞白湯拉麵   https://bit.ly/3cGrUMk   劉士瑋 - 濃厚煮干拉麵   https://bit.ly/3kQBZJz,北,#ramentw #台灣拉麵愛好會 #拉麵 #雞清湯 #雞白湯 #煮干,師大附中正門斜對面,台北市
160,山形心心-萬華店,108台北市萬華區寶興街39號,此店位於西園路。將製麵者的心跟客人的心連繫在一起，為紀念此願景日本山形總店取名為心心，在台灣也希望能用此日本傳統精神將日本跟台灣人的心彼此更加靠近，故與日本總店取同名。,11:00~20:00,25.027544,121.493327,楊德輝 - 辛味噌拉麵   https://bit.ly/2MOnHdw   林小逼 - 魚豚野郎(中)   https://bit.ly/2MrYVBz   Candy Yang - 魚豚野郎(大)   https://bit.ly/2Ma1FE2,北,#ramentw #台灣拉麵愛好會 #拉麵 #沾麵 #豚骨 #二郎風,雙園國中,台北市
161,麵屋一番-內湖店,114台北市內湖區內湖路一段737巷8弄12號,於2020年6月開業，以雞白湯為主軸，原味味道清爽，若需加鹹，請與店家先行告知，詳情可察看下方網友食記。,11:00~21:00週一 公休,25.079473,121.577934,谷祖豪 - 蛤蠣雞湯拉麵   https://bit.ly/2Goyag2   Stars Yang - 咖哩雞白湯拉麵   https://bit.ly/373phDH   丁閎 - 雞白湯拉麵   https://bit.ly/3kJoBrn,北,#ramentw #台灣拉麵愛好會 #拉麵 #雞白湯,內湖737巷夜市,台北市
162,三元堂拉麵專門店,100台北市中正區三元街52號,開業於2020年7月1日，與匠麵殿是同一老闆，販售雞白湯與豚骨二種風格湯底，詳情可察看下方網友食記。,12:00~賣完、18:00~21:00,25.029212,121.509046,由你來寫第一篇   ,北,#ramentw #台灣拉麵愛好會 #拉麵 #雞白湯 #豚骨,三元街、永和豆漿,台北市
163,魂麵-微風南山店,110台北市信義區松智路17號5F,本店位於微風南山5F。開業於2020年7月，是微風集團所投資的拉麵品牌，湯頭以豚骨湯為主軸，詳情可察看下方網友食記。,週日~三 11:00~21:30週四~六 11:00~22:00,25.03450,121.565966226187,由你來寫第一篇   ,北,#ramentw #台灣拉麵愛好會 #拉麵 #豚骨,微風南山,
164,麗人博多拉麵 師大店,106台北市大安區師大路92巷6號,於2020年7月開幕，湯頭以台式豚骨為主，詳細可參閱下方食記。,11:30~20:50,25.022509,121.528068,Miranda Chang - 博多豚骨拉麵   http://bit.ly/2vaeUJt,北,#ramentw #台灣拉麵愛好會 #拉麵 #豚骨,必勝客／捷運台電大樓站步行5分,台北市
165,御嶽海 拉麵ラㄧメン,10491台北市中山區中山北路一段140巷13號,開業於2020年7月，以豚骨湯為主軸，湯頭為甘甜風格，販售醬油、辣味、味噌三種口味皆均一價200元，詳情可察看下方網友食記。,11:30~21:00,25.051538,121.521534,由你來寫第一篇   ,北,#ramentw #台灣拉麵愛好會 #拉麵 #豚骨,集客茶館／捷運中山站,台北市
166,麵屋百味,204基隆市安樂區麥金路199號1,開業於2020年7月，以素食為主軸，訴求平價美味，詳情可察看下方網友食記。,11:30~15:00、17:00~20:00週二 公休,25.120848,121.721305,大頭小寶 - 元祖豆乳拉麵   https://bit.ly/2C4jq43,北,#ramentw #台灣拉麵愛好會 #拉麵 #素食,橘郡社區,基隆市
167,辰拉麵,234新北市永和區文化路110號1樓,老闆自鷹流修業多年後開設店面，有雞湯及豚湯二種湯頭供應，本店為鷹流認證店家，詳情請見下方食記。,17:00~21:00休息時間請參閱粉專，每個月會公告一次。,25.015336,121.513473,韓徵 - 鹽味雞湯拉麵   https://bit.ly/38NimiU   蔡旻原 - 豚骨醬油   https://bit.ly/3dOlz1Z   吳清宏 - 叉燒大滿足   https://bit.ly/3jSH2ZV,北,#ramentw #台灣拉麵愛好會 #拉麵 #豚骨 #豚骨醬油 #雞湯,文化路／捷運頂溪站,新北市
168,双豚ラーメン,220新北市板橋區民生路三段193號,開業於2018年8月，位於板橋四維夜市附近大漢橋旁，湯頭是以豬肉食材為主軸，目前有濃湯與清湯二款醬油拉麵，亦有99元清湯拉麵可供麵友輕鬆享用，詳情可察看下方網友食記。,17:00~22:00,25.027597,121.465176,Raven Chen - 清湯醬油叉燒拉麵   http://bit.ly/2vtPvie   Stars Yang - 拌麵(基本款)   http://bit.ly/31NWP3U   李雋恩 - 弓削多醬油雞湯拉麵   http://bit.ly/2txdXy2,北,#ramentw #台灣拉麵愛好會 #拉麵 #豚骨 #豚骨醬油 #2019名店,板橋四維夜市附近大漢橋旁/新埔捷運站步行7分,新北市
169,麵屋山茶 SanCha,220新北市板橋區大同街8巷16號,"2020年3月於江子翠復業，罕見以""茶""入菜的拉麵料理，目前該店的拉麵品項會以淡麗系為主題，並請先行參閱官方粉專進行確認。",18:00~21:30(L.O 21:00)週日~二 公休,25.026166,121.477208,Christine Wang - 蛤貝柚yoyo醬油雞清湯   https://bit.ly/2S0gABj   莊家豪 - 大蛤雞清湯拉麵   https://bit.ly/2O87UqI   Makoto Nagahiro - 輕煮干醬油雞湯拉麵   https://bit.ly/3armxyJ,北,#ramentw #台灣拉麵愛好會 #拉麵 #淡麗系 #茶系 #限定 #變化 #2019名店,捷運江子翠站,新北市
170,熊越岳,242新北市新莊區幸福路750號,開幕於2019年5月，從鷹流涼風庵學業後，於新莊區域開設屋台，濃湯湯底為豚雞湯，亦有99元拉麵品項，加湯加麵免費，深受當地人喜愛，詳情請見下方食記。,17:00~22:00,25.049232,121.447723,陳宥宣 - 大壩限定   https://bit.ly/3e0QDvM   Mudcom Gong - 大霸限定濃湯叉燒 https://bit.ly/37rENJy   柯安妮 - 蔬食咖哩拌麵 玉山西限定   https://bit.ly/2X2HOKm,北,#ramentw #台灣拉麵愛好會 #拉麵 #豚雞 #無限加麵 #限定 #2019名店,幸福路NET,新北市
171,海貓亭拉麵 うみねこ亭,231新北市新店區新店路27號,開業於2019年12月28日，是以雞湯為主體的拉麵店，亦有販售章魚燒與布丁，還有不定時出現的限定麵食，以及新推出午間沾麵造褔新店的麵友們，此店深受在地麵友的喜愛，詳情可察看下方網友食記。,週一~五 11:30~13:30、17:30~21:00週六~日 11:30~13:30、17:30~20:30週四 休息,24.952731,121.540022,陳灝儒 - 溫醇雞白湯拉麵   https://bit.ly/2YEHAKw   鐘萱 - 溫醇雞白湯拉麵   https://bit.ly/3dmPzAF   黃宣蒲 - 溫醇雞白湯拉麵   https://bit.ly/2VXTJsP,北,#ramentw #台灣拉麵愛好會 #拉麵 #沾麵 #雞白湯 #泡系 #章魚燒 #布丁 #每月29日,新店國小／捷運新店站步行10分,新北市
172,麵屋道樂,24152新北市三重區仁愛街688號,開業於2019年10月，是道樂屋台所開設的第三家店舖，詳情可察看下方網友食記。,12:00–14:00、17:00–21:00(售完為止)週一 公休,25.080212,121.481548,Stars Yang - 味噌拉麵   https://bit.ly/2MrE3uc   Frankie Chen - 雞白湯拉麵   https://bit.ly/2vDZaiY   蔡承澔 - 豪華豚骨拉麵   https://bit.ly/2vE1xCo,北,#ramentw #台灣拉麵愛好會 #拉麵 #豚湯 #2019名店,仁愛街,新北市
173,藏味拉麵,235新北市中和區景安路132巷1號,開業於2018年12月，湯頭為有分為豚骨與雞骨二種湯底，而且加湯加麵可以無限加，部份麵友認為這是中、永和區域排名第一的拉麵店，詳情可察看下方網友食記。,11:30–14:00、17:00–21:00週一 公休,24.994299,121.504818,Raven Chen - 叉燒饗宴豚骨拉麵   http://bit.ly/2M2vWnd   歐布哲 - 叉燒盛宴豚骨拉麵   http://bit.ly/2Ol8Zyr,北,#ramentw #台灣拉麵愛好會 #拉麵 #豚骨 #魚介豚骨 #雞清湯 #豚濃 #雞清湯 #濃厚系 #淡麗系,港麗茶餐廳,新北市
174,Le Ming 麵食精釀餐酒館-林口店,244新北市林口區南勢街118號,開業於2019年9月，本店的湯體是使用西式手法調理並以干貝雞湯為主體，是目前少見以魚介雞湯系為主的拉麵店，店內亦有販售沾麵及啤酒，是林口當地屈指可數的餐酒館，詳情可察看下方網友食記。,17:00 - 21:00週一 公休,25.074141,121.363265,Soron Hsu - 松露干貝雞、番茄雞叉燒沾麵   http://bit.ly/2T9IomM   YenYu Chen - 魚介海老沾麵   http://bit.ly/2mGiKtB   Hank Wu - 海老魚介拉麵／番茄牛肋沾麵   http://bit.ly/2mJfYUe,北,#ramentw #台灣拉麵愛好會 #拉麵 #沾麵 #雞湯 #雞骨魚介,民族路、南勢街交叉口,新北市
175,一幻拉麵 x 胡同居酒屋,220新北市板橋區縣民大道二段7號2F,開業於2019年10月，位於板橋車站二樓，主打蝦味湯頭，詳情可察看下方網友食記。,11:00~22:30(Last order 22:00),25.014361,121.463614,許秩綱 - 原味鹽味蝦拉麵   http://bit.ly/35dj3fK,北,#ramentw #台灣拉麵愛好會 #拉麵 #豚骨 #豚骨魚介 #豚骨蝦 #2019名店,板橋車站,新北市
176,麵屋三郎,242新北市新莊區建國一路92號,開業於2016年11月，主打醬油豚骨、雞骨湯頭，受到許多輔大學生族群與在地顧客的愛護，在點餐時可以客製化服務。另外店主曾在台北名店鷹流體系下修業過，呈現風格既視感強烈。,11:00–14:00、17:00–21:00,25.030031,121.434444,曾鐘瑩 - 清湯雞骨拉麵   https://bit.ly/2ZaDp8B   Candy Yang - 濃厚豚骨叉燒拉麵   http://bit.ly/2JWp7i6   古景安 - 雞骨叉燒拉麵   http://bit.ly/2Lj9tmt,北,#ramentw #台灣拉麵愛好會 #拉麵 #豚骨,輔仁大學／捷運輔大站步行5分,新北市
177,樂麵屋-板橋店,220新北市板橋區縣民大道二段7號Global Mall 環球板橋車站B1,公司創立於2006年，樂麵店目前有六家店，本店位於板橋車站環球購物中心B1，主打日式湯頭、無限加麵。大部份麵友們的評價評斷此間湯頭偏台日混合豚骨，加上不定時推出的限定麵食，深受學生以及上班族喜愛，本店限定是叉燒豬排咖哩拉麵，詳情可察看下方網友食記。,11:00–21:30(Last Order 20:30),25.014361,121.463614,Francesca Chuang - 焦蔥豚骨拉麵   http://bit.ly/2LQLLOV   Benson Chen - 叉燒辣辣豚骨拉麵   http://bit.ly/2vGfSxx,北,#ramentw #台灣拉麵愛好會 #拉麵 #豚骨 #無限免費加麵,板橋車站／板橋捷運站步行1分,新北市
178,二月ラーメン,251新北市淡水區中山北路一段74號,開業於2018年12月，有分為豚湯與雞湯二種湯底，詳情可察看下方網友食記。,11:30~14:00、17:00~01:00週二 休息,25.17598931,121.4422898,Stars Yang - 雞骨味噌二月拉麵 https://bit.ly/3oBd3IC   Raven Chen - 二月拉麵   https://bit.ly/3gt48ob   Stars Yang - 雞骨二月拉麵／叉燒飯   http://bit.ly/2IZaLz3,北,#ramentw #台灣拉麵愛好會 #拉麵 #豚骨 #雞湯,淡水中山北路拿坡里旁,新北市
179,田中そば,244新北市林口區文化三路一段 No. 356號,原田中商店，2018年7月更名為 江龍軒，2020年5月更名為 江龍軒《田中そば》。2020年11月1日調整後再開。依照日本設定，耗時三天熬煮而成的豚骨湯頭(臭豚骨)，加上手工製作的極細麵，不但是台灣長濱拉麵的佼佼者，在日本也是榮獲Tabelog 2016拉麵大賞的人氣名店。,週一~四 11:00~21:30週五~日 11:00~22:00,25.07095,121.363960697119,Stars Yang - 醬油拉麵   https://bit.ly/31sFIGQ,北,#ramentw #台灣拉麵愛好會 #拉麵 #豚骨 #臭味,林口三井outlet／機場捷運A9站,
180,初原麵場-三峽本店,237新北市三峽區長福街10號3樓,在老街裡最靠近星空的拉麵-初原麵場日本料理烹調的特色就是著重在食材自然的原味原味是日本料理的主要精神我們保持著理想的初心我們堅持著食材的原味在三峽老街裡的紅磚樓頂上初原麵場-拉麵屋台將帶給您不一樣的味覺。視覺。感覺體驗。,週二~日 17:00–00:00週一 未營業,24.9336481,121.3702599,Stars Yang - 焙煎醬油豚骨拉麵/焙煎雞白湯拉麵   https://bit.ly/3dMniEV   王宇璋 - 醬油豚骨   https://bit.ly/2VCr0Z8   Raven Chen - 特盛雞白湯   http://bit.ly/2UFSJtp,北,#ramentw #台灣拉麵愛好會 #拉麵  #豚骨,三峽祖師廟／頂埔站轉706公車或鶯歌車站轉5005公車,新北市
181,玄一拉麵 GENICHI RAMEN,247新北市蘆洲區復興路56號,於2020年2月開業，以豚骨湯為主軸，詳情可察看下方網友食記。,11:30~14:30、17:00~21:30(午場Last Order:14:00)、(晚場Last Order:21:00),25.085475,121.472953,蔡旻原 - 醬油柚香雞湯拉麵   https://bit.ly/32kakKV   Bill Chang - 柚香雞湯醬油拉麵   https://bit.ly/2YxQUjs   Qureshout Matt - 醬油豚骨拉麵 https://bit.ly/2BHyNih,北,#ramentw #台灣拉麵愛好會 #拉麵 #豚骨,三民高中／捷運三民高中站,新北市
182,百壽爺日式拉麵專門店,231新北市新店區三民路112號,創立於2017年9月，鄰近新店高中，店內有豚骨、醬油、辣味三種湯頭，價格都在兩百元內，可以免費加麵一次，相當平實的選擇。,"週一、二 11:30–14:00, 17:00–20:00週三 未營業週四-日 11:30–14:00, 17:00–20:00",24.97433,121.534376868282,夏元禹 - 白壽爺豚骨(青蔥)拉麵   http://bit.ly/2O47alb   DiGo Cho - 青蔥京都醬油拉麵   http://bit.ly/2uEAg2a   顧孟堯 - 濃湯豚骨,北,陳淑雯 - 叉燒秘製辛拉麵,新店高中／捷運小碧潭站,
183,竹拉麵 関東清爽系豚骨,242新北市新莊區福營路87號,開業於2019年12月，以豚骨湯為主軸，自家製麵，採用竹竿壓麵是自家製麵特色，詳情可察看下方網友食記。,17:00~20:00週日、一 公休,25.032377,121.434598,柯安妮 - 豪華拉麵   https://bit.ly/3iKm4fs   Rock Wu - 豪華拉麵   http://bit.ly/39BTOYc,北,#ramentw #台灣拉麵愛好會 #拉麵 #豚骨,輔仁大學／捷運輔大站,新北市
184,屯京拉麵 林口三井店,244新北市林口區文化三路一段356號2樓,1992年源自東京池袋開店，主打是以豬大骨為基本，加上雞腳等素材，再調入特製秘方的香濃醬油所組成的東京豚骨拉麵。主打平價及CP值，香酥的炸雞也是該店的一大特色。在台北、台南、高雄皆有分店。,週一-四 11:00–21:30週五-日 11:00–22:00,25.07063,121.366355083625,YenYu Chen - 魚介叉燒拉麵   http://bit.ly/2mwBYi0   許嘉欽 - 超值東京豚骨拉麵   http://bit.ly/2Lctuv6,北,#ramentw #台灣拉麵愛好會 #拉麵 #沾麵 #豚骨,林口三井outlet／機場捷運A9林口站,
185,花月嵐 重新家樂福店,241新北市三重區重新路五段654號,主打為大蒜拳骨拉麵，全台分店眾多且口味穩定一致，至今仍不斷推出許多限定拉麵是特色之一。桌上配菜辣韭菜是相當受到喜愛，炒飯更是麵友推薦必點項目，所以又有炒飯才是本體的傳說。,週一-五 11:00–21:10週六-日 10:30–21:30,25.04323,121.467852854789,花王劉 - 海老出汁拉麵   http://bit.ly/2JI3ths   林致群 - 大蒜拳骨拉麵   http://bit.ly/2uLLdyo,北,#ramentw #台灣拉麵愛好會 #拉麵 #豚骨,三重重新家樂福／捷運先嗇宮站,
186,花月嵐 新店家樂福店,231新北市新店區中興路三段1號,主打為大蒜拳骨拉麵，全台分店眾多且口味穩定一致，至今仍不斷推出許多限定拉麵是特色之一。桌上配菜辣韭菜是相當受到喜愛，炒飯更是麵友推薦必點項目，所以又有炒飯才是本體的傳說。,週一-五 11:00–21:10週六-日 10:30–21:30,24.97680,121.546177997117,花王劉 - 海老出汁拉麵   http://bit.ly/2JI3ths   林致群 - 大蒜拳骨拉麵   http://bit.ly/2uLLdyo,北,#ramentw #台灣拉麵愛好會 #拉麵 #豚骨,新店家樂福／捷運七張站,
187,燈來拉麵,247新北市蘆洲區民族路248號1樓,開業於2018年11月，以豚骨湯為主體，亦有雞白湯，湯體走日台風格，不時販售限定拉麵與客人共享，詳情可察看下方網友食記。,11:30~14:30、17:00~21:00,25.088673,121.479139,周秋賢 - 豚骨拉麵   https://bit.ly/33zuuiV   李錦松 - 舒肥鴨蝦餛飩拉麵   Http://bit.ly/39gJnZj   櫻井亭佳 - 豚骨拉麵   http://bit.ly/2ncnY0b,北,#ramentw #台灣拉麵愛好會 #拉麵 #豚骨 #無化調,板信商業銀行,新北市
188,坂道拉麵,247新北市蘆洲區正和街7號1,開幕於2020年1月12日，主軸為豚骨與雞清湯頭，詳情可察看下方網友食記。,17:00~22:00週二 公休,25.082576,121.470392,Raven Chen - 豚骨叉燒拉麵   http://bit.ly/3cnk5Le   林妙鴒 - 坂道拉麵   http://bit.ly/37Wncq5,北,#ramentw #台灣拉麵愛好會 #拉麵 #豚骨 #雞清,正和街五福宮,新北市
189,麵屋。濃-三峽北大店,237新北市三峽區大義路199號,三峽當地的人氣拉麵店！湯稠度中等偏低，味道偏柔和是該店特色，臨近板橋火車站，並在點餐時可以客製化服務，這是符合大部份台灣人喜愛的日式風格拉麵店。此外唐揚串入拉麵是店家的特色，炸過後在烤研發的故事也很有趣。另外針對喜好濃郁口味的麵友也有出煮干拉麵來滿足。,11:30–14:00、17:30–21:00,24.945118,121.377599,Jimmy Lai - 直火味噌拉麵、元祖豚雞拉麵   https://bit.ly/3j3rylP   Chris Chou - 元祖豚骨拉麵   http://bit.ly/2LIZbwi   Ellie Chinen - 焙煎味增叉燒拉麵   http://bit.ly/2LLxxyQ,北,#ramentw #台灣拉麵愛好會 #拉麵 #豚骨,遠雄藝術大道／開車至三鶯交流道下約6分,新北市
190,赤麵廠 - 新莊總店,242新北市新莊區四維路182巷2弄3號,開業於2016年3月，是屬於屋台形式的連鎖拉麵店，新莊在地人經常到此光臨，味覺層次感較弱，豚骨口感層次扁平，首推天神豚骨拉麵，是碗老少咸宜的拉麵，詳情可察看下方網友食記。,週一-三 18:00–01:00週四 未營業週五-日 18:00–01:00,25.021882,121.421613,Jating Hong - 天神豚骨拉麵豪華版   http://bit.ly/2LMoMjZ,北,#ramentw #台灣拉麵愛好會 #拉麵 #豚骨,四維市場／捷運丹鳳站步行10分,新北市
191,赤麵廠 - 中和店,235新北市中和區和平街95號,繼新莊店之後，中和店開業於2018年6月，是屬於屋台形式的連鎖拉麵店，中和在地人於黃昏市場購物時，可順道來此嘗鮮，味道為豚骨系，湯頭味道偏弱，湯味厚度層次扁平，首推天神豚骨拉麵，是碗老少咸宜的拉麵。詳情可參考下方網友食記。,週一-日 18:00–01:00,24.992259,121.505125,Jating Hong - 天神豚骨拉麵豪華版   http://bit.ly/2LMoMjZ,北,#ramentw #台灣拉麵愛好會 #拉麵 #豚骨,和平黃昏市場／捷運景安站步行4分,新北市
192,無二亭拉麵,220新北市板橋區仁化街64巷3號,開幕於2016年1月21日，板橋在地的拉麵店，有販售拉麵及飯類，本店深受在地民眾喜愛，其餘詳見下方食記。,"週二 17:30–20:30週三-日 11:30–14:00, 17:30–20:30週一 公休",25.031602,121.4759,由你來寫第一篇   ,北,#ramentw #台灣拉麵愛好會 #拉麵 #沾麵 #豚骨,文聖街／江子翠捷運站,新北市
193,奧特拉麵 Ramen Ultra-板橋環球店,220新北市板橋區縣民大道二段7號B1-2F,"錦集團之創立,1994年「雞玉錦拉麵」誕生於日本秋田縣大館市。以秋田縣為中心、錦集團擴展多家店舗、依毎家店舗調製不同口味，目前台灣桃園為第一家分店，總計台灣有四家分店。此店型為雞玉錦旗下子品牌麵屋 Ultra，詳情請見下方食記。",11:00–21:30,25.014361,121.463614,Stars Yang - 雞湯柚子鹽味拉麵   http://bit.ly/2SG5nnE,北,#ramentw #台灣拉麵愛好會 #拉麵 #雞湯,板橋車站,新北市
194,麵屋十八甲,243新北市泰山區仁德路135號,於2019年4月開幕，是以豚骨湯為主體的湯頭，深受在地民眾喜愛的小店，詳情請見下方食記。,週二~五 12:00~14:00、18:00~21:00週六~日 11:00~14:00、18:00~21:00週一 公休,25.055879,121.43224,Rock Wu - 豚骨拉麵   http://bit.ly/2t8f1IF,北,#ramentw #台灣拉麵愛好會 #拉麵 #豚骨,同興公園,新北市
195,松食堂,220新北市板橋區陽明街31號,創立於2017年8月，本店除了拉麵之外也有相當多飯食可供選擇，湯頭濃淡與麵條軟硬都能客製化調整，拉麵口味請參考下方麵友食記。,"週一-五 11:30–14:30, 17:00–21:00週六、日 11:00–15:00, 17:00–21:00",25.02220,121.465219810613,Chris Chou - 濃厚豚骨拉麵   http://bit.ly/2NBDQRV   Nora Neko - 醬油雞湯拉麵   http://bit.ly/2LKudjl   邱炳憲 - 濃厚雞白湯拉麵   http://bit.ly/2NG07y9,北,#ramentw #台灣拉麵愛好會 #拉麵 #豚骨,致理科技大學／捷運新埔站,
196,麵家三士-土城日月光店,236新北市土城區學府路二段210號1F,本店位於日月光購物廣場內。「三士」是源自於日本明治維新三傑－西鄉隆盛、木戶孝允及大久保利通。其中西鄉隆盛更是是將薩摩島(即現今鹿兒島)的眼界拓展到世界的中心人物。「麵家三士」就是希望發揮明治維新三位志士的精神，要將最棒的鹿兒島拉麵推廣給全世界的人知道，而成立的品牌。三士拉麵的湯底是用豬骨，特別是頭骨以及蔬菜經過數十小時熬煮而成的半濁湯頭。,週日~四 11:00~21:30(L.O 21:00)週五~六 11:00~22:00(L.O 21:30),24.97875,121.444302997117,魏志利 - 龍馬三士拉麵   http://bit.ly/2UUBfLb   程銘奕 - 華麗三士拉麵   http://bit.ly/2ZqWvXl,北,#ramentw #台灣拉麵愛好會 #拉麵 #沾麵 #豚骨 #限定,日月光購物廣場／捷運土城站步行9分,
197,泰拉風泰式拉麵,220新北市板橋區公館街33號,新北的泰式風味拉麵店，麵友主推泰式酸辣鮮蝦拉麵，若是喜愛泰式酸辣風味的麵友，可以前往一試。,11:30–14:00、17:30–21:30,25.016251,121.461267,Mina Kao - 泰式酸辣鮮蝦拉麵   http://bit.ly/2uKMjLI   Mars Lin - 泰式綠咖哩叉燒沾麵   http://bit.ly/2LIQRsv   陳盈璋 - 泰式酸辣叉燒拉麵   http://bit.ly/2OdsnsL,北,#ramentw #台灣拉麵愛好會 #拉麵 #泰式,板橋車站／捷運板橋站,新北市
198,玄拉麵-北大店,237新北市三峽區國際一街66-2號,開幕於2016年6月(?)，是台北大學學生常光臨的店面之一，濃湯湯頭為豚骨湯底，店主亦會開發多樣性的拉麵口味，詳情請見下方食記。,11:00-14:00、17:00-21:00,24.94215108,121.3724286,鄺宗易 - 担々麵   http://bit.ly/2w2JXYS   何禎哲 - 大蒜拳骨拉麵／叉燒豚骨拉麵(mini)   http://bit.ly/2HlBR3G,北,#ramentw #台灣拉麵愛好會 #拉麵 #豚骨,台北大學,新北市
199,火曜三番目,241新北市三重區中正北路284號,開幕於2020年1月30日，是以豚骨湯為主體，可察看下方網友食記。,11:00~14:00、16:00~21:00,25.068584,121.480487,Tsao Ray - 豚骨拉麵(濃口)   http://bit.ly/2UZLtbA,北,#ramentw #台灣拉麵愛好會 #拉麵 #豚骨,三重商工,新北市
200,彩 日式拉麵專賣店,25174新北市淡水區英專路2巷5號,開業於2013年1月，是淡水區域的拉麵小店，經濟實惠是該店的風格，受到許多學生族群與在地顧客的愛護，是淡水的人氣拉麵店。湯頭偏淡，屬於台式風格湯頭，是碗老少咸宜的拉麵，詳情可察看下方網友食記。,週一-三 11:30–14:30、16:30–20:30週四 未營業週五-日 11:30–20:30,25.16889462,121.4460153,Stars Yang - 味噌拉麵   http://bit.ly/2NDW05s,北,#ramentw #台灣拉麵愛好會 #拉麵 #豚骨,淡水英專夜市／捷運淡水站步行2分,新北市
201,十劍拉麵(環球店),235新北市中和區中山路三段122號,位於環球購物中心三樓，是主打CP值以及豚骨湯為主軸的拉麵店，味道為台式湯頭，詳情可察看下方網友食記。,11:00–21:30(待確認),25.006083,121.475663,林仕傑 - 特濃豚骨叉燒拉麵   http://bit.ly/2M5oQyD,北,#ramentw #台灣拉麵愛好會 #拉麵 #豚骨,環球購物中心／開車至台64線中和方向下約6分,新北市
202,東京家系 衛門府豚骨ラーメン專門店,241新北市三重區長壽西街5號,開業於2016年5月，來自日本東京主廚的淡麗系豚骨拉麵，以屋台方式呈現是本店的特色，拉麵油度極低、鹹度偏高、價格平實，營業時間相當晚，深受三重在地人喜愛。,20:00–00:40週一、二 公休,25.06791,121.498199885471,Mars Lin - 豚骨拉麵   http://bit.ly/2LJ1yei   But Ko - 豚骨拉麵   http://bit.ly/2Lg3bnP   Wendy Chen - 淡麗豚骨拉麵   http://bit.ly/2LEi6rr,北,#ramentw #台灣拉麵愛好會 #拉麵 #豚骨,三和夜市／捷運三重國小站,
203,嬡京都拉麵,231新北市新店區建國路289號B1,開業於2017年8月，位於慈濟醫院美食街B1，是台灣目前少見的素食拉麵，並在點餐時可以客製化選擇素食或是奶蛋素，詳情可察看下方網友食記。,週一-日 09:00–20:30,24.985784,121.535796,王安中 - 完熟番茄拉麵   http://bit.ly/2v966EN,北,#ramentw #台灣拉麵愛好會 #拉麵 #素食,台北慈濟醫院／捷運大坪林站走路10分,新北市
204,鐵家族 Fukurou360烘焙,236新北市土城區忠承路85號,粉專於2015年2月建立，本身是鳥越製粉，並有提供麵食與麵包，湯頭以豚骨為主軸，味道偏向台式風格。詳情請見下方食記。,11:00~18:00週六、日 公休,24.965137,121.438916,Anan Liu - 蔬菜風豚骨拉麵   https://bit.ly/2Kj1C5q,北,#ramentw #台灣拉麵愛好會 #拉麵,捷運永寧站,新北市
205,琉球山日式拉麵店,251新北市淡水區北新路182巷59號,開業於2016年8月，是淡水區域的拉麵小店，經濟實惠是該店的風格，受到許多淡江學生族群與在地顧客的愛護，店家也在擺盤上有用心呈現。,週一-五 11:00–14:30、17:00–21:30週六 未營業週日 11:00–21:30,25.17730636,121.4479286,李夫人 - 九州豚骨拉麵   http://bit.ly/2A41DYR   Stars Yang - 辛味噌拉麵   http://bit.ly/2LMxQp1   Dolly Yang - 和歌山醬油拉麵   http://bit.ly/2NHrjfF,北,#ramentw #台灣拉麵愛好會 #拉麵 #豚骨,淡水北新路／捷運淡水站步行20分,新北市
206,麗人博多拉麵-板橋本店,220新北市板橋區重慶路37號,於2017年12月開幕，是目前板橋區域價格平實的拉麵店，詳細可參閱下方食記。,11:30~20:50,25.00775202,121.4613875,Miranda Chang - 博多豚骨拉麵   http://bit.ly/2vaeUJt,北,#ramentw #台灣拉麵愛好會 #拉麵 #豚骨,介壽公園／捷運府中站步行5分,新北市
207,宮本九州天然豚骨拉麵専門店,23578新北市中和區景平路240巷2弄21號,創立於2007年7月，餐點特色請參考麵友食記心得。,"週一 11:00–13:30, 17:00–20:30週三-日 11:00–13:30, 17:00–20:30週二 休息",24.99380,121.516783188352,王宇璋 - 豚骨拉麵   https://bit.ly/3emTI94   莊祐銓 - 招牌叉燒豚骨拉麵   http://bit.ly/2O82pH2   Jin-Hong Liao - 大蒜叉燒豚骨拉麵   http://bit.ly/2uWPmzH,北,#ramentw #台灣拉麵愛好會 #拉麵 #豚骨,大潤發景平店／捷運南勢角站,
208,蒔桐日式拉麵,242新北市新莊區龍安路236號,開業於2017年10月，湯頭為台式風格，詳情可察看下方網友食記。,11:30–14:30、17:30–20:30,25.019823,121.420588,陳昭諺 - 台味蠔醬拉麵   http://bit.ly/2xEnfHa,北,#ramentw #台灣拉麵愛好會 #拉麵,寶雅龍安店,新北市
209,鐵丸十三堂-汐遠店,221新北市汐止區新台五路一段79號,此店位於遠東世界中心B1。開業於2017年7月，主打平價的豚骨湯頭，湯體偏淡麗台式，店內除豚骨拉麵之外，亦有飯食販售，此間頗受在地麵友喜愛，亦會不時推出限定麵食與麵友們同享，詳情可察看下方網友食記。,11:30–14:30週六、日 公休,25.061741,121.645828,尹聖鈞 - 隱藏限定松露雞湯拉麵、札幌味噌拉麵   http://bit.ly/2Rgf0us,北,#ramentw #台灣拉麵愛好會 #拉麵 #豚骨 #限定,遠東世界中心,新北市
210,今鶏 制湯所,231新北市新店區中央路151號5,此店於2020年3開業，位在京站小碧潭5樓，主打以雞湯為主的拉麵店，詳情可察看下方網友食記。,週日~四 11:00-21:30(Last Order 21:00)週五~六 11:00-22:00(Last Order 21:30),24.973113,121.529914,由你來寫第一篇   ,北,#ramentw #台灣拉麵愛好會 #拉麵 #雞湯,捷運小碧潭站,新北市
211,麵屋一番-蘆洲店,247新北市蘆洲區成功路92號號,於2020年4月開業，以雞白湯為主軸，原味味道清爽，若需加鹹，請與店家先行告知，詳情可察看下方網友食記。,17:00~22:00(賣完)週一 公休,25.081647,121.472845,谷祖豪 - 蛤蠣雞湯拉麵   https://bit.ly/2Goyag2   Stars Yang - 咖哩雞白湯拉麵   https://bit.ly/373phDH   丁閎 - 雞白湯拉麵   https://bit.ly/3kJoBrn,北,#ramentw #台灣拉麵愛好會 #拉麵 #雞白湯 #咖哩,蘆洲夜市（中山停車場對面）,新北市
212,Merlin.m,237新北市三峽區大仁路27號,於2020年7月開業，是以豚湯為主體，店家企圖定義台灣拉麵意涵，以自我風格，使用台灣常用的調味手法，重新打造湯頭、麵條、調味因子，做出屬於店家想法的台灣拉麵，詳情可察看下方網友食記。,11:30~14:00﻿，17:30~20:00週一 公休11/15 - 11/21、11/23、11/30暫休其餘請洽粉專,24.937476,121.366137,陳聖諺 - 漢方豚骨拉麵   https://bit.ly/2ZPFGGp,北,#ramentw #台灣拉麵愛好會 #拉麵 #豚骨,三峽大仁路,新北市
213,小高拉麵-中和興南店,235新北市中和區興南路一段85巷2號,約於2018年11月開幕，位於南勢角商圈內的拉麵小攤，本店主打以CP為主的豚骨拉麵，詳情請見下方食記。,18:00~22:00,24.988761,121.509847,Matt Yang - 醬油豚骨拉麵   http://bit.ly/2MiwKWJ   Victor Lo - 醬油豚骨拉麵   http://bit.ly/2JPZqV4   林鑫昊 - 醬油豚骨／麻辣豚骨   http://bit.ly/391Y6HX,北,#ramentw #台灣拉麵愛好會 #拉麵 #豚骨,麥當勞,新北市
214,三冬麵舖,330桃園市桃園區同德十街17號,一週營業四天的雞濃湯拉麵店，雞濃湯擺盤華麗，配料食感豐富，老闆亦醉心於新拉麵食感的開發，將會不定時推出限定拉麵以饗饕客味蕾，除此之外，店內的法式布丁更是必點項目。,週三~五 17:00~19:45週六 12:00~13:30、17:00~19:45週日~二 未營業,25.018511,121.294415,Stars Yang - 藤椒雞濃厚拉麵   https://bit.ly/35ZQAxM   Stars Yang - 濃煮干藤椒雞濃厚拉麵   https://bit.ly/2TyUZ3D   Stars Yang - 藤椒特製雞濃厚   https://bit.ly/3lBsFty,北,#ramentw #台灣拉麵愛好會 #拉麵 #雞白 #煮干 #布丁 #限定 #2019名店,桃園藝文特區、同德十街,桃園市
215,大角拉麵 ダージャオラーメン,300新竹市東區大同路86號東門市場#1022,開幕於2020年1月，之前在麵Sato的師傅青山先生所開設的店家，詳情可察看下方網友食記。,17:30~20:30週一 定休,24.80570,120.968958268278,邱汶 - 雞清湯醬油焦香拉麵   https://bit.ly/2Z3SytJ   Hsing Chuan Chen - 叉燒豚骨鹽味拉麵   http://bit.ly/3864vQR   Chang Torge - 雞清湯醬油焦香拉麵   http://bit.ly/32uTy9X,北,#ramentw #台灣拉麵愛好會 #拉麵 #豚骨 #雞清,東門市場,
216,麵屋浩Hiroshi,300新竹市北區北門街87號,新竹城隍廟附近，一家目前只在晚上開4小時的拉麵店，每天晚上卻還是大排長龍! 可以免費加湯和免費加麵一次，好吃道地的濃郁日式拉麵。,17:30–21:30週六~日 公休,24.806868,120.965652,Chester Tang-濃湯叉燒拉麵   http://bit.ly/2uaEOQs   卓根廷 - 叉燒拉麵-濃湯   http://bit.ly/2VIVbB0   Victor Lo - 清湯SP   http://bit.ly/2JMaRMn,北,#ramentw #台灣拉麵愛好會 #拉麵 #豚骨 #醬油,新竹城隍廟,新竹市
217,あお．実家和食処 (另一個家),330桃園市桃園區寶山街210巷31號,在桃園區頗負盛名，前身為麵屋嵐山，但現在已升級為二代店【あお．実家】，原本是販售博多拉麵，使用豚骨湯頭為主，但現在已改為雞湯醬油湯底的中華拉麵，也新增了丼飯、煎餃、担担麵…等選擇，是屬於社區型態的在地風味拉麵店，深受附近居民的喜愛。,11:00~18:30週一~三 公休,25.013304,121.315503,Stars Yang - 蛋花拉麵   https://bit.ly/344vlJ1   黃志明 - 招牌中華拉麵   https://bit.ly/3lHpoJY   Stars Yang - 蛋花拉麵   https://bit.ly/344vlJ1,北,#ramentw #台灣拉麵愛好會 #拉麵 #雞湯 #擔擔麵 #滷大腸,桃園區寶山街,桃園市
218,麵屋豚介 拉麵專門店,320桃園市中壢區興農路46號,店家主打暴力直拳系的控湯手法，湯頭以豚骨為主。本店位於內壢火車站前，步行僅需5~6分鐘即可到達；店裡位置不多，大約可容納十五位之多。 另外口味屬於濃厚系列。,11:00–14:00、17:00–20:00週一-二 公休,24.972858,121.255908,Stars Yang - 煮干豚骨沾麵   https://bit.ly/3gwDYA1   Ernest Eli - 爆走次郎拉麵   https://bit.ly/2RLuftN   Stars Yang - 魚豚沾麵   https://bit.ly/2T1LtVl,北,#ramentw #台灣拉麵愛好會 #拉麵 #豚骨 #限定,內壢火車站旁，忠孝路第一個路口左轉,桃園市
219,麵屋一鮫,300新竹市東區關新路,2019年12月19日試營運。開業於2019年12月30日，是以豚骨湯為主軸的店家，詳情可察看下方網友食記。,17:00~22:00週六 公休,24.785825,121.018836,劉敬曦 - 清湯醬油拉麵極盛   https://bit.ly/3f8qn1g   楊雅竣 - 沾麵   https://bit.ly/37tNsJy   Hsing Chuan Chen - 極盛清湯醬油拉麵   https://bit.ly/2MQ3dkK,北,#ramentw #台灣拉麵愛好會 #拉麵 #沾麵 #豚骨 #限定,關新二街,新竹市
220,極清拉麵-Kiyome Ramen,320桃園市中壢區九和一街3號,開業於2018年12月，是屬於中壢當地少數的淡麗系湯頭名店，詳情可察看下方網友食記。,週一-五 17:00–20:30週六-日 12:00–14:00、17:00–20:30,24.961847,121.22337,李研碩 - 燒塩拉麵   https://bit.ly/3eJvhS0   Mark Wu - 燒塩拉麵／豚骨拉麵   http://bit.ly/2LVQIoe   吳東坤 - 雞白湯拉麵／燒塩拉麵   http://bit.ly/2JEZrJS,北,#ramentw #台灣拉麵愛好會 #拉麵 #雞湯,威尼斯影城,桃園市
221,Hiro's らぁ麵 Kitchen-新竹創始店,320桃園市中壢區大勇一街35號,開業於2018年10月，是以豚骨湯為主體的拉麵店，2020年10月獲得台北市牛肉麵節紅燒組第三名，詳情可察看下方網友食記。,17:30~21:30營業日不固定，請參考店家的FB粉專,24.954224,121.240181,毛文謙 - 叉燒拉麵   https://bit.ly/2VDB0mf   星果汁 - 拉麵   https://bit.ly/2EIAXz6,北,#ramentw #台灣拉麵愛好會 #拉麵 #豚骨 #雞清湯,世界街、麵屋浩,桃園市
222,横浜家系ラーメン拉麵家,300新竹市東區民生路119號,開幕於2020年2月1日，初期設定為外帶店，店主為原大和家店長，可察看下方網友食記。,11:00–21:30週三 定休,24.81011,120.976835,黃世明 - 清湯拉麵   http://bit.ly/36XZxoJ   黃世明 - 叉燒鹽味拉麵   http://bit.ly/2vmCI0C,北,#ramentw #台灣拉麵愛好會 #拉麵 #家系 #豚骨,新竹巨城／陽信銀行,新竹市
223,麵屋豚彩,324桃園市平鎮區中豐路山頂段186號,原本開在平鎮的麵屋豚介， 似乎是因為家庭因素影響，自2017年3月起休業，之後原址改為麵屋豚彩，由老闆娘經營，豚湯渾厚細緻，風格有異於豚介，3/9開始變更為雞骨與魚介湯底，詳情請見下方食記。九月份的營業時間變動如下:9/28~30 營業10/1~2 休息10/3 中午營業10/26~28 員旅10/29 晚上營業,週三-四 17:00–20:00週五-日 11:00–14:00、17:00–20:00週一-二 公休,24.899717,121.210688,Hsing Chuan Chen - 濃厚叉燒豚骨+魚豚叉燒豚骨   https://bit.ly/2FYyMZe   Stars Yang - 小二郎+干貝醬油豚骨拉麵   https://bit.ly/32k9Owt   謝春宏-濃厚叉燒豚骨拉麵   http://bit.ly/2NKwjmX,北,#ramentw #台灣拉麵愛好會 #拉麵 #豚骨,龍潭山仔頂,桃園市
224,小郜家 雞白湯拉麵,334桃園市八德區介壽路二段167-2號,開幕於2018年10月，以濃厚雞白湯為主的拉麵店，湯底的層次厚度偏甜，鹹味層次較單一，麵友們較推此店的鹽味雞白湯，詳情可察看下方網友食記。,週二~五 12:00~14:30，16:30~19:30週六 12:00~19:30週日、一 公休,24.954054,121.298787,謝春宏 - 鹽味雞白湯   https://bit.ly/39SxSs6   Stars Yang - 鹽味雞白湯、醬油雞白湯   https://bit.ly/3dwBK2Z   鍾孝彥 - 鹽味雞白湯拉麵   https://bit.ly/2xf2HZ1,北,#ramentw #台灣拉麵愛好會 #拉麵 #雞白 #柑橘,大潤發桃園八德店,桃園市
225,翔大拉麵店,320桃園市中壢區大仁三街9號,開業於2019年9月，是以豚骨湯為主體的拉麵店，於2020年2月開始提供雞白湯。二．四．六 ➡️ 雞白湯 🐔三．五．日 ➡️ 豚骨湯頭 🐷清湯的部分皆有供應，詳情可察看下方網友食記。,11:30~13:30、17:00~20:00週一、二 公休,24.955219,121.241572,鄭傑瑞 - 黑蒜油豚骨拉麵   https://bit.ly/38Eww5A   毛文謙 - 霸王別姬 虞姬拉麵   https://bit.ly/3mzpzHy,北,#ramentw #台灣拉麵愛好會 #拉麵 #豚骨 #雞白湯,大仁三街,桃園市
226,籽田野菜屋,300新竹市東區世界街93號,開業於2013年12月，是新竹蔬食者之間，頗具盛名的無化調素食拉麵店家，本店除了有多種風味拉麵之外，也提供了拉麵以及健康風格米飯、甜食的選項，詳情可察看下方網友食記。,11:30–13:30、17:30–20:00,24.808978,120.969818,李秉諺 - 蒜頭拉麵   http://bit.ly/2OdyukO,北,#ramentw #台灣拉麵愛好會 #拉麵 #素食,薯霸早餐,新竹市
227,豚戈屋台拉麵,330桃園市桃園區國際路一段98巷52號,原本位於八德的豚戈屋台拉麵，從只有一處少少座位的小攤車，到2018/3月底開了新店面，距離檜溪肉圓很近，而其真材實料的天然湯頭好味道，讓不少忠實客人一路追隨，拉麵都是每日限量，賣完就要等隔天啦！,11:30~14:30，17:30~21:00週一 公休,24.963967,121.294056,Dwayne Weng - 煮干醬油拉麵   https://bit.ly/2UtTTpX   陳逸凡 - 豚戈豚骨拉麵   http://bit.ly/2Z0IenK,北,#ramentw #台灣拉麵愛好會 #拉麵 #豚骨 #限定,大興西路,桃園市
228,麵屋一人,32552桃園市龍潭區中正路108號,預定開業於2019年10月，是以雞清湯系為主軸的拉麵店，詳情可察看下方網友食記。,週二-五 17:00–21:00週六-日 11:30–14:30、17:00–21:00週一 公休,24.867363,121.215854,Hsing Chuan Chen - 黃金雞白湯 https://bit.ly/2FYyMZe   Mark Wu - 黃金雞白湯   http://bit.ly/3cS0va9   李奇來 - 黃金雞白湯、塩味雞清湯   http://bit.ly/37iGuW0,北,#ramentw #台灣拉麵愛好會 #拉麵 #雞清 #雞白,龍潭屈臣氏,桃園市
229,雞玉錦拉麵Nishiki-林口環球購物中心A8店,333桃園市龜山區復興一路8號,"錦集團之創立,1994年「雞玉錦拉麵」誕生於日本秋田縣大館市。以秋田縣為中心、錦集團擴展多家店舗、依毎家店舗調製不同口味，目前台灣桃園為第一家分店，總計台灣有四家分店。",11:00–20:00,,,Stars Yang - 雞湯柚子鹽味拉麵   http://bit.ly/2SG5nnE,北,#ramentw #台灣拉麵愛好會 #拉麵 #雞湯,林口長庚醫院／A8長庚醫院站,桃園市
230,雞玉錦拉麵Nishiki-桃園華泰店,320桃園市中壢區春德路189號3樓,"錦集團之創立,1994年「雞玉錦拉麵」誕生於日本秋田縣大館市。以秋田縣為中心、錦集團擴展多家店舗、依毎家店舗調製不同口味，目前台灣桃園為第一家分店，總計台灣有四家分店。",11:00–21:00,25.01489559,121.212701,Stars Yang - 雞湯柚子鹽味拉麵   http://bit.ly/2SG5nnE,北,#ramentw #台灣拉麵愛好會 #拉麵 #雞湯,林口長庚醫院／A8長庚醫院站,桃園市
231,麵屋Luna,320桃園市中壢區新中北路240號,湯頭濃郁卻又清爽不膩，叉燒肉不油膩又夠柔軟，店裡還有一處 提供客人掛外套，免費續湯又續麵，划算超值。,11:00–14:00、17:00–21:00,24.959007,121.23971,張逸民 - 月盛肉花豚骨拉麵   http://bit.ly/2HaP138   邱炳憲-月之雞骨拉麵   https://bit.ly/3aUapXa,北,#ramentw #台灣拉麵愛好會 #拉麵 #豚骨,中原大學,桃園市
232,小判 拉麵專門店,333桃園市龜山區明德路318號,銘傳大學附近的拉麵店，深受學生族群喜愛。價格平易近人且講究水準，時常會提早賣完或是出現品質問題臨時休息，出發前記得確認粉專訊息。,週一-五 16:30-21:00週六 公休週日 16:30-21:00,24.989778,121.343489,Stars Yang - 醬油豚骨   https://bit.ly/3fWSj9I   Stars Yang - 鹽味豚骨   http://bit.ly/2SDa2a7   Stars Yang - 醬油豚骨+味噌豚骨   http://bit.ly/2QniBsS,北,#ramentw #台灣拉麵愛好會 #拉麵 #豚骨,銘傳大學,桃園市
233,神虎拉麵kamitora,300新竹市北區北門街170號,於2019年7月復業，主打豚骨湯頭，詳情可察看下方網友食記。,週一-五 11:00~14:30、17:00~00:00週六-日 11:00~15:00、17:00~00:00週二 公休,24.80869,120.965239,邱汶 - 濃厚豚骨拉麵   https://bit.ly/3bZLwu1   Hsing Chuan Chen-濃厚豚骨拉麵   http://bit.ly/38d4v1K   月の 樹 - 雞白湯拉麵   http://bit.ly/36Tx18O,北,#ramentw #台灣拉麵愛好會 #拉麵 #豚骨,新竹長和宮,新竹市
234,麵屋一虎 ICHI TORA,320桃園市中壢區中央東路36號,麵屋一虎位於中壢火車站附近，步行約8-10分鐘左右，這裡只要一百多元就能吃到配料豐盛的拉麵，排隊人潮不斷，但服務非常貼心。,週一~五 11:30~14:00、17:00~21:00週六~日 11:30~21:00,24.956705,121.224493,曾允廷 - 濃厚雞白湯   https://bit.ly/2z68g9Y,北,#ramentw #台灣拉麵愛好會 #拉麵 #豚骨,中壢火車站,桃園市
235,嘿．傑克,320桃園市中壢區大仁二街18-3號,餐點部分很棒，吃法說明仔細很細心！雖店面沒有過多裝飾，但麵體、湯頭、叉燒皆有其特色，廣受當地學生好評且為排隊店家。,週一-五 11:30–13:00、17:30–19:00週六-日 未營業,24.95464,121.242816,陳逸凡 - 豚骨魚介沾麵   https://bit.ly/2z0b7kU,北,#ramentw #台灣拉麵愛好會 #拉麵 #豚骨,中原大學,桃園市
236,許諺屋,330桃園市桃園區樹仁三街23號,雖然不是正統的日式拉麵吃起來倒也沒太多的台味，也沒有標榜師出名門，但許諺屋許了我一碗好吃的麵。定食口味偏淡，女仕可能會比較喜歡。,週二 未營業週三-一 11:30–14:00、17:30–20:00,24.974724,121.323071,Lien Kao-濃厚蝦湯叉燒拉麵   http://bit.ly/2mBSsZe   Kuo Jason-濃厚叉燒豚骨拉麵   http://bit.ly/2mbiWAM,北,#ramentw #台灣拉麵愛好會 #拉麵 #豚骨,住都大飯店,桃園市
237,麵家 勝八,333桃園市龜山區復興一路62號,師承日本大阪的麵家八兵衛，強調自家製麵，使用日本麵粉，且麵體加入柚子皮擁有柚香味道是最大特色的主打，也是當地知名排隊拉麵店。,週一-六 12:00–14:00、18:00–20:30週日 未營業,25.059881,121.368966,Stars Yang -豚骨醬油拉麵   http://bit.ly/30z7Jdh   Stars Yang - 豚骨醬油拉麵   https://bit.ly/2FaGrmq   陳廷安 - 豚骨味噌拉麵   https://bit.ly/2DxWvwX,北,#ramentw #台灣拉麵愛好會 #拉麵 #豚骨,林口長庚醫院／A8長庚醫院站,桃園市
238,麵屋偶 拉麵本也-新竹東門店,300新竹市東區大同路86號300,位於東門市場攤位1160來自於沖繩的拉麵名店，口味清新不油膩，值得推薦 !!2020年12月2日菜單更改為二郎系專賣店，詳情請見下方食記。,17:00~23:00週一 公休,24.804881,120.96865,Hsing Chuan Chen - 咖哩拉麵   https://bit.ly/391X94V   Hsing Chuan Chen --青醬拉麵   https://bit.ly/2Hnr2ko   Hsing Chuan Chen - 清淡煮干拉麵加蛋+濃厚煮干豚骨拉麵   https://bit.ly/3hLx235,北,#ramentw #台灣拉麵愛好會 #拉麵 #豚骨 #二郎風,新竹東門,新竹市
239,伍拉麵,320桃園市中壢區中北路70號,前身為五拉麵，於2019年8月重新開幕。該店五種特色湯頭是其最大特色，每種湯頭都有該特色和代表顏色，同時也是當地的排隊名店。,週一-五 17:30–20:30週六-日 11:30–14:00、17:30–20:30,24.956157,121.237573,邱炳憲 - 蔥味梅花叉燒拉麵   https://bit.ly/2JRBRbo,北,#ramentw #台灣拉麵愛好會 #拉麵,中原大學,桃園市
240,無常拉麵,334桃園市八德區廣福路689號,開業於2019年9月，以雞湯為主體的拉麵店，有雞清湯與雞白湯二種鹽味湯頭，口味為台日混合，屬於入門級別的拉麵店，詳情可察看下方網友食記。,17:30~21:30週一 公休,24.96019,121.281938,徐世威 - 鹽味雞白湯拉麵   http://bit.ly/2rOnrUX   喬祥 - 鹽味雞清湯   http://bit.ly/2PRLiuQ   GinSam Sun - 鹽味雞白湯拉麵   http://bit.ly/2LXIhs2,北,#ramentw #台灣拉麵愛好會 #拉麵 #雞白 #雞清 #柑橘,宜廉汽車,桃園市
241,山形心心-新竹店,300新竹市東區林森路18號,位於晶品城B1。將製麵者的心跟客人的心連繫在一起，為紀念此願景日本山形總店取名為心心，在台灣也希望能用此日本傳統精神將日本跟台灣人的心彼此更加靠近，故與日本總店取同名。,週一-四 11:00 - 21:30週五-日 11:00 - 22:00,24.802001,120.970356,楊德輝 - 辛味噌拉麵   https://bit.ly/2MOnHdw   林小逼 - 魚豚野郎(中)   https://bit.ly/2MrYVBz   Candy Yang - 魚豚野郎(大)   https://bit.ly/2Ma1FE2,北,#ramentw #台灣拉麵愛好會 #拉麵 #沾麵 #二郎風,晶品城／東門大排水溝,新竹市
242,麵屋一擊,320桃園市中壢區慈惠三街108巷10號,由日本長井先生領軍指導，首次來台開創道地日式拉麵」，這裡的拉麵「延承正統九州道地口味」,11:30–14:00、17:00–21:00,24.963111,121.225746,邱炳憲-特濃鷄骨和牛拉麵   http://bit.ly/33LELIq,北,#ramentw #台灣拉麵愛好會 #拉麵 #雞湯,中壢SOGO,桃園市
243,一風堂桃園高鐵店,320桃園市中壢區高鐵北路一段6號,桃園高鐵站8號出口處，一風堂在桃園的第一家店，而且是「拉麵專門店」，而不是跟台北一樣的「拉麵餐廳」。拉麵專門店跟日本的一風堂是較為接近的。,10:00–22:00,25.01339,121.215147,Nora Neko - 京都黑醬油拉麵(限定)   https://bit.ly/2KS5cS9   David Lai - 海老沾麵(限定)   https://bit.ly/2OyV3Ms   Daxon Tsai - 海老沾麵(限定)   https://bit.ly/2PaoNAi,北,#ramentw #台灣拉麵愛好會 #拉麵 #豚骨,桃園高鐵站,桃園市
244,麵心無界,320桃園市中壢區力行北街50號,於2020年1月11日開業，原有豚骨與雞白湯系，目前以雞白湯為主軸，詳情可察看下方網友食記。,17:30~21:00,24.954455,121.239747,李奇來 - 雞白湯拉麵、泡系雞湯   https://bit.ly/2x9tdTH   陳柏安 - 雞白湯‧豐盛   http://bit.ly/2w56OpW,北,#ramentw #台灣拉麵愛好會 #拉麵 #雞白,力行北街,桃園市
245,九湯屋-新竹光復總店,300新竹市東區光復路一段99號,一個無心插柳的小路邊攤，也能讓價格高不可攀的日本拉麵，轉變成平價美食，創立九湯屋日本拉麵的目的，是要讓顧客能夠沒壓力的享用我們用心製作的拉麵。,11:00–14:00、17:00–22:00,24.781246,121.023851,Mudu Yang - 東京醬油拉麵   http://bit.ly/2JIr05D,北,#ramentw #台灣拉麵愛好會 #拉麵 #豚骨,台鐵竹中火車站,新竹市
246,麵屋。濃(林口長庚店),333桃園市龜山區文化一路10巷42弄47號,首店開業於2016年6月，使用大量的日式木質裝潢，湯味濃，湯稠度中等偏低，味道偏柔和雞唐揚串和是該店最大的特色。同時可以客製化服務，這是符合大部份台灣人喜愛的日式風格拉麵店，詳情可察看下方網友食記。,11:30–14:00、17:30–21:00,25.059055,121.36994,Chris Chou - 元祖豚骨拉麵   http://bit.ly/2LIZbwi   llie Chinen - 焙煎味增叉燒拉麵   http://bit.ly/2LLxxyQ   邱炳憲 - 特盛煮干豚骨拉麵   http://bit.ly/2LITT3K,北,#ramentw #台灣拉麵愛好會 #拉麵 #豚骨,林口長庚醫院／A8長庚醫院站約3分,桃園市
247,織田信長,320桃園市中壢區環西路二段366巷10號,開幕於2016年7月，以蝦湯為主體，亦不時有蝦蟹海鮮湯限定與麵友們共享，可察看下方網友食記。,12:00~14:30、17:30~21:30,24.964971,121.215178,王立民 - 松露蝦味淡麗、松露蝦味濃厚   https://bit.ly/30D8uCI,北,#ramentw #台灣拉麵愛好會 #拉麵 #魚介 #蝦蟹,中壢國民運動中心,桃園市
248,麵屋北辰 めん処北辰,330桃園市桃園區復興路127號二樓,"*食べログ-->靜岡縣第一名人氣拉麵店""めん処 藤堂""在台姊妹店，此店位於桃園火車站商圈拉麵激戰區內少見的獨立店家，店舖位於2樓的位置，大多數麵友推薦此店首選為鹽味及沾麵，詳情請見下方食記。",10:30–00:00,24.990191,121.312582,David Lai - 冬月鹽味   http://bit.ly/2w8I0d7   廖雪 - 冬月拉麵套餐   http://bit.ly/31Kp2YZ,北,#ramentw #台灣拉麵愛好會 #拉麵 #沾麵,桃園火車站,桃園市
249,ラーメン拉麵專門店-竹北店,302新竹縣竹北市縣政二路245號,2020年4月更名為ラーメン拉麵專門店，詳情請見下方食記。,11:00~22:00,24.83343,121.01895,Sky Walker-濃厚豚骨拉麵   https://bit.ly/3frqPYJ,北,#ramentw #台灣拉麵愛好會 #拉麵 #豚骨,縣政二路／日盛銀行,新竹縣
250,一風堂EXPRESS-新竹巨城店,300新竹市東區中央路229號4樓,本店位於新竹巨城4樓。一風堂成立於 1985 年，發源自博多。創業者河原成美打造出貼心、溫暖且充滿活力的用餐氣氛，從此顛覆了日本拉麵文化。2008 年起，一風堂陸續在紐約、新加坡、首爾、香港等地開店，成立之初即為當地拉麵市場帶來一番新氣象。時至今日，一風堂仍以拉麵界的先驅之姿，在全球掀起陣陣旋風。,週日-週四11:00 - 21:30週五-週六11:00 - 22:00,24.80968,120.974938,Nora Neko - 京都黑醬油拉麵(限定)   https://bit.ly/2KS5cS9   David Lai - 海老沾麵(限定)   https://bit.ly/2OyV3Ms   Daxon Tsai - 海老沾麵(限定)   https://bit.ly/2PaoNAi,北,#ramentw #台灣拉麵愛好會 #拉麵 #沾麵 #豚骨,新竹巨城,新竹市
251,滝禾製麵所-苗栗大埔店,360苗栗縣苗栗市大埔街35號,開幕於2019年8月，本店的味道以豚骨湯、雞湯為主軸，平價美味深受在地顧客喜愛，詳情請見下方食記。,11:30 - 22:00,24.561675,120.818111,熊本熊 - 濃醇咖喱牛五花拉麵   http://bit.ly/2SdotVq   吳俊青 - 原味肋眼叉燒   http://bit.ly/35JalXT   林浩子 - 原味拉麵   http://bit.ly/2sRZjRj,北,#ramentw #台灣拉麵愛好會 #拉麵 #豚骨 #雞骨,苗栗市公所,苗栗縣
252,味の時計台,320桃園市中壢區中園路二段501號 GBF,味の時計台之前在台北有台灣1號店，現在也在中壢大江5樓開立了桃園第一家店，希望大家不用到北海道，也能品嚐到這來自北國的美味。,11:00–22:00,25.00063,121.228869,鄭孟哲 - 炙燒豚骨拉麵   http://bit.ly/2NYN53z   蔡宜芳 - 味增野菜／餃子   http://bit.ly/2GgUbu6,北,#ramentw #台灣拉麵愛好會 #拉麵 #豚骨,大江購物中心,桃園市
253,涼太拉麵 - ラーメン涼太,302新竹縣竹北市成功十二街 26號,安斉はやし先生在開業期間收了幾名學徒，其中一位來自台灣，也就是ラーメン涼太的老闆りょう桑（小六），他將安斉はやし先生精燉慢熬１８小時的湯頭風味帶回台灣，要讓饕客們感受那一湯入魂的難忘滋味.,11:30–14:00、17:30–23:00,,,Bibby Lee - 涼太w拉麵／涼太辛味噌拉麵   http://bit.ly/2VIkNhb,北,#ramentw #台灣拉麵愛好會 #拉麵,竹北市,新竹縣
254,熱烈一番拉麵,337台灣桃園市大園區,日本大夢集團，緣起於只有「七坪半的小店」，昭和47年(1972年)一號店於三重縣松阪市開幕，在日本關西地區已開設一百多家分店，海外連鎖包含台灣、新加坡等等，來到台灣展店已經有10年之久。,11:00–22:00,23.975744,120.979772,吳俊青 - 豚骨白湯麵   http://bit.ly/2LNpYIj,北,#ramentw #台灣拉麵愛好會 #拉麵 #豚骨,桃拾廣場商圈,桃園市
255,富山黑拉麵-桃機二航站店,337桃園市大園區航站南路9號,位於第二航廈 B2美食廣場 F -03櫃位。來自日本富山的黑醬油拉麵，其湯頭醬色高雅，豬叉燒相當軟嫩，此外亦有雞湯、激辛雞湯與低溫雞叉燒等品項可供選擇。,11:30–21:30,25.077114,121.232513,吳俊青 - 富山黑醬油味玉拉麵   https://bit.ly/2Na4EMo,北,#ramentw #台灣拉麵愛好會 #拉麵 #醬油,桃園機場／捷運二航廈站,桃園市
256,川又屋日式拉麵,330桃園市桃園區中正路1193號1F,"川又是日本老闆兼主廚的姓氏，地點位於桃園藝文特區。該店""妖怪醬""是其特色，不怕辣的麵友建議嘗試。",週一-二 未營業週三-五 11:30–14:00、17:00–21:00週六-日 11:30–14:30、17:00–21:00,,,Softman Chen - 東京雞汁醬油拉麵   https://bit.ly/2zGJkW3   吳俊青 - 濃縮二倍豚骨拉麵   https://bit.ly/2JSBmhv   Stars Yang - 豚骨醬油+妖怪醬   http://bit.ly/2EmCsCh,北,#ramentw #台灣拉麵愛好會 #拉麵 #豚骨,桃園藝文特區,桃園市
257,東京豚骨 釜本舖,302新竹縣竹北市文興路二段56號號,這家東京豚骨釜本舖是由來自日本的師傅開設，奶白色的豚骨湯頭是招牌，詳情請見下方食記。,11:30–14:00、17:30–20:30週一 公休10/1.2.3.4.16.17.18 公休,24.807731,121.033939,Larry Van-豚骨醬油拉麵   http://bit.ly/2Zwj2VF   陳榆凱 - 鹽味豚骨拉麵／醬油豚骨拉麵   http://bit.ly/2Lp9wdE,北,#ramentw #台灣拉麵愛好會 #拉麵 #豚骨,竹北市極光琉璃,新竹縣
258,拾貳麵舖,324桃園市平鎮區復旦路二段150巷283號,開幕於2020年4月1日，以雞湯為主體，亦有販售丼飯，可察看下方網友食記。,11:30~14:00、17:30~20:30週一 公休,24.953347,121.202816,蔡佳頤 - 招牌柚香鹽味拉麵   https://bit.ly/2ODh0Mh   蔡佳頤 - 招牌柚香鹽味拉麵   https://bit.ly/32vasaz,北,#ramentw #台灣拉麵愛好會 #拉麵 #雞白 #魚介雞骨 #淡麗 #柚子,頂好平鎮二店,桃園市
259,嵐沺拉麵,300新竹市東區南門街77號,開幕於2015年5月15日，以豚骨為主體，可察看下方網友食記。,11:30~14:00、17:00~21:00週一 公休,24.801937,120.966893,Hsing Chuan Chen - 雞白湯拉麵   https://bit.ly/3hyq5lO,北,#ramentw #台灣拉麵愛好會 #拉麵 #豚骨,南門街,新竹市
260,麵家三士-桃園華泰店,320桃園市中壢區春德路189號,本店位於華泰名品城2樓美食街。「三士」是源自於日本明治維新三傑－西鄉隆盛、木戶孝允及大久保利通。其中西鄉隆盛更是是將薩摩島(即現今鹿兒島)的眼界拓展到世界的中心人物。「麵家三士」就是希望發揮明治維新三位志士的精神，要將最棒的鹿兒島拉麵推廣給全世界的人知道，而成立的品牌。三士拉麵的湯底是用豬骨，特別是頭骨以及蔬菜經過數十小時熬煮而成的半濁湯頭。,11:00–21:00,25.01489559,121.212701,魏志利 - 龍馬三士拉麵   http://bit.ly/2UUBfLb   程銘奕 - 華麗三士拉麵   http://bit.ly/2ZqWvXl,北,#ramentw #台灣拉麵愛好會 #拉麵 #沾麵 #豚骨 #限定,華泰名品城／捷運桃園高鐵站,桃園市
261,11番町豚骨拉麵,333桃園市龜山區文化三路106-1號,《11番町豚骨拉麵》已經增加了非常多種口味的拉麵與小菜，位子也多了一些，店裡的氣氛就是可以聊天且大家一起看店裡懸掛電視的台式餐廳。,11:00–14:00、17:00–20:30,25.05653,121.364382,無   ,北,#ramentw #台灣拉麵愛好會 #拉麵 #豚骨,林口長庚醫院／A8長庚醫院站,桃園市
262,均晣溫度,358苗栗縣苑裡鎮新興路48號,深受在地人喜愛的台式拉麵店，價位平實，詳情請見下方食記。,11:00–13:30、17:00–20:00週二休息,24.44061,120.652608,Tsao Ray - 醬油拉麵   https://bit.ly/2xP9PeX   陳彥穎 - 醬油拉麵   http://bit.ly/2tOYAhd,北,#ramentw #台灣拉麵愛好會 #拉麵,苑裡市場,苗栗縣
263,京之林拉麵,358苗栗縣苑裡鎮中正路一段,深受在地人喜愛的台式拉麵店。,11:30–14:00、17:00–20:30,24.437483,120.655105,無   ,北,#ramentw #台灣拉麵愛好會 #拉麵,苑裡市場,苗栗縣
264,原味優品拉麵-苗栗總店(日本博多豚骨),360苗栗縣苗栗市民族路52號,在一番拉麵店狂開下，除了有各種日本來台拉麵也有不少台式拉麵陸續出現，本店的湯底風格為台式。在苗栗市這極端的環境中出現著這家拉麵店。,11:00–14:00、17:00–20:30,24.563171,120.819615,吳俊青-博多原味豚骨拉麵   http://bit.ly/2lbdXQa,北,#ramentw #台灣拉麵愛好會 #拉麵,苗栗縣政府稅務局總局,苗栗縣
265,Hiro's らぁ麵Kitchen-中壢店,320桃園市中壢區大勇一街35號,開業於2020年4月，是以豚骨湯頭為主體的拉麵店，本店的限定為咖哩拉麵，詳情可察看下方網友食記。,17:30~21:30週一 公休,24.954224,121.240181,星果汁 - 拉麵   http://bit.ly/2EIAXz6,北,#ramentw #台灣拉麵愛好會 #拉麵 #豚骨,大勇一街,桃園市
266,淺草咖哩蛋包,360苗栗縣苗栗市府前路96號,2020年2月開幕，是一間以咖哩為主的咖哩蛋包店，拉麵亦為定香，本店以豚湯為主體。味道深受在地民眾喜愛，詳情請見下方食記連結。,11:00-14:00、17:00-21:00,24.560949,120.818599,由你來寫第一篇   ,北,#ramentw #台灣拉麵愛好會 #豚骨 #拉麵 #咖哩,府前路貢茶,苗栗縣
267,鷹流東京醤油拉麺【蘭丸ranmaru】新竹勝利店,300新竹市東區勝利路102號1F,來自鷹流老闆鷹峰涼一，魚介風味的醬油拉麵，湯底有清湯以及濃湯可供選擇，店內使用的是自家製麵的細麵，可以無限加麵，味付玉子(糖心蛋)以及生玉子(生蛋)都是自由捐獻，一個30元起。蘭丸雖然是醬油拉麵，但是口味跟鷹流一樣相當強烈而且豪邁，搭配齒切感十足的細麵以及鮮嫩的叉燒，排隊人潮絡繹不絕，該店也是台灣第一個使用弓削多醬油，以及將叉燒排成肉圈圈的店家，每月29日有特別叉燒增量活動，並且會不定時舉辦大食活動。詳情請見下方食記。,18:00~21:00,24.80185,120.968872073011,徐耀德 - 拌麵   https://bit.ly/2FHbx5Z   Stars Yang - 蘭丸拌麵   https://bit.ly/3hfPot9   Stars Yang - 99醬油拉麵   http://bit.ly/2HsaIeJ,北,#ramentw #台灣拉麵愛好會 #拉麵 #醬油 #豚骨魚介 #加麵一球免費 #每月29日 #大食 #競賽,樂民收費停車場,
268,Hiro'sらあ麵Kitchen-竹北店,302新竹縣竹北市文義街237號,開業於2020年5月，是以豚骨湯頭為主體的拉麵店，目前僅有拉麵及叉燒拉麵二種配置，詳情可察看下方網友食記。,17:30~21:30(Last Order 21:00)週二 公休,24.83114,121.01343,毛文謙 - 叉燒拉麵   https://bit.ly/2VDB0mf   星果汁 - 拉麵   https://bit.ly/2EIAXz6,北,#ramentw #台灣拉麵愛好會 #拉麵 #豚骨,文義街,新竹縣
269,山下公園 ラーメン,403台中市西區健行路1049號金典綠園道商場三樓,前身為有囍拉麵屋台-科博店，本店開業於2018年8月，位於金典綠園道3樓，是以橫濱家系為構思主軸的拉麵，目前週二、三出二郎系拉麵，週四、五出德島拉麵，並且會不定時推出限定拉麵，若對限定拉麵有興趣，可在用餐前一天至粉專與店主進行溝通，或許有機會可以吃到限定拉麵。本店店長胖虎的好手藝、愛心以及對於美味的堅持，造福了許多中部區域麵友們的味蕾，詳情可察看下方麵友食記。,週二~五 11:30~14:00、17:00~21:00週六 11:30~15:00、17:00~21:00週日 11:30~15:00、17:00~20:30週一 休息,24.155773,120.663221,Mudu Yang - 生薑豚雞濃湯   https://bit.ly/2KzrWMl   元元 - 德島拉麵   https://bit.ly/3ph2gUo   黃金俏 - 醇辛鹽味豚濃湯+叉燒繁盛拉麵   https://bit.ly/36cNF3F,中,#ramentw #台灣拉麵愛好會 #拉麵 #沾麵 #拌麵 #豚雞 #限定 #家系 #二郎風 #變化 #加麵一球免費 #加飯一碗免費 #2019金賞,金典酒店,台中市
270,有囍yoshi ramenよし ラーメン中山店,400台中市中區中山路82號,主打雞豚湯的專門店，不定期推出限定菜色即使是定番菜單，也會隨著季節變化主餐皆有前菜及飯後水果每一次來用餐，都會有新的發現*週三、四 德島日,11:30~14:00，17:30~21:00週二 店休,24.13918,120.681883,陳威愷 - 蕈菇松露雞白湯   https://bit.ly/38Nq9wY   陳國銓 - 一日限定澄澈虱目魚清湯   https://bit.ly/3jSwrNL   吳清宏 - 鹽味琥珀雞貝拉麵   https://bit.ly/32poF8I,中,#ramentw #台灣拉麵愛好會 #拉麵 #沾麵 #拌麵  #雞豚 #二郎風 #限定 #變化 #加飯一碗免費 #2019名店,台中車站,台中市
271,らーめん七面鳥,403台中市西區中美街331巷15號,前身是麵屋虎匠，改名七面鳥後品項也做了變動。除虎匠知名的二郎拉麵有在七面鳥提供之外，每個禮拜出的限定拉麵，湯頭就有如重擊直拳般，痛快打擊了每個拉麵愛好者們的味蕾，部份麵友稱本店湯體有如暴力直拳般的感受，是台中拉麵愛好者們必需朝聖的店家！目前每週一、二 固定供應限定豚骨拉麵（博多、特濃、豚骨二郎系）,11:30~15:00、17:30~21:00,24.150092,120.65943,Hsing Chuan Chen - 極濃雞豚大岩亭／濃厚沾麵   https://bit.ly/37a0TPa   馮韡 - 極濃雞豚   https://bit.ly/3fyRZhY   王國龍 - 極濃雞豚   https://bit.ly/391MsiJ,中,#ramentw #台灣拉麵愛好會 #拉麵 #沾麵 #雞白湯 #雞白湯 #豚骨 #二郎風 #鴨醬底 #限定 #變化 #加飯一碗免費 #2019名店,公益公園,台中市
272,麵本初 純水魚貝拉麵,406台中市北屯區熱河路二段210號,開業於2019年11月，是狸匠系列的第四家店，主打魚介系湯頭風味，亦會不時推出新限定，詳情可察看下方網友食記。,11:30-14:00、17:30-21:00,24.174131,120.688134,吳俊青 - 清酒鮭魚   https://bit.ly/39aJloN   Yo Lin - 限定 清酒鮭魚拉麵   https://bit.ly/2UISpbQ   洪宥名 - 純水魚貝醬油拉麵   https://bit.ly/3gwokEY,中,#ramentw #台灣拉麵愛好會 #拉麵 #沾麵 #魚介 #泡系 #限定 #變化,民俗公園,台中市
273,蝦蝦拉麵 元氣屋,403台中市西區中美街419-4號,於2019年6月遷移至中美街419巷現址，同年7月開業，是以雞湯與蝦湯為主的拉麵店，蝦沾麵與蝦拌麵深受麵友好評，詳情可察看下方網友食記。,18:00~23:30不定時公休，詳情請洽粉專,24.153209,120.660066,鄭傑瑞 - 蝦蝦沾麵   https://bit.ly/30N6XLs   Mudu Yang - 鹽味雞湯拉麵   http://bit.ly/332lbrt   Abby Liu - 柚香蝦蝦拌麵   http://bit.ly/2HauICA,中,#ramentw #台灣拉麵愛好會 #拉麵 #沾麵 #魚介雞骨,華美街、中美街、廣三SOGO後方巷內,台中市
274,麵屋田宗 らーめん,404台中市北區大義街137號,源自於日本名店，主打魚介口味的拉麵專門店，濃厚與淡麗系，皆有專攻，雖隱身在巷弄中，不易發現，但用心的好味道仍讓饕客們願意耐心等候。,週二-四 17:30~21:00週五-日 11:30~14:00、17:30~21:00週一 休息,24.162291,120.683568,Abby Liu - 魚介豚骨   https://bit.ly/2CI8vxf   鄭傑瑞 - 濃厚豚骨魚介拉麵   http://bit.ly/2Q9DkyF   林子祥 - 濃厚魚介豚骨拉麵   http://bit.ly/2weZ9l6,中,#ramentw #台灣拉麵愛好會 #拉麵 #沾麵 #豚骨魚介 #限定 #2019名店,中國醫藥大學,台中市
275,麵屋秋鳴,402台中市南區文心南路715號,為狸匠系統中的鴨湯專門店，每月亦會推出限定版拉麵。主打鴨白湯，店主希望用平實的價格，能夠讓更多朋友吃到記憶中日本拉麵的味道。,11:30~14:30、17:30~22:00(L.O 閉店前30分)晚場如遇湯頭售完，會提早打烊。▎鄰近地標或大眾運輸:,24.11428,120.655924,吳俊青 - 薑母鴨拉麵2.0   https://bit.ly/3kZyrUV   陳彥霖 - 果香冷麵拉麵   https://bit.ly/2XZxiDl   陳國銓 - 帕當牛肉咖哩沾麵   http://bit.ly/2wzULRB,中,#ramentw #台灣拉麵愛好會 #拉麵 #鴨清湯 #鴨白湯 #二郎風 #限定,,台中市
276,激勵軒 Chicken Power Ramen,406台中市太平區樹德路12號,開業於2018年9月，位於台中太平區內，湯頭是以雞食材為主體，味道是屬於台中首屈一指的雞白湯設定，亦有雞清湯，以及不定時出現的限定湯頭，虜獲麵友們的味蕾，詳情可察看下方網友食記。,17:00~23:00,24.15029,120.71092,吳俊青 - 黑金烏雞燉湯拉麵   https://bit.ly/3q2l4XN   Robertelvis Huang - 和牛男湯 https://bit.ly/3d4v1xX   吳清宏 - 濃厚版本湯咖哩拉麵   https://bit.ly/32p7wMn,中,#ramentw #台灣拉麵愛好會 #拉麵 #雞濃 #雞白 #雞清 #限定 #變化,太平區麥當勞旁,台中市
277,創作麵坊 鮭の大助,403台中市西區向上路一段170號,開幕於2020年4月10日，由七面鳥所開設的二店，將以鮭白湯為主軸，主打海鮮系食材湯底，詳情可察看下方網友食記。,11:30~14:30、17:30~20:30週一~二 公休,24.14712,120.661002566418,陳威愷 - 龍蝦蟹白湯沾麵   https://bit.ly/3lKXjkL   Huang Wei - 蟹白湯沾麵   https://bit.ly/35cCWr6   Abby Liu - 限定橙香鮮貝鵝白沾麵   https://bit.ly/34Nkwgn,中,#ramentw #台灣拉麵愛好會 #拉麵 #魚貝 #魚介 #鮭白 #加飯一碗免費,向上市場,
278,狸匠拉麵-深夜拉麵,402台中市南區建成路1053號,自2016年5月31日營運，2020年9月17日遷移至現址。,▎營業時間:17:00–25:00(Last Order 25:25),24.128616,120.683356,吳俊青 - 濃厚燒酒雞拉麵   https://bit.ly/2J7xIEn   元元 - 豚大盛   https://bit.ly/36O7T41   陳彥霖 - 濃芋豚骨   https://bit.ly/2XZxiDl,中,#ramentw #台灣拉麵愛好會 #拉麵 #沾麵 #豚濃 #雞清 #限定 #加麵一球免費  #2019名店,▎鄰近地標或大眾運輸:臺中車站 / 忠孝路夜市,台中市
279,麵屋 零,403台中市西區向上路一段245巷9號,店主曾在拉麵之神門下修業，在傳承之後，味道自成一格，並且不定時會有限定拉麵販售，以饗顧客的味蕾，詳情請看下方食記連結。,11:30–14:00，17:30–20:30週三 公休,24.146146,120.659605,鄭傑瑞 - 超濃厚味噌沾麵   https://bit.ly/2XMtJRB   林英傑-特濃麻辣沾麵   https://bit.ly/3f4aWqX   Yama Pipi - 番茄冷麵、中華冷麵   https://bit.ly/3fGObLp,中,#ramentw #台灣拉麵愛好會 #拉麵 #豚骨 #限定 #2019名店,向上市場,台中市
280,山嵐拉麵-一中分店,404台中市北區錦新街90巷2號,山嵐在台中開設的首家分店，開幕於2018年11月，位於台中一中街商圈附近，主打北海道豚骨白湯，亦深受當地學生族群的喜愛。,週日~四 11:30~14:30、17:30~21:00週五~六 11:30~14:30、17:30~21:30週一 公休,24.15368,120.686349,姿婷王 - 白湯豚骨／赤湯豚骨   https://bit.ly/3689RvY   Is Amy - 白系豚骨   https://bit.ly/3kiBmbX   蔡旻原 - 海湯拉麵   https://bit.ly/3jU8u97,中,#ramentw #台灣拉麵愛好會 #拉麵 #沾麵 #豚骨 #豚骨魚介 #辣味 #2019金賞,錦新街／益民一中商圈,台中市
281,東京醬油拉麵超極丸,403台中市西區明義街50號,開幕於2018年7月，是台中首家以東京醬油為名號的店家，首推濃湯醬油SP，詳情請見下方食記。,11:30~14:30、17:00~21:30,24.155195,120.660603,吳俊青 - 濃湯醬油SP   http://bit.ly/2x8IEIy,中,#ramentw #台灣拉麵愛好會 #拉麵 #醬油 #豚清 ,廣三SOGO,台中市
282,ラーメン凪 Ramen Nagi-台中店,407台中市西屯區河南路三段120號3樓,用拉麵跟全世界交朋友『ラーメン凪(Nagi)』豚骨拉麵在日本連年獲TRY拉麵大賞與各大拉麵評鑑冠軍，生田主廚憑藉著對拉麵的熱誠，堅持Nagi Spirit is a bridge to the world精神，希望能藉由Nagi讓全世界都愛上日本拉麵。經典四大天王 - 豚王、赤王、翠王、黑王，款款迷人，各擅勝場！每週限定王 - 每週推出一種口味拉麵，讓人驚喜,11:00~22:00 (L.O 21:30),24.163929,120.638069,洪宥名 - 赤王   https://bit.ly/32m7y6t   大頭小寶 - 麥迪王 乾+湯   https://bit.ly/3173gRw   Sky Walker - 綠咖哩王(限定   https://bit.ly/3cF2r4,中,#ramentw #台灣拉麵愛好會 #拉麵 #豚骨 #限定 #2019名店,老虎城,台中市
283,麵屋六花,404台中市北區學士路236巷2號,於2016年4月11日正式營運。位於住宅區的小店，座位僅十席，外觀不起眼，內部裝潢風格卻讓人印象深刻，鄰近學區，擁有高人氣，大多麵友推薦本店的豚骨湯，詳情請見下方食記。,11:30~14:30、17:30~23:00,24.160704,120.681276,吳俊青 - 塩ラーメン   https://bit.ly/2nJfDOE   Sky Walker - 花椒豚骨拉麵   https://bit.ly/2KVankd   韓璐彼 - 雞豚拉麵   https://bit.ly/2vPsfs5,中,#ramentw #台灣拉麵愛好會 #拉麵 #豚骨 #雞豚湯 #雞清湯,正忠排骨飯,台中市
284,麵屋武藏-台中首店,407台中市西屯區台灣大道四段1038號2,"來自日本的品牌，在日本是""動物系""加上""魚介系""雙湯頭的創始名店。台中店延續日本雙湯頭的特色，台中店的特色是雞豚雙湯頭，加上粗麵以及豪邁的大塊炙燒叉燒，為台灣拉麵風潮的開拓者之一，也是屬於深夜食堂之中的名店。",週日-四 11:00~21:30(L.O 21:00)週五-六 11:00~22:00(L.O 21:30),24.183305,120.615671,朱禾 - 創始の味拉麵   https://bit.ly/36OPMuH   Sky Walker - 五輪洞黑醋角煮拉麵   https://bit.ly/2GQznx5   王人寬 - 味玉炙燒角煮叉燒拉麵   https://bit.ly/33BJ6zZ,中,#ramentw #台灣拉麵愛好會 #拉麵 #雞豚 #雞豚魚介 #加麵一球免費,澄清醫院,台中市
285,拉麵小店 らー麺 華美 麵屋聚,400台中市中區成功路404號,原拉麵小店 らー麺 華美，而後更名麵屋聚，主打豚骨湯頭，價格平實，深受在地顧客喜愛。詳情請見下方食記。,17:30~23:00週三、四 公休,24.146189,120.676949,李德威 - 限定 新加坡司令風鹽味清雞湯   https://bit.ly/33bhSzt   黃皓哲 - 新加坡司令風鹽味清雞湯   https://bit.ly/39khUZP   顏正宇-新加坡司令風鹽味清雞湯   https://bit.ly/3kXzdlu,中,#ramentw #台灣拉麵愛好會 #拉麵 #豚骨 #豚濃  #限定,中華路、成功路交叉口,台中市
286,Kitaho 北穗製麵所,403台中市西區公益路124巷2號,此店於2020年4月1日開業，主打以雞湯為主的拉麵店，使用紫蘇香味食材是其特色，詳情可察看下方網友食記。,11:30~14:00、17:00~20:30週四 公休,24.151128,120.661063,Shao Hua Lü - 干貝之海 清湯   https://bit.ly/2RERg4c   林伯駿 - 北穗紫蘇雞白湯＼極品黃金鹽味   http://bit.ly/2FpjedW   劉冠麟 - 北穗紫蘇雞白湯   http://bit.ly/2XwpZoz,中,#ramentw #台灣拉麵愛好會 #拉麵 #雞白 #雞清 #紫蘇,勤美誠品綠園道／公益路,台中市
287,暴走中村,406台中市北屯區漢口路五段51號,於2020年3月開業，本店位置在漢口路五段51號號停車場內，老闆曾在大阪的 ばっこ志 修業，在Tabelog評分為3.68，主打以雞白湯為主的拉麵店，詳情可察看下方網友食記。,18:00~22:00週三 公休,24.16703,120.687174,李元傑 - 極濃激雞湯   https://bit.ly/3lXIwD2   鄭傑瑞 - 超濃雞魚介沾麵   https://bit.ly/30K2gRe   盧軒偉 - 辣辣雞白湯拉麵   https://bit.ly/2SxSI8V,中,#ramentw #台灣拉麵愛好會 #拉麵 #雞清 #雞白 #鰹雞白 #限定,漢口路,台中市
288,千勝軒らーめん,40343台中市西區三民路一段29號1樓,開業於2019年7月，詳情可察看下方網友食記。,12:00-14:0017:30-21:00(last order21:30),24.130042,120.66689,Odie Peng - 鹽味豚骨拉麵、熟成味噌豚骨   https://bit.ly/2K5TjKm   Odie Peng - 豚骨拉麵／魚介豚骨   http://bit.ly/2lIKQDK   林伯駿 - 辛味味噌   http://bit.ly/2klYAUV,中,#ramentw #台灣拉麵愛好會 #拉麵 #豚骨,金立大咖啡／五權車站,台中市
289,銀座篝,435台中市梧棲區臺灣大道十段168號,開幕於2018年12月，位於台中三井OUTLET美食街，本店為銀座篝在台灣首店，將銀座居民深受喜愛的雞白湯原湯空運到台灣，不容錯過。自2020年9月起，改全新菜單，並販售豚骨拉麵與麵友們同享。,11:00~21:00(平日)10:30~21:00(假日),24.257091,120.518158,王國龍 - 雞白湯soba   http://bit.ly/2HnfafB,中,#ramentw #台灣拉麵愛好會 #拉麵 #雞白 #豚骨 #限定 #米其林,三井OUTLET美食街,台中市
290,渡山樓,403台中市西區公正路170號,開業於2019年6月，是原KIDO老闆的店，湯頭是以雞濃白湯為主體，詳情可察看下方網友食記。,週一~五 11:30~13:30、17:30~21:00週六~日 11:30~14:00、17:30~21:30週四 公休,24.149175,120.660638,曾秋和 - 雞豚選特濃   https://bit.ly/3aIwjwB   Chi Chung Yu - 雞豚/濃厚   http://bit.ly/2IMIlc0   林伯駿 - 特濃雞豚   http://bit.ly/2LTIaOS,中,#ramentw #台灣拉麵愛好會 #拉麵 #雞白湯 #限定,飪室咖哩,台中市
291,嵐田拉麵,500彰化縣彰化市大埔路691號,在彰化地區，當地首屈一指的拉麵店，店家主打豚骨湯頭，並提供杜蘭小麥細麵是其特色，六、日不定期會開放限定與麵友們享用。店內亦陳設無敵鐵金剛公仔牆陳設為其特色。此店深受拉麵迷喜愛，詳情請見下方食記連結。,11:30~13:30，17:30~20:30週二 休息,24.068265,120.5425267,Abby Liu - 濃厚海老拉麵   https://bit.ly/388W6Q7   林子祥 - 醬油雞豚拉麵   https://bit.ly/3ewz9r1   柯承毅 - 鹽味雞湯拉麵   https://bit.ly/2VnreDp,中,#ramentw #台灣拉麵愛好會 #拉麵 #豚骨 #雞白湯 #限定,國稅局彰化分局,彰化縣
292,川澤拉麵,406台中市北屯區梅川東路四段107號,2015年6月開幕，是屬於久留米風格的湯頭，除了湯頭用心之外，無化調也是本店的獨特之處，每週五還有限定的肉男系拉麵，巨大的肉排，讓人印象深刻。,週四-五 17:30–20:30週六-日 11:30–14:00，17:30–20:30週一、二、三 公休,24.174642,120.680165,吳俊青 - 肉男系軟骨排拉麵   http://bit.ly/2MoDd1S   邱彥升 - 玉子豚骨拉麵   http://bit.ly/2PfTPqq   鄭傑瑞 - 川澤拉麵 博多豚骨拉麵 - https://bit.ly/2kejFR8,中,#ramentw #台灣拉麵愛好會 #拉麵 #豚骨 #蝦豚骨 #加麵一球免費 #久留米 #無化調,文心國小,台中市
293,麵屋かとむら　台中一中店,404台中市北區太平路75巷22號,日本麺屋かとむら來台的首間店面，開幕於2018年11月，位於一中商圈內，是台中少見的油拌麵店家，味道醬香麵硬，是標準的東京油拌麵，值得一試。,"週一-五 11:30–14:00, 17:00–21:30週六-日 11:30–22:00",24.147592,120.683842,元元 - 極炙豚骨   https://bit.ly/2J4i6ks   陳宏量 - 原味油拌麵/麻辣油拌麵   http://bit.ly/2FBlq4z   周祖旭 - 原味油そば   http://bit.ly/2Ea3XNB,中,#ramentw #台灣拉麵愛好會 #油拌麵,台中公園／一中商圈,台中市
294,拉麺酒場 博多豚箱 butabako-華美西街,403台中市西區華美西街一段143號,主打博多系豚骨湯頭店鋪不大，適合深夜小酌道地的餐點，讓人十分喜愛,週一~六 18:00~26:00週日 18:00~23:00,24.158106,120.66147,吳俊青 - 招牌豚骨拉麵   http://bit.ly/2PgfzCt,中,#ramentw #台灣拉麵愛好會 #拉麵 #豚骨,國立自然科學博物館,台中市
295,麵吉祥（豐拉麵）,403台中市西區樂群街381號,粉專建立於2014年4月，原豐拉麵，後改名為麵吉祥。本店的味道以豚骨湯為主軸，平價美味深受在地顧客喜愛，不定時會出現意外的餐點以饗麵友們的味蕾，詳情請見下方食記。,18:00~20:00週一 公休,24.132627,120.665734,趙嘉宏 - 豚骨醬油   http://bit.ly/390fw7c   林伯駿 - 赤味噌   http://bit.ly/32rtBbx,中,#ramentw #台灣拉麵愛好會 #拉麵 #豚骨 #限定,樂群街,台中市
296,五之神水產,435台中市梧棲區臺灣大道十段168號,開幕於2018年12月，位於台中三井OUTLET美食街，是屬於五之神製作所在台灣的第二家店，繼主打台灣本產石斑魚湯頭之外，第二波主打鮪魚湯頭拉麵，深受魚介系湯頭的愛好者喜愛。,11:00–21:00,24.257091,120.518158,黃楠棠 - 蝦豚骨拉麵   http://bit.ly/2VuA6VI,中,#ramentw #台灣拉麵愛好會 #拉麵 #魚介,三井OUTLET美食街,台中市
297,富士山55沾麵二號店,408台中市南屯區公益路二段171-2號,源自日本名古屋的富士山55沾麵，由社長『澤竜一郎』領軍。本月開幕於2018年10月，是主打沾麵的專賣店，沾麵可以煮粥是其最大特色。,週一至週五 11:00–14:30、17:30–21:00週六至週日 11:00–21:00,24.15169,120.647510503692,Candy Yang - 牛介沾麵   ,中,#ramentw #台灣拉麵愛好會 #沾麵 #拉麵 #雞湯,屋馬燒肉文心店,
298,麵屋三金,500彰化縣彰化市介壽北路247號,主打雞湯的專賣店，在彰化地區擁有極高人氣營業時間較少，需要特別注意,11:30–14:00 17:00–20:00週日 休息,24.072806,120.5486107,Queena Peng - 味玉濃厚雞湯麵   https://bit.ly/2BV3lfZ   張酉虎 - 味玉濃厚雞湯麵、雞汁拌麵   https://bit.ly/2NtNWVs   林子祥 - 味玉濃厚雞湯麵、麻辣拌麵   https://bit.ly/2ogpvzG,中,#ramentw #台灣拉麵愛好會 #拉麵 #雞湯,彰化高中、彰化高商,彰化縣
299,花月嵐拉麵 台中中友店,404台中市北區三民路三段161號B3,主打為大蒜拳骨拉麵，全台分店眾多且口味穩定一致，至今仍不斷推出許多限定拉麵是特色之一。桌上配菜辣韭菜是相當受到喜愛，炒飯更是麵友推薦必點項目，所以又有炒飯才是本體的傳說。,週一-五 11:00–22:00週六-日 10:30–22:00,24.152181,120.684905,花王劉 - 海老出汁拉麵   http://bit.ly/2JI3ths   林致群 - 大蒜拳骨拉麵   http://bit.ly/2uLLdyo,中,#ramentw #台灣拉麵愛好會 #拉麵 #豚骨 #限定,中友百貨,台中市
300,花月嵐拉麵 台中清水店,436台中市清水區吳厝二街89號2 樓,本店位於清水休息站2樓。主打為大蒜拳骨拉麵，全台分店眾多且口味穩定一致，至今仍不斷推出許多限定拉麵是特色之一。桌上配菜辣韭菜是相當受到喜愛，炒飯更是麵友推薦必點項目，所以又有炒飯才是本體的傳說。,週一~五 11:00~21:00週六~日 10:30~21:30,24.281932,120.601531,花王劉 - 海老出汁拉麵   http://bit.ly/2JI3ths   林致群 - 大蒜拳骨拉麵   http://bit.ly/2uLLdyo,中,#ramentw #台灣拉麵愛好會 #拉麵 #豚骨 #限定,清水休息站,台中市
301,花月嵐拉麵 新光中港店,407台中市西屯區台灣大道三段301號,本店位於新光三越中港店12樓。主打為大蒜拳骨拉麵，全台分店眾多且口味穩定一致，至今仍不斷推出許多限定拉麵是特色之一。桌上配菜辣韭菜是相當受到喜愛，炒飯更是麵友推薦必點項目，所以又有炒飯才是本體的傳說。,11:00~22:00,24.164664,120.643224,花王劉 - 海老出汁拉麵   http://bit.ly/2JI3ths   林致群 - 大蒜拳骨拉麵   http://bit.ly/2uLLdyo,中,#ramentw #台灣拉麵愛好會 #拉麵 #豚骨 #限定,新光三越中港店,台中市
302,東江風-風風亭拉麵,434台中市龍井區藝術南街34號,隱身於東海藝術街的巷弄中外觀十分不起眼卻是當地首屈一指的老店,12:00~14:30、17:30~20:30週一 休息,24.18752,120.592831,Candy Yang - 擔擔拉麵   http://bit.ly/2MkIh7E   高翊禎 - 豚骨拉麵   http://bit.ly/2L32hpE,中,#ramentw #台灣拉麵愛好會 #拉麵 #豚骨,東海大學,台中市
303,升龍軒ラーメン,403台中市西區精誠路389號,於2017年5月10日開幕，為原 升龍拉麵的二店。此店《升龍軒》為中華拉麵專賣，以雞湯為主體，除強棒拉麵外，不定期推出結合異國風味的餐點，活化餐點創意，詳情請見下方食記連結。,週二~四 17:30~22:00週五~日 11:30~13:30、17:30~22:00周一 公休,24.142797,120.655283,Jimmy Lai - 鹽味雞湯拉麵   https://bit.ly/3nxTUWD   吳俊青 - 鹽味雞湯拉麵   https://bit.ly/2nLlDGy,中,#ramentw #台灣拉麵愛好會 #拉麵 #雞湯,大忠公園,台中市
304,Ramen & Izakaya 空海拉麵-大隆店,407台中市西屯區大隆路140號,本店於2020年9月15日重新裝潢後試營運，命名來源自於空海二字代表「空氣」和「海洋」。兩位創辦人名字中，都有「火」和「土」的元素，為達到四大元素的平衡，他們決定以名字中缺少的元素為店名。十分有趣。本店是以豚骨為主體。詳情請見下方食記。,11:30~15:00，17:30~21:00(L.O 14:30、20:30),24.157861,120.650584,吳俊青 - 柚香鹽味拉麵   http://bit.ly/2wbcueq   張瑋民 - 誠實套餐   http://bit.ly/2KWVrSF   Romeo Lee - 雙倍特濃蒜香醬油豚骨拉麵   http://bit.ly/2MWrtQz,中,#ramentw #台灣拉麵愛好會 #拉麵 #豚骨,台中市政府,台中市
305,麵屋虎徹-逢甲店,407台中市西屯區福星北路57號,鄰近學區，裝潢霸氣，甚至有包廂座位皆有USB充電座，堪稱一絕,11:30~14:00，17:00~21:30,24.18479,120.644446,吳俊青 - 特製虎徹拉麵   http://bit.ly/2MWbsdt   徐尚聿 - 特製虎徹拉麵   http://bit.ly/2Mo2clV   Daxon Tsai - 特製虎徹拉麵   http://bit.ly/2MoAJ3G,中,#ramentw #台灣拉麵愛好會 #拉麵 #豚骨,逢甲大學,台中市
306,原山拉麵,500彰化縣彰化市南郭路一段173號,開幕於2020年1月1日，店主之前在麵屋秋鳴修業，後續開設此店，本店以鴨湯為主軸，詳情可察看下方網友食記。,11:30~13:30、16:30~2100,24.0741566,120.5484256,柯承毅 - 鴨清鹽味拉麵   https://bit.ly/2xpKtnP   劉季嵐 - 鴨白女湯拉麵   http://bit.ly/38KIHu5,中,#ramentw #台灣拉麵愛好會 #拉麵 #鴨清 #鴨白,大薇百貨,彰化縣
307,火曜二代目ラーメン,403台中市西區柳川西路二段192號,本店位於柳川旁。以豚湯為主體。曜曜子也是主體，是台中首屈一指的拉麵美術風格，繪畫風格深受拉麵迷喜愛，詳情請見下方食記連結。,週一~五 11:30~14:00，17:30~22:00週六~日 17:15~23:00,24.14162,120.674795,由你來寫第一篇   ,中,#ramentw #台灣拉麵愛好會 #豚骨 #拉麵,柳川西路,台中市
308,盡心亭Heart&soul,404台中市北區五常街60號,鄰近學區，即使在巷弄中，也有高人氣店內還有自助的熱麥茶及小菜,11:30~14:00、17:30~21:00週一 休息,24.154033,120.680914,吳俊青 - 鹽味拉麵   http://bit.ly/2L4qagC   楊鎧粲 - 限定豚骨味噌拉麵   http://bit.ly/2vRrCy6,中,#ramentw #台灣拉麵愛好會 #拉麵 #豚骨,中國醫藥大學,台中市
309,山形心心總店-台中逢甲店,407台中市西屯區文華路71號,此店位於逢甲歡樂星內。將製麵者的心跟客人的心連繫在一起，為紀念此願景日本山形總店取名為心心，在台灣也希望能用此日本傳統精神將日本跟台灣人的心彼此更加靠近，故與日本總店取同名。,週日~週五 17:00 - 23:00週六  17:00 - 25:00,24.177711,120.646346,楊德輝 - 辛味噌拉麵   https://bit.ly/2MOnHdw   林小逼 - 魚豚野郎(中)   https://bit.ly/2MrYVBz   Candy Yang - 魚豚野郎(大)   https://bit.ly/2Ma1FE2,中,#ramentw #台灣拉麵愛好會 #拉麵 #沾麵 #二郎風,逄甲夜市／逢甲歡樂星,台中市
310,同拉麵 文心店,407台中市西屯區文心路三段91號,營業時間極晚，是其特色餐點種類繁雜，用餐環境舒適,17:30~26:30,24.166464,120.651989,吳俊青 - 豚骨拉麵+綜合叉燒   http://bit.ly/2vQVlHv   Yoanna Lu - 味神拉麵   http://bit.ly/2L1pets,中,#ramentw #台灣拉麵愛好會 #拉麵 #豚骨,惠來國小,台中市
311,麵處小林-員林店,510彰化縣員林市三民東街279號,"主打豚骨湯頭的店家濃厚系湯頭名為""水泥""適合喜好濃厚的麵友",週二-五 17:30–21:00週六 -日 11:30–14:00 17:30–21:00週一 休息,23.9603489,120.580638,Nerdy Chang - 中華豚骨白湯   https://bit.ly/2YoxP3c   陳瓊雯 - 中華豚骨、雞白拉麵、水泥拉麵   https://bit.ly/2LzZuEG   Chen Qiong-Wen - 水泥拉麵   https://bit.ly/2wy184q   紀宏儒 - 豚骨魚介拉麵   https://bit.ly/2Pgndw3,中,#ramentw #台灣拉麵愛好會 #拉麵,員林國小,彰化縣
312,屯京拉麵-台中港店,435台中市梧棲區臺灣大道十段168號,本店開幕於2018年12月，位於台中三井OUTLET。1992年源自東京池袋開店，主打是以豬大骨為基礎，加上雞腳等素材，再調入特製秘方的香濃醬油所組成的東京豚骨拉麵。主打平價及CP值，香酥的炸雞也是該店的一大特色。,11:00–21:00,24.257091,120.518158,YenYu Chen - 魚介叉燒拉麵   http://bit.ly/2mwBYi0   許嘉欽 - 超值東京豚骨拉麵   http://bit.ly/2Lctuv6,中,#ramentw #台灣拉麵愛好會 #豚骨 #拉麵 #沾麵 #2019名店,三井OUTLET2F,台中市
313,屯京拉麵-台中誠品店,403台中市西區公益路68號,本店位於台中勤美誠品綠園道 B1。1992年源自東京池袋開店，主打是以豬大骨為基礎，加上雞腳等素材，再調入特製秘方的香濃醬油所組成的東京豚骨拉麵。主打平價及CP值，香酥的炸雞也是該店的一大特色。,11:00–21:00,24.150998,120.663946,YenYu Chen - 魚介叉燒拉麵   http://bit.ly/2mwBYi0   許嘉欽 - 超值東京豚骨拉麵   http://bit.ly/2Lctuv6,中,#ramentw #台灣拉麵愛好會 #豚骨 #拉麵 #沾麵 #2019名店,勤美誠品綠園道 B1,台中市
314,Kido拉麵,40652台中市北屯區昌平路一段226號,店主曾到日本學藝，之後在蔦修業，以低價為訴求，於2018年7月5日以屋台形式開幕營運，雞湯體平實順口，不時會研發新口味，詳情請見下方食記連結。,17:30~24:30週一 休息,24.17036,120.691577,吳俊青 - 雞白湯／塩味拉麵   https://bit.ly/2PgNTgH,中,#ramentw #台灣拉麵愛好會 #拉麵 #雞白湯 #雞清湯,文昌國小,台中市
315,いけっ麺 ラーメン専門店 i ke man ramen,437台中市大甲區水源路2-16號,開業於2017年6月，是以豚骨系與魚介系為主的拉麵店，亦有販售沾麵，深受在地民眾喜愛，詳情可察看下方網友食記。,週一  17:30~20:30週三~日 11:30~13:30、17:30~20:30週二 公休,24.343589,120.622101,ChanHua Chang - 濃厚魚介沾麵   https://bit.ly/2VGgiSW   Youzai Shenghuo - 招牌豚骨拉麵   http://bit.ly/38cQQbB,中,#ramentw #台灣拉麵愛好會 #豚骨 #魚介豚骨 #拉麵 #沾麵,大甲高中,台中市
316,埔里 橫濱拉麵,545南投縣埔里鎮東華路95-1號,擁有台灣拉麵界第一大的停車場方便好停車...要甩尾進場都沒問題!!!,11:30~14:30、17:00~21:00,23.964695,120.970387,吳俊青 - 豚骨拉麵   http://bit.ly/2ywpc9F   Youzai Shenghuo - 坦克拉麵   http://bit.ly/2OysXFt,中,#ramentw #台灣拉麵愛好會 #拉麵,東華路,南投縣
317,麵屋hiro,407台中市西屯區文華路162巷7號,於2019年6月營運，並遷移至現址開業，是以豚骨湯為主的拉麵店，詳情可察看下方網友食記。,17:00~2200,24.183544,120.646487, 無   ,中,#ramentw #台灣拉麵愛好會 #拉麵 #豚骨,逢甲商圈,台中市
318,麵屋hiro-日新店,400台中市中區民族路198號,於2019年7月開業，是以豚骨湯為主的拉麵店，詳情可察看下方網友食記。,週二-五 12:00~14:00、17:00~23:00週六-日 12:00~23:00週一  公休,24.142905,120.676003,目前尚無食記。   ,中,#ramentw #台灣拉麵愛好會 #豚骨,日新戲院,台中市
319,川田屋 日式豚骨專賣店,407台中市西屯區文華路151號,粉專建立於2017年12月，是以昆布蔬菜進行熬制的湯底，有時亦有豚骨湯可享用，是屬於在地的平價小店，詳情可察看下方網友食記。,週一-五 11:00-14:00、17:00-21:00週六'-日 17:00-21:00,24.181024,120.646222,由你來寫第一篇   ,中,#ramentw #台灣拉麵愛好會 #拉麵 #豚骨,逢甲夜市,台中市
320,佐原拉麵,40458台中市北區五權路379號,粉專於2019年6月創立，以豚骨為主軸，湯體屬台式濃厚，料多實在是本店的特色，深受在地居民的喜愛，詳情請見下方食記。,11:00~14:30，17:00~21:30,24.152875,120.680902,由你來寫第一篇   ,中,#ramentw #台灣拉麵愛好會 #拉麵 #豚骨,創意時尚飯店,台中市
321,麵五三屋台ラーメン,542南投縣草屯鎮史館路397巷53號,雖然偏僻難找，但是餐點豐富除了拉麵並且專賣披薩在當地具有絕對的高人氣!!!,週二~五 18:00~21:00週六~日 17:00~21:00週一 休息,23.98901346,120.6623222,吳俊青 - 博多豚骨白湯   http://bit.ly/2OtZqN7   李鈺昇 - 櫻花蝦拉麵、博多赤湯味噌   https://bit.ly/2wwdVUV   神田 きんちゃん - 白湯豚骨拉麵   http://bit.ly/2PbwxVm,中,#ramentw #台灣拉麵愛好會 #拉麵 #豚骨 #披薩,登瀛書院,南投縣
322,麵屋絆 台灣一號店,404台中市北區健行路764號,開業於2014年，粉專於2016年7月重新開張，從屋台起家，是以四國愛嬡區域口味為主的拉麵店，亦有販售沾麵，深受在地民眾喜愛，詳情可察看下方網友食記。,11:30–14:00、17:30–21:00週二 公休,24.159394,120.669905,由你來寫第一篇   ,中,#ramentw #台灣拉麵愛好會 #拉麵 #豚骨,科博館,台中市
323,博風豚骨,407台中市西屯區惠來路一段110號,於2020年3月13日開業，以豚骨湯為主軸，偏向博多系統風格，詳情可察看下方網友食記。,11:00~賣完,24.157854,120.6388,由你來寫第一篇   ,中,#ramentw #台灣拉麵愛好會 #拉麵 #豚骨,弘爺漢堡,台中市
324,博多一風堂拉麵-台中店,407台中市西屯區台灣大道三段301號10樓,此店位於新光三越台中店10F，一風堂成立於 1985 年，發源自博多。創業者河原成美打造出貼心、溫暖且充滿活力的用餐氣氛，從此顛覆了日本拉麵文化。2008 年起，一風堂陸續在紐約、新加坡、首爾、香港等地開店，成立之初即為當地拉麵市場帶來一番新氣象。時至今日，一風堂仍以拉麵界的先驅之姿，在全球掀起陣陣旋風。,週六~日 10:30–22:00週一~五 11:00–22:00,24.164664,120.643224,JingYu Yang特製白丸   https://bit.ly/2Q18aXM,中,#ramentw #台灣拉麵愛好會 #拉麵,新光三越台中中港店,台中市
325,滝禾製麵所-太平創始店,406台中市太平區中山路四段216號,開幕於2018年8月，本店的味道以豚骨湯、雞湯為主軸，湯味較偏甜，此間為連鎖創始店，平價美味深受在地顧客喜愛，詳情請見下方食記。,11:30 - 22:00,24.148236,120.701987,熊本熊 - 濃醇咖喱牛五花拉麵   http://bit.ly/2SdotVq   吳俊青 - 原味肋眼叉燒   http://bit.ly/35JalXT   林浩子 - 原味拉麵   http://bit.ly/2sRZjRj,中,#ramentw #台灣拉麵愛好會 #拉麵 #豚骨 ,50嵐太平店,台中市
326,無招牌 日式雞白湯拉麵,403台中市西區向上路一段17巷1弄3-1號,開幕於2020年4月，主打雞白湯頭，以平價為導向。詳情請見下方食記。,12:00~13:30、17:00~24:00,24.146247,120.6694,由你來寫第一篇   ,中,#ramentw #台灣拉麵愛好會 #拉麵 #雞白湯 #雞魚介,向上路一段,台中市
327,神山拉麵-彰化中正店,500彰化縣彰化市中正路二段652號,神山智博社長一手創立，總店起源於日本大阪，於日本已有多家分店，在台灣是少數有複數店面(台北、彰化、高雄)的家系拉麵，本店為台灣初始店。店內除了拉麵外，也有提供定食。,週一~周日 : 11:00～14:00 17:00～21:00,24.0680675,120.5351366,林庭安 - 神山特製豚骨鹽味拉麵   http://bit.ly/2Nfp073   Siang Lu Zeng - 特製豚骨鹽味拉麵   http://bit.ly/2Cg8U8T,中,#ramentw #台灣拉麵愛好會 #拉麵 #家系,秀傳醫院,彰化縣
328,金晴川拉麵,434台中市龍井區新興路51巷11-1號,開幕於2012年，位於東海商圈巷內，主打濃厚豚骨，CP值極高，亦深受當地學生族群的喜愛。,11:00~13:30、17:00~20:00(L.O 閉店前30分鐘)週六、日 公休,24.180315,120.586802,由你來寫第一篇   ,中,#ramentw #台灣拉麵愛好會 #拉麵 #豚骨 #限定  #辣味噌 #泰式,順發3C／東海商圈,台中市
329,龍魂屋台ラーメン,402台中市南區五權南路653號,雖是實體店面，仍以屋台風格設計店內有許多日系元素裝潢，猶如置身世外,18:00~02:00,24.11458,120.669849439428,吳俊青 - 塩味豚骨ラーメン   http://bit.ly/2wbxeTk   Lily Hsu - 限量版海老赤味增拉麵   http://bit.ly/2w9Vmpj,中,#ramentw #台灣拉麵愛好會 #拉麵 #豚骨,僑泰高中,
330,大山拉麵,436台中市清水區吳厝二街89號,於2020年1月18日於清水服務區開業，本店源自於らーめんたいざん海老名SA店，該店家在RamenDB(80.11)、Tabelog(3.41)，詳情可察看下方網友食記。,10:00~21:00,24.281932,120.601531,喬祥 - 醬油拉麵＼鹽味拉麵   https://bit.ly/2SsTIes   邱炳憲 - 豚骨拉麵＼叉燒丼 https://bit.ly/3fcFnMK,中,#ramentw #台灣拉麵愛好會 #拉麵 #豚骨 #豚清  ,清水休息站,台中市
331,梅之香拉麵,545南投縣埔里鎮大城路33-6號,除了販售拉麵，也有其他日式餐點走溫馨路線的小店,11:20–13:30 17:20–19:30週二 休息,23.970788,120.959098,無   ,中,#ramentw #台灣拉麵愛好會 #拉麵,埔里酒廠展售中心,南投縣
332,信川屋博多豚骨拉麵店,403台中市西區中興八巷24號,開幕於2017年1月，湯頭為豚骨為主軸，價格平實，麵條部份可加價更換為七彩麵與玫瑰麵是其特色，詳情請見下方食記。,週一~四 11:00~14:30、16:30~21:20週五~日 11:00~21:20,24.150315,120.662328,林伯駿 - 博多味噌拉麵   https://bit.ly/2UEIAf8,中,#ramentw #台灣拉麵愛好會 #拉麵 #豚骨 #雞白湯 #玫塊麵 #七彩麵,勤美綠園道,台中市
333,裕手串·拉麵,403台中市西區中美街382號,此店於2020年6月29日開業，是屬於居酒屋類型的店家，湯頭以雞湯為主，詳情可察看下方網友食記。,18:30~26:00,24.15203,120.66035,趙嘉宏 - 干貝雞湯拉麵   https://bit.ly/3dVrxOA   鐘轉麥 - 干貝雞湯拉麵   https://bit.ly/3jKrreV   吳錫恩 - 干貝雞白湯拉麵   https://bit.ly/39ncwTu,中,#ramentw #台灣拉麵愛好會 #拉麵 #雞白湯 #雞貝 #串燒 #居酒屋,蝦蝦拉麵元氣屋,台中市
334,麵屋虎徹-朱雀（豐原店）,420台中市豐原區成功路500號1樓美食街,此店位於豐原家樂福內。從逢甲商圈的麵屋虎徹開業，此店主打低脂雞肉的「朱雀」店，搭配雞骨與豚骨熬的清澈高湯底，詳情請見下方食記。,11:00~22:00,24.252194,120.706045,邱于珊 - 濃厚朱雀拉麵   http://bit.ly/2OKUr6x   Yi-rou Yen - 朱雀辛味增拉麵   http://bit.ly/2wel38h,中,#ramentw #台灣拉麵愛好會 #拉麵 #雞豚湯,家樂福,台中市
335,角屋拉麵 かど乃や ラーメン,510彰化縣員林市中山路二段442號,於2015年12月21日開業，師承靜岡 かど乃や是かど乃や在台的傳承，以豚骨湯為主軸，偏向博多系統風格，亦有海鮮湯系味道可選擇，詳情可察看下方網友食記。,11:30~14:00、17:30~21:00,23.970267,120.5715228,由你來寫第一篇   ,中,#ramentw #台灣拉麵愛好會 #拉麵 #豚骨,員林星巴克,彰化縣
336,升龍拉麵,403台中市西區忠勤街159號,於2015年8月19日開幕，原為一龍拉麵，2016年4月12日更名為升龍拉麵，本店以豚湯為主體，詳情請見下方食記連結。,18:00~22:00周一 公休,24.1403,120.666849,吳俊青 - 豚骨拉麵   https://bit.ly/32WidWA,中,#ramentw #台灣拉麵愛好會 #拉麵 #豚骨,忠勤街,台中市
337,中華そば 寶來軒,704台南市北區公園南路206號,原台北西湖市場的人氣店：豚骨家，之後搬遷到台南。而豚骨家的招牌已結束變成寶來軒，豚骨家原址已變成圓寶。豚骨家的豚骨拉麵是台灣拉麵歷史上很重要的一個指標，很多當今的人氣店都有受到豚骨家和金子先生的啟發！從寶來軒後的品項開始走向更多元，以招牌的豚骨湯為基礎的衍伸。,11:30~14:00、17:30~20:00(有不定休的可能，以粉專公告為主),23.001908,120.206016,Huang Wei - 德島拉麵   https://bit.ly/2XZ2cNh   Ben Wo - 超濃厚MEGA豚   https://bit.ly/35trwx3   李孟庭-超濃厚MEGA豚拉麵   http://bit.ly/2rC8DIU,南,#ramentw #台灣拉麵愛好會 #拉麵 #豚骨 #2019名店,兵工廠,台南市
338,菜良sara-日式拉麺,701台南市東區崇明路44號,台灣少數主打二郎系的拉麵店，老闆在神奈川県茅ヶ崎市的二郎系名店:菜良sara修業後回台南開業。是台灣二郎系拉麵中的旁系和南部二郎代表，味道上和正統二郎相較下還多份細緻和協調。麵友推薦點多份叉燒變成厚切，還有咖哩粉+拌麵也是絕配！另外也可以嘗試念二郎咒語：「野菜、背脂、大蒜、醬底，都可以免費做客製化增量！」,11:30-14:00、17:30-21:00週一 公休(粉專每個月會公告當月休假日，以粉專為主),22.981029,120.216441,Jasmine Chang - 南高梅拉麵   https://bit.ly/36JSNfO   林家和 - 烏帽子拉麵   https://bit.ly/3eJdVWL   李孟庭 - 烏帽子拉麵   https://bit.ly/2xs4rOk,南,#ramentw #台灣拉麵愛好會 #拉麵 #沾麵 #拌麵 #二郎 #限定 #2019名店,臺南監理站,台南市
339,麵屋青鈴（麺や青鈴）,71081台南市永康區新行街33巷1號,開業於2019年11月，以豚湯系為主體，近來不定時會開發新品項，以饗麵友們的味蕾，詳情可察看下方網友食記。,11:30~13:30、17:00~20:00週四 公休,23.039053,120.241287,Huang Wei - 限定。濃厚虱目魚白湯   https://bit.ly/35Apzkr   鄭傑瑞 - 鰹節醬油拉麵、醬油豚骨拉麵 https://bit.ly/2EpSUmr   Huang Wei - 柔蒜豚骨   https://bit.ly/304GO9c,南,#ramentw #台灣拉麵愛好會 #拉麵 #豚骨 #擔擔麵,台南應用科大,台南市
340,豚骨家—小北店,70450台南市北區育德路160號,原址為西湖市場豚骨家，之後金子先生開設圓寶及寶來軒之後，再次於台南復刻豚骨家的好味道，本店湯頭以雞豚湯為主軸，開幕於2018年11月。,11:30-14:00、17:30-20:00,23.009061,120.205495,Stars Yang - 青葉系中華Soba   http://bit.ly/39O903t   Ken Chin - 雞白湯＼雞綠湯＼中華力Soba＼東京油麵＼函館鹽拉麵＼Mega＼熊本拉麵   http://bit.ly/2Qcg41b   Cheng-Chieh Huang - 函館鹽味拉麵   http://bit.ly/2weO8Rv,南,#ramentw #台灣拉麵愛好會 #拉麵 #油拌麵 #雞豚 #煮干 #2019名店,小北自助餐,台南市
341,五黑家日式拉麵,704台南市北區公園北路104號消防局隔壁,"台南少數雞湯為主打的店家，雞湯呈現還有分成基本的醬油、焦香、邪道。比較特別的就是邪道，裡面是加入生雞蛋來增加湯的濃厚度。配料也出現拉麵少見的雞肉丸子，另外可以加點鍋巴來入湯也是這間有趣的方式。另外就是店家會根據季節來出不同的限定，然後食量大無肉不歡的麵友也可以嘗試""樹根""叉燒。此外店主對於自己的要求非常高，所以不能出的湯頭就會休息。要出發前記得先確認粉專消息，另外五黑家也提供預訂。",星期一、二 休息星期三-五 17:00-22:00星期六、日 11:00-15:00、17:00-22:00*提早賣完會提早結束,23.00488209,120.209868,李孟庭 - 焦香醬油拉麵半碗   https://bit.ly/2WFQXcA   李孟庭 - 味噌雞湯   https://bit.ly/3dpeuUY   李孟庭-原味雞湯拉麵   http://bit.ly/2SBxM1v,南,#ramentw #台灣拉麵愛好會 #拉麵 #雞湯 #2019名店,台南市／公園北路,台南市
342,山越拉麵 - 總店,600嘉義市東區中正路349號,嘉義當地知名的排隊拉麵店，以豚湯為主體，湯頭和麵條軟硬度可以客製化。2017年5月開始與鬼金棒技術合作模式轉型，定期出限定款拉麵也讓嘉義拉麵與台北口味同步！,週一~五 17:00~21:00(豚骨)週六~日 11:30~14:00(雞湯)、17:00-21:00(豚骨)「每日湯頭售完提早打烊」週二 公休,23.478847,120.450581,吳清宏 - 醬油豚骨拉麵   https://bit.ly/2JlmwDQ   吳清宏 - 八幡屋七味麻婆豆腐雞白湯拉麵   https://bit.ly/2UIQ0Om   吳清宏 - 八幡屋七味麻婆豆腐豚骨拉麵   https://bit.ly/2IGwOOX,南,#ramentw #台灣拉麵愛好會 #拉麵 #豚骨 #限定 #變化,林聰明砂鍋魚頭,嘉義市
343,覺丸拉麵,701台南市東區東興路275號,台南人氣拉麵店之一，此間店採登記制度因此到店記得先找女老闆登記呦~此外也請留意店家的用餐注意事項。覺丸主打豚骨湯頭，也可以客製化做調整。詳細內容可以參閱下方麵友的食記~,週一 11:30-14:00、17:00-20:00週二 休息週三-日 11:30-14:00、17:00-20:00,22.995951,120.229816,Stars Yang - 豚骨叉燒拉麵   http://bit.ly/2weIGgY   Chen Jelly - 豚骨叉燒拉麵   http://bit.ly/2L75mVT,南,#ramentw #台灣拉麵愛好會 #拉麵 #豚骨,台南市東區／東興路,台南市
344,淳鳩一夫拉麵,700台南市中西區民權路二段218號,雞魚雙湯頭為主打，是源自一心一勝體系。但是老闆自己也不斷的精進和研發新的菜色和配料提供給麵友們！是台南雞白湯店的好選擇，店家的溏心蛋一直廣受麵友好評，喜歡吃蛋的麵友也可以多加點來試試~叉燒目前除了原本的豬夾肉外也多了梅花叉燒肉，近期還有低溫叉燒的選擇。來滿足麵友們！,11:30-售完、17:00-售完週日 店休,22.995724,120.20129,Franco Sofa Lee - 干貝雞湯拉麵 https://bit.ly/2HA8a25   Huang Wei - 雞鴨雙湯   https://bit.ly/2YFfiPK   Stars Yang - 蒜味雞白湯拉麵   http://bit.ly/2Ks9JKN,南,#ramentw #台灣拉麵愛好會 #雞白湯 #雞魚,武廟,台南市
345,俺の豚,710台南市永康區東橋一路250號,開業於2017年7月22日，是豚骨拉麵專賣店，溏心蛋會有玉字為特色之一。,11:30~14:00，17:30~20:30週一 休息,23.019189,120.233487,Huang Wei - DSP濃厚豚骨拉麵、濃厚豬雞魚介沾麵   https://bit.ly/3pZATyv   Huang Wei - DSP濃厚豚骨拉麵   https://bit.ly/2Yyi1Lj   吳俊青 - SP濃厚豚骨拉麵   https://bit.ly/2rpOEcT,南,#ramentw #台灣拉麵愛好會 #拉麵 #豚骨,東橋一路,台南市
346,八峰亭,700台南市中西區萬昌街15號,台南人氣拉麵店之一，店家最特別的是特殊的預約制度。需要提前去預約用餐時間，此外還需要押金100如果沒去不會退還。外縣市的麵友建議可以早點去等待詢問是否可以補上，或是請當地朋友幫忙先預約。叉燒的有限量厚切的部分，如果喜好厚實的叉燒不要錯過了。此外近期有販售快煮包，如果不方便出門吃拉麵也可以買回家煮呦！,週一~二 10:30~13:00週三 公休週四~日 10:30~13:00,22.989489,120.209897,Athena Wu - 豚骨拉麵   https://bit.ly/32laoc0   Stars Yang - 豚骨魚介青蔥拉麵   http://bit.ly/2ORpIoq   吳俊青 - 乾麵套餐   http://bit.ly/2MntcSO,南,#ramentw #台灣拉麵愛好會 #拉麵 #豚骨,台南市／萬昌街,台南市
347,一拉面,704台南市北區長榮路五段35號,開業於2018年01月24日，好喝又順口的豚骨湯，不單只有食材的精選及挑選，最為重要是火侯的控制及用心。,"11:30-14:00, 17:30-21:00週三 休息",23.008632,120.220536,徐尚聿 - 豚骨雞白湯拉麵   https://bit.ly/3k9A0jT   林子祥 - 豚骨拉麵   http://bit.ly/2Pw2xjf   龍司 - 赤辛豚骨拉麵   http://bit.ly/2B7pynq,南,#ramentw #台灣拉麵愛好會 #拉麵 #豚骨,開元振興公園，5路公車，富台新村下車,台南市
348,Nani麵,700台南市中西區新美街163號,"台南少有的主打""沾麵""的拉麵店，味道是豚骨魚介的口味。沾麵可以選擇的肉品項有：牛、雞、豬可以選擇，豬肉則是五花肉是比較特別的地方。整體風格呈現類似台北麵屋緣。","11:00-14:30, 16:30-19:10",22.997989,120.201308,吳清宏 - 豚骨魚介赤辛沾麵豬+秘制花雕沾麵牛   https://bit.ly/34cJYeZ   Athena Wu - 秘製花雕沾麵-豚   https://bit.ly/2XJZSZx   吳俊青 - 招牌豚骨魚介沾麵   https://bit.ly/2B4dlQf,南,#ramentw #台灣拉麵愛好會 #沾麵 #豚骨 #豚骨魚介 #咖哩,赤崁樓，3或5路公車,台南市
349,麵家宇味,700台南市中西區民族路三段62號,開業於2012年7月23日，原本叫宇味拉麵，是一家日式拉麵店，2014年5月整修後改麵家宇味，詳情參閱下方麵有食記。,"週四-週二 11:30-14:30, 17:30-21:00週三 休息(不定期)",22.998108,120.198305,蔡佩岑 - 番茄起司拉麵   https://bit.ly/2E9mIkR   Shih-Yao Frank Lin - 濃厚叉燒豚骨拉麵   https://bit.ly/2BXjvDJ,南,#ramentw #台灣拉麵愛好會,"永樂市場，77, 藍23, 藍24公車，在永樂市場下車",台南市
350,麵屋柴 雞白湯拉麵專賣店,632雲林縣虎尾鎮仁愛路61號,開業於2018年10月26日，是一群愛柴犬也愛拉麵的年輕人開的拉麵店，湯頭是手工熬湯，以用全雞、蔬菜熬製。,"星期五-三 11:30–14:00, 17:30–21:00星期四 休息",23.708827,120.434255,李俊 - 奶油蛤蜊雞白湯拉麵   https://bit.ly/2rt1UgU   洪國軒 - 奶油蛤蜊雞白湯   http://bit.ly/2WLT63K,中,#ramentw #台灣拉麵愛好會,雲林布袋戲館，台西客運虎尾站(9015路),雲林縣
351,北極星拉麵HOKKYOKUSEI,708台南市安平區建平路254號,開幕於2020年2月15日，主軸為豚骨與雞湯，詳情可察看下方網友食記。,11:30~14:00、17:30~21:00,22.98846409,120.182432,由你來寫第一篇   ,南,#ramentw #台灣拉麵愛好會 #拉麵 #豚骨 #雞清,建平七街、建平路,台南市
352,山形心心拉麵-嘉義新光店,600嘉義市西區垂楊路726號,此店位於新光三越。將製麵者的心跟客人的心連繫在一起，為紀念此願景日本山形總店取名為心心，在台灣也希望能用此日本傳統精神將日本跟台灣人的心彼此更加靠近，故與日本總店取同名。,11:00 - 22:00,23.473265,120.441178,楊德輝 - 辛味噌拉麵   https://bit.ly/2MOnHdw   林小逼 - 魚豚野郎(中)   https://bit.ly/2MrYVBz   Candy Yang - 魚豚野郎(大)   https://bit.ly/2Ma1FE2   Nora Neko -定豚野郎拉麵   https://bit.ly/2vE1HtL,南,#ramentw #台灣拉麵愛好會 #拉麵 #沾麵 #二郎風,新光三越嘉義垂楊店,嘉義市
353,圓拉麵,640雲林縣斗六市九如街4號,開業於2016年4月1日，主打雞魚雙湯頭，是一心一勝的徒弟店。雞湯圓潤滑順，色澤金黃，口感醇厚，屬白湯類型；魚湯鮮麗美妙，色澤灰白，口感甘甜，屬濁湯類型。此外店主也有開發特色新品，像花雕雞就是好評的限定之一。,11:30-13:30，17:00-20:00週三 休息,23.705737,120.53845,Stars Yang - 醬油雞湯拉麵   http://bit.ly/2QoumPH   吳俊青 - 雞湯拉麵+魚湯拉麵   http://bit.ly/2rvPgO7   Clover Yuan - 蒜香濃厚雞白湯拉麵+辛魚湯拉麵   http://bit.ly/2L9zbql,中,#ramentw #台灣拉麵愛好會 #拉麵 #雞白 #魚介雞湯 #限定,雲林溪美食廣場旁邊,雲林縣
354,小卷拉麵屋,640雲林縣斗六市民生路48-1號,是當地特色及平價的拉麵店，詳情參閱下方麵友食記。,11:00~14:00、17:00~20:00週六 休息,23.709163,120.538222,Weight Wang - 背脂豚骨拉麵   https://bit.ly/2UsCEo0,中,#ramentw #台灣拉麵愛好會 #拉麵,小北百貨斗六店,雲林縣
355,富士達人日本拉麵-東寧總店,701台南市東區東寧路504號,粉專建立於2011年1月，主軸為豚骨，詳情可察看下方網友食記。,週一~五 11:00~14:30、17:00~21:30週六~日 11:00–22:00,22.989087,120.23055,由你來寫第一篇   ,南,#ramentw #台灣拉麵愛好會 #拉麵 #豚骨,東光路、東寧路,台南市
356,中華そば太郎拉麵,700台南市中西區新美街2號,為當地少數素食拉麵店之一，店內裝潢走80年代復古日本風。,週一-五 18:30-21:00週六-日 12:30-14:30、18:30-21:30,22.994346,120.200109,柯學良-柚子椒鹽拉麵   https://bit.ly/3kYN4sV,南,#ramentw #台灣拉麵愛好會 #拉麵 #素食,郭綜合醫院，5，7，14，18，藍24路公車，西門民權路口站下車,台南市
357,Mr. 拉麵 絆(台南勝利店),701台南市東區勝利路54-1號,始於2012年10月在台北公館，老闆曾當過記者和東京都議員，在台北念博士班期間開平價拉麵店，很受學生客群歡迎，2013年進軍台南開設勝利分店，成功打開台南市場而快速展店，2017年6月28日改名為Mr拉麺の野崎家，原Mr拉麺成姊妹店。,11:15-14:30、17:00-21:00,22.991534,120.21797,無   ,南,#ramentw #台灣拉麵愛好會 #拉麵,台南一中，成功大學；6路公車，台南一中站下車,台南市
358,東京豚骨拉麵の野崎家(崇德店),701台南市東區崇德路567號,始於2012年10月在台北公館，老闆曾當過記者和東京都議員，在台北念博士班期間開平價拉麵店，很受學生客群歡迎，2013年進軍台南開設勝利分店，成功打開台南市場而快速展店，而後改名為Mr拉麺の野崎家，原Mr.拉麵成姊妹店，本店開業於2015年10月7日。,"週一-五11:15-14:30, 17:00-20:45週六-日11:30-15:00, 17:00-21:00",22.97285,120.227657,Tsai Sunta - 博多豚骨醬油拉麵／博多豚骨味僧拉麵   https://bit.ly/2EbX6UO,南,#ramentw #台灣拉麵愛好會,華生動物醫院；3路公車，崇德十街口站下車,台南市
359,Mr. 拉麵 絆(台南海佃店),709台南市安南區海佃路一段158巷7號,始於2012年10月在台北公館，老闆曾當過記者和東京都議員，在台北念博士班期間開平價拉麵店，很受學生客群歡迎，2013年進軍台南開設勝利分店，成功打開台南市場而快速展店，本店除拉麵之外，還有丼飯和烏龍麵。,11:30-14:30、17:00-20:45,23.024352,120.192244,無   ,南,#ramentw #台灣拉麵愛好會 #拉麵,丹丹漢堡安南店；3，10，藍23，藍24公車，協成社區站下車,台南市
360,Mr. 麵王(永康店),710台南市永康區中華二路258號,開業於2014年7月1日，原本是Mr拉麵分店之一，而後發展為為Mr.麵王之品牌。,週一-五 11:20-14:30、17:00-20:45週六-日 11:00-15:00、17:00-21:00,23.008589,120.233273,無   ,南,#ramentw #台灣拉麵愛好會 #拉麵,家樂福中華店,台南市
361,Mr.RAMEN 豚骨拉麵店,600嘉義市西區仁愛路229號,始於2012年10月始於台北公館開店，老闆曾當過記者和東京都議員，在台北念博士班期間開平價拉麵店，很受學生客群歡迎，本店開業於2018年6月底。,11:30-14:30、17:00-20:45,23.47118,120.442567,無   ,南,#ramentw #台灣拉麵愛好會,嘉義遠東百貨公司,嘉義市
362,Mr. 拉麵 雲,640雲林縣斗六市中堅西路743號,始於2012年10月在台北公館，老闆曾當過記者和東京都議員，在台北念博士班期間開平價拉麵店，很受學生客群歡迎，2013年進軍台南開設勝利分店，成功打開台南市場而快速展店，本店開業於2017年8月15日，為Mr.拉麵姊妹店。,週一-五 11:00~14:30，17:00~21:00週六-日 11:00~15:00，17:00~21:00,23.70271786,120.531326,無,中,無提供標籤資訊,家樂福 斗六店,雲林縣
363,大麦小麦日式酒食,60045嘉義市東區融和街57號,開業於2019年5月，是一間不定期推出拉麵限定的居酒屋，深受在地民眾喜愛，詳情可察看下方網友食記。,11:30~14:00、17:00~21:00,23.477276,120.459375,Stars Yang - 柚香鹽味   http://bit.ly/39XAN1z   何浩然 - 醣心蛋雞白湯拉麵   http://bit.ly/2m088W5,南,#ramentw #台灣拉麵愛好會 #拉麵 #限定,Felicita幸福無限創意可頌專賣店,嘉義市
364,京正拉麵-興華店,700台南市中西區興華街25號,開業於2012年8月10日，隱藏在巷弄中的拉麵店，別於一般拉麵店，我們走的是較為現代極簡風格，希望帶給你更特別的感受！自家熬製大骨高湯，天然食材保證！,週一~五 11:30~21:30週六~日 11:00~22:00,22.992282,120.210827,Chih-Hung Weng - 味噌豚骨拉麵   https://bit.ly/2G9pt8x   Wen Hsiang Wang - 濃厚拉麵   https://bit.ly/2GaH5kn,南,#ramentw #台灣拉麵愛好會,台南啟聰學校，3、紅幹線公車，縣知事官邸站下車,台南市
365,京正拉麵-育樂店,701台南市東區育樂街109號,開業於2015年1月1日，我們走的是較為現代極簡風格，希望帶給你更特別的感受！自家熬製大骨高湯，天然食材保證！,週一~五 11:30~21:30週六~日 11:00~22:00,22.995629,120.214964,無   ,南,#ramentw #台灣拉麵愛好會,遠東百貨公司台南成功店，台南後火車站,台南市
366,獅神拉麵,708台南市安平區湖內一街26號,開業於2018年11月，以豚骨、雞湯做為主軸，詳情可察看下方網友食記。,17:30–22:00週一、四 公休,22.997167,120.158855,由你來寫第一篇   ,南,#ramentw #台灣拉麵愛好會 #拉麵 #豚骨 #雞湯,湖內一街,台南市
367,元町家 橫濱家系拉麵,600嘉義市東區忠孝路600號,開業於2019年11月，位於耐斯廣場B1F，是嘉義當地的橫濱家系拉麵，詳情可察看下方網友食記。,11:00~21:30,23.490113,120.452919,王邦任 - 醬油拉麵   http://bit.ly/2SM1u3u,南,#ramentw #台灣拉麵愛好會 #拉麵 #家系,耐斯廣場,嘉義市
368,山崎拉麵,600嘉義市西區國華街248號,開業於2012年10月27日，前日商社長山崎龍二原本是開可樂餅，後來2014年12月11日擴大成山崎お食事処，是日本原汁原味的拉麵店，另外有賣烏龍麵和關東煮。,週一、週三-週五 16:30-21:00週六-週日 12:00-21:00週二 休息,23.48181,120.448234,Weight Wang - 味噌拉麵   https://bit.ly/2RILZ9J   容君緋 - 香蔥辛味噌拉麵+味噌拉麵+黑豚骨拉麵   https://bit.ly/2E6aauO,南,#ramentw #台灣拉麵愛好會 #拉麵,中正公園，陳澄波紀念館,嘉義市
369,赤野拉麵,600嘉義市西區國華街137號,開業於2016年1月4日，主打豚骨湯頭，屬平實價位，詳情參閱下方麵友食記。,週一-週日 11:00-14:00、17:00-21:00,23.476188,120.448771,Stars Yang - 豚骨大蒜拉麵   https://bit.ly/2RJ5i2z   李偉煥 - 豚骨拉麵   https://bit.ly/2QCIa8I,南,#ramentw #台灣拉麵愛好會 #拉麵 #豚骨,嘉義市朝天宫或文化公園,嘉義市
370,一榮拉麵,700台南市中西區郡緯街1號,開業於2019年6月，以豚骨湯為主的拉麵店，詳情可察看下方網友食記。,11:00–14:00、17:00–21:00,22.997895,120.202199,吳俊青 - 一榮拉麵   http://bit.ly/32ObvQV   王智昊 - 一榮拉麵   http://bit.ly/2Zmk9Ug,南,#ramentw #台灣拉麵愛好會,郡緯街／Nani麵,台南市
371,金屋拉麵,701台南市東區府連東路3號,開業於2019年5月，以豚骨湯為主的淡麗系台式拉麵，該店的主要客群是針對愛好CP值的客人，詳情可察看下方網友食記。,1100-1400、1700-2100週一 店休,22.9847,120.216857,雲劍 - 豚骨拉麵   http://bit.ly/2GFsbR1,南,#ramentw #台灣拉麵愛好會 #拉麵,冒煙的喬,台南市
372,麵屋祥 東京醬油拉麵,804高雄市鼓山區大順一路459號1樓,開業於2015年，修業於鷹流體系並為鷹流認證店家。店內有濃湯、清湯醬油可選擇，是高雄當地首屈一指的醬油拉麵。,17:30–21:30無固定休日,22.655706,120.302358,徐偉格 - 濃湯SP   http://bit.ly/38gEuOx   雨天 - 濃醇煮干し醤油ラーメン   http://bit.ly/2RzdfbX   李昊陽 - 清湯蔥拉麵、清湯叉燒麵 https://bit.ly/2omw1Za,南,#ramentw #台灣拉麵愛好會 #拉麵 #豚骨 #2019名店,高雄特教中心對面／捷運凹子底步行3分,高雄市
373,【吉胤家】橫浜家系ラーメン,807高雄市三民區慶雲街105號,開業於2017年11月，是目前高雄在地唯二的家系拉麵，且有數量上的限制。採取16:30先領號碼牌後再時間內回來候位用餐。週三、四 販售二毛作咖哩飯、週五、六 進行拉麵販售，詳情參閱官方粉專。,週三-六 17:30–21:00週日-二 未營業,22.64243,120.315103,陳聖諺 - 特盛濃厚豚骨醬油   https://bit.ly/2BB0UiU   劉承翰 - 大滿貫   https://bit.ly/3bmUgdc   Ryan Jhan - 特盛濃厚豚骨醬油拉麵   http://bit.ly/2q8WU00,南,#ramentw #台灣拉麵愛好會 #拉麵 #豚骨 #家系 #2019名店,慶雲停車場,高雄市
374,瀧澤軒食堂［拉麵屋］,802高雄市苓雅區林泉街44號,開業於2017年5月，是以九州風豚骨湯頭為主的拉麵店，店家會不定時開發出新品，深受拉麵迷的喜愛，詳情請見下方食記。,11:30~14:00、17:00~20:00週二 公休,22.623315,120.318417,許朝竣 - 博多豚骨拉麵   https://bit.ly/3mgYNU2   Stars Yang - 博多豚骨拉麵   https://bit.ly/3lAAXSF   李孟庭-蒜香豚骨拉麵   http://bit.ly/3aNuuPA,南,#ramentw #台灣拉麵愛好會 #拉麵 #豚骨 #2019名店,高師大,高雄市
375,Ramen 初,830高雄市鳳山區五權南路226號,開幕於2016年8月，是高雄在地豚骨系拉麵名店，豚湯濃鮮鹹滑順，不定期推出的限定品項，更是聚集眾多食客大排長龍，建議在本店用餐的朋友，請於營業時間之前，提前到店訂位用餐，以免向隅。,週一~五 18:00~21:00週六~日 17:30~21:00,22.62542235,120.3535947,寒沐蝶 - 醬油豚骨拉麵   https://bit.ly/3iXGb9v   Huang Wei - 特製豚骨拉麵   https://bit.ly/36YaDeZ   雨天 - 廣島沾麵、雞白湯拉麵   https://bit.ly/2x5LzVS,南,#ramentw #台灣拉麵愛好會 #拉麵 #豚骨 #2019名店,仁惠婦幼醫院／捷運鳳山站步行4分,高雄市
376,全粒粉濃厚豚骨拉麵らーめん壱 Ramen Ichi,80147高雄市前金區成功一路298號,開業於2019年12月，是以豚骨湯為主體的拉麵店，詳情可察看下方網友食記。,11:30~14:30，17:30~21:30週一 公休,22.620622,120.295522,寒沐蝶 - 味玉魚介豚骨沾麵   https://bit.ly/2YHOdL8   Qureshout Matt - 叉燒沾麵   https://bit.ly/3fAPGKV   寒沐蝶 - 豚骨醬油拉麵   https://bit.ly/2xiHHkp,南,#ramentw #台灣拉麵愛好會 #拉麵 #沾麵 #豚骨,老行家,高雄市
377,一本拉麵本店,800高雄市新興區玉竹一街17巷2號,開業於2019年5月，以雞白湯為主的拉麵店，詳情可察看下方網友食記。,12:00~22:00,22.625034,120.301894,邱琳 - SP雞白原湯大盛   https://bit.ly/3ku3fh2   陳聖諺 - SP雞白特盛   https://bit.ly/3aEQBYw   寒沐蝶 - 東京辛拌麵   https://bit.ly/3h5jSOj,南,#ramentw #台灣拉麵愛好會 #拉麵 #雞白湯,大囍門韓食燒肉,高雄市
378,中村製麵,802高雄市苓雅區成功一路231號,開業於2017年5月，以淡麗系的湯頭為主軸，具有多樣化的拉麵，叉燒是本店的亮點，亦不時會出限定，得入店才知限定品項，詳情請見下方麵友食記。,週一-五 11:30–13:30、17:30–20:30週六 11:30–13:15、17:30–20:30週日 未營業,22.618266,120.295894,Huang Wei - 限定。塩Lemon／中村拉麵   https://bit.ly/2IEa3Ll   寒沐蝶 - Lemon塩拉麵   https://bit.ly/3iRhpHD   Huang Wei - 奶油牡蠣雞白湯拉麵   https://bit.ly/34GiwEq,南,#ramentw #台灣拉麵愛好會 #拉麵 #淡麗系 #醬油 #限定,漢神百貨,高雄市
379,拉麵山田,912屏東縣內埔鄉崇聖路4號912,於2019年10月開幕，店家前身為原麵乃藏山田，是主打雞湯的專賣店，雞濃湯堪比濃厚豚骨，是台灣業界罕見的口味。,17:00~21:30週二 公休,22.612601,120.568304,Youmu K YK - 鹽味雞白湯   https://bit.ly/3leOIFP   黃暄育 - 醬油雞白湯、鹽味雞白湯   https://bit.ly/2X8hYFI   Huang Wei - 醬油雞白湯   https://bit.ly/2WT0sVZ,南,#ramentw #台灣拉麵愛好會 #拉麵 #雞清 #雞白 #雞濃 #限定 #2019名店,內埔三山國王廟,屏東縣
380,一本拉麵·梟,802高雄市苓雅區廣州一街123之1號,開幕於2018年10月，以豚骨湯頭為主軸，深受在地朋友的喜愛。,12:00–01:00,22.622593,120.317721,寒沐蝶 - 本創武藏叉燒豚骨拉麵   https://bit.ly/2CoSsni   寒沐蝶 - 本多原湯拉麵   http://bit.ly/2PFBvLh,南,#ramentw #台灣拉麵愛好會 #拉麵 #豚骨,高雄國稅局,高雄市
381,沐瀧家 拉麵(十二月預定),807高雄市三民區建武路183號,開業於2019年7月，2020年12月遷移至現址，預定12月底重開，本店以豚骨湯為主體，詳情可察看下方網友食記。,11:30~14:00、17:00~22:00週二 公休,22.644426,120.330242,寒沐蝶 - 特濃豚骨拉麵   http://bit.ly/2HkmzLY   寒沐蝶 - 特濃豚骨拉麵   http://bit.ly/2OMC4Ty,南,#ramentw #台灣拉麵愛好會 #拉麵 #豚骨,正忠路與建武路交叉口,高雄市
382,麵處小林-高雄店,813高雄市左營區博愛二路296號,開幕於2015年1月，是高雄在地首家的家系拉麵，詳情請見下方食記。,週一-日 11:30–14:30、17:00–21:00,22.662447,120.303432,Raven Chen - 叉燒拌麵   https://bit.ly/39fPUGK   寒沐蝶 - 豚骨醬油拉麵   http://bit.ly/33gvoR6   寒沐蝶 - 雞白鹽味拉麵   http://bit.ly/2z2ZDMu,南,#ramentw #台灣拉麵愛好會 #家系 #豚骨 ,明華國中步行2分,高雄市
383,麵屋武藏-武骨店,813高雄市左營區站前北路1號3樓,麵屋武藏系統店家中，以神社為主體架構的「武骨」店，使用象徵魚介豬骨的“白”、象徵蝦類的“紅”、象徵麻油的“黑”三種口味為主。,週日-週四：11:00-21:30（Last Order 20:45）週五-週六及例假日前一天：11:00-22:00 （Last Order 21:00）,22.68754235,120.3068847,Huang Wei - 味玉叉燒濃厚角煮   http://bit.ly/2VTVsjg   Athena Wu - 白武骨拉麵/味玉白相傳沾麵   http://bit.ly/2POWOpB,南,#ramentw #台灣拉麵愛好會 #拉麵 #沾麵 #豚骨 #豚骨魚介,新左營車站3樓,高雄市
384,研田拉麵,804高雄市鼓山區美術東八街118號,開幕於2015年9月，是高雄區域少數主打醬油清湯的拉麵店，不定時推出的限定拉麵，更是滿足了眾多不同感受的味蕾，詳情請見下方食記。,11:30–14:00、17:30–20:30週四 公休額外公休日為：9/9(三)、9/11(五)、9/18(五)起將進行內部整修作業,22.65400235,120.2913347,寒沐蝶 - 貳代醬油拉麵   https://bit.ly/3fOAYPa   寒沐蝶 - 女柚拉麵   https://bit.ly/2mTqqc9   寒沐蝶-雞白湯拉麵   http://bit.ly/2YUf8CZ,南,#ramentw #台灣拉麵愛好會,美術東八街停車場,高雄市
385,北海道岩見沢拉麺　試行錯誤,801高雄市前金區五福三路57號,開業於2018年11月，來自於北海道岩見沢45395拉麵在大立精品館B1開幕，詳情可察看下方網友食記。,11:00—21:30,22.621687,120.298357,寒沐蝶 --北海道味噌沾麵   https://bit.ly/3m9SdOq   Candy Yang - 乾拌擔擔麵／蝦味味噌拉麵／味噌蔬菜拉麵／北海道鹽味拉麵   http://bit.ly/2Fs3y9L   林承鴻 - 咖哩拉麵   http://bit.ly/2KB7c5s,南,#ramentw #台灣拉麵愛好會 #拉麵 #二郎風,大立百貨,高雄市
386,北海道岩見沢拉麺　試行錯誤-大樂店,807高雄市三民區民族一路463號,開業於2020年1月15日，來自於北海道岩見沢45395拉麵在大樂百貨開幕，詳情可察看下方網友食記。,11:00—21:30,22.658921,120.314842,寒沐蝶 - 北海道味噌沾麵   https://bit.ly/3m9SdOq   Zion Huang - 蝦豚骨鹽味、北海道味噌   http://bit.ly/2SRVR2L   Candy Yang - 乾拌擔擔麵／蝦味味噌拉麵／味噌蔬菜拉麵／北海道鹽味拉麵   http://bit.ly/2Fs3y9L,南,#ramentw #台灣拉麵愛好會 #拉麵 #油拌麵 #豚骨,大樂百貨,高雄市
387,麵屋高,800高雄市新興區六合一路137號,開業於2019年5月，以豚骨湯為主軸，亦有販售泡系拉麵，詳情可察看下方網友食記。,週一-五 17:00–21:00週六-日 11:00–14:00、17:00–21:00週四 公休,22.63269,120.303868,寒沐蝶 - 地獄叉燒拉麵   https://bit.ly/2EvAyQU   Syu Zen King - 天堂豚骨拉麵+天堂蔬菜拉麵   https://bit.ly/33lQsaZ   黃毓仁 - 豆漿拉麵   https://bit.ly/35peII6,南,#ramentw #台灣拉麵愛好會 #拉麵 #豚骨,華大商旅／六合一路,高雄市
388,ラーメン麵柒八,830高雄市鳳山區中山路80號,開業於2019年6月，是以豚骨湯底為主體，一週只營業三天的屋台小店，每日限量78碗，此店皆受到在地麵友的好評，是屬於CP值的好店，詳情可察看下方網友食記。,週五-日 09:09~賣完週一-四 公休,22.622112,120.359251,寒沐蝶 - 魚子醬輕煮干醬油拉麵   https://bit.ly/38dF2GF   Aida Huang - 魚子醬輕煮干醬油拉麵   https://bit.ly/2YmApqi   Huang Wei - 濃厚正宗拉麵   https://bit.ly/2J5Z0HC,南,#ramentw #台灣拉麵愛好會 #拉麵 #豚骨 #CP值,新東陽鳳山店,高雄市
389,貳水Aqua²拉麵の專賣店,807高雄市三民區建工路300號,開業於2020年4月11日，主打東京醬油拉麵，詳情可察看下方網友食記。,週二~五 17:00~21:00週六~日 11:30~14:00，17:00~21:00週一 公休,22.65364,120.331605,沈育萱 - 松露牛肉醬油   https://bit.ly/35lL9aG   寒沐蝶 - 蒜味覺醒(限定)   https://bit.ly/2SuWnno   寒沐蝶 - 松露牛肉醬油拉麵   https://bit.ly/3cvRItH,南,#ramentw #台灣拉麵愛好會 #拉麵 #豚骨 #限定,建工路,高雄市
390,誠拉麵,830高雄市鳳山區文鳳路21號,開業於2020年4月，店主曾在麵屋祥修業，以豚湯為主軸，詳情可察看下方網友食記。,17:30~21:00週四 公休,22.642038,120.350118,吳筱涵 - 醬油拉麵   https://bit.ly/376nSfz   槭玥 - 雞骨+豚骨濃湯拉麵   https://bit.ly/3i5Sb7V   沈育萱 - 濃湯醬油拉麵   https://bit.ly/3bTqfTg,南,#ramentw #台灣拉麵愛好會 #拉麵 #豚骨 #豚清 #豚濃 #限定,文鳳路,高雄市
391,屯京拉麵 高雄夢時代店,801高雄市前鎮區中華五路789號B1 B1,1992年源自東京池袋開店，主打是以豬大骨為基本，加上雞腳等素材，再調入特製秘方的香濃醬油所組成的東京豚骨拉麵。主打平價及CP值，是連鎖拉麵店好入門的一個選擇，此外香酥的炸雞也是該店的一大特色。,11:00–22:00,22.594979,120.307095,YenYu Chen - 魚介叉燒拉麵   http://bit.ly/2mwBYi0   許嘉欽 - 超值東京豚骨拉麵   http://bit.ly/2Lctuv6,南,#ramentw #台灣拉麵愛好會 #拉麵 #沾麵 #豚骨,高雄夢時代,高雄市
392,麵屋秀,802高雄市苓雅區和平一路149-12號,開業於2017年4月，傳承於麵屋千代的手藝，主打平價的拉麵店，詳情請見下方麵友食記。,週一 17:30–21:00週二-六 11:30–14:00、17:30–21:00週日 11:30–14:00,22.624561,120.320023,Daxon Tsai - 特製濃辛拉麵   http://bit.ly/2AoBvWQ   林承鴻 - 和歌山拉麵   http://bit.ly/2OI39qC,南,#ramentw #台灣拉麵愛好會 #拉麵,高雄市立文化中心、和平一路步行3分,高雄市
393,麵場小船,830高雄市鳳山區自強二路116號,開業於2017年10月，湯頭以雞豚湯為主，以平價美味打動當地客人的味蕾，深受當地民眾喜愛，詳情可察看下方網友食記。,10:00–14:00、16:30–22:30週四 公休,22.595897,120.327626,寒沐蝶 - 招牌濃厚魚豚醬油拉麵   https://bit.ly/2Yadxui   寒沐蝶 - 大蒜豚辛拉麵   https://bit.ly/3dKO0xo   Huang Wei - 特盛濃厚魚豚醬油   http://bit.ly/33pkAjE,南,#ramentw #台灣拉麵愛好會 #拉麵 #雞豚,自強二路／清心福全,高雄市
394,豚骨醬油拉麵 初,806高雄市前鎮區忠勤路8號,此店在MLD台鋁內。開幕於2019年9月10日，是高雄在地豚骨系拉麵名店RAMEN初的二店，本店主打家系湯頭風格，詳情請見下方食記。,11:30~21:30,22.603434,120.302771,Yunkey Chang - 溏心蛋家系拉麵   https://bit.ly/2WxV6yW   寒沐蝶 - 廣島風沾麵   https://bit.ly/3fpAZuc   寒沐蝶 - 糖心蛋豚骨醬油拉麵   http://bit.ly/2Q2eOzf,南,#ramentw #台灣拉麵愛好會,MLD台鋁／捷運獅甲站,高雄市
395,萩豆乳拉麵,807高雄市三民區松江街213號,開業於2016年2月，店主從京都豆禪學業歸國，以台灣人最熟悉的豆乳食材為湯底，配合上等昆布及香菇所熬製而成的純素湯頭，有別於一般豚骨拉麵的濃厚口味，深受高雄當地的素食者喜愛。,11:00–14:00、17:00–20:00週二 公休,22.645134,120.304004,楊漢庭 - 豆奶味噌拉麵   http://bit.ly/2O5D3IY   Ryan Jhan - 酒粕豆乳拉麵   http://bit.ly/2POR27q   劉孟誠 - 濃湯味噌豆乳拉麵   http://bit.ly/2q5tH6e,南,#ramentw #台灣拉麵愛好會 #拉麵 #素食,十全路、三民公園步行1分,高雄市
396,麵屋趣,804高雄市鼓山區明華路231號1,開業於2020年4月15日，主打淡麗系品項，不定期會有限定小菜販售，詳情可察看下方網友食記。,11:00~22:00,22.663388,120.297576,Syu Zen King - 南瓜限定拉麵 https://bit.ly/2HTbYvy   李研碩 - 限定南瓜拉麵+豪華雞白湯拉麵   https://bit.ly/3e7siV9   寒沐蝶 - 雞清湯鹽味拉麵   https://bit.ly/3k0VPlo,南,#ramentw #台灣拉麵愛好會 #拉麵 #淡麗 #雞白湯 #雞清湯,明華路,高雄市
397,拉麵 廣田-青年夜市店,806高雄市前鎮區凱旋四路758號,本店開業於2018年9月，2019年11月遷移至現址，詳情可察看下方網友食記。,週四-日 17:00–23:00,22.599339,120.320406,雨天 - 豚骨拉麵/蒜頭豚骨醬油拉麵   http://bit.ly/2CQdRFW,南,#ramentw #台灣拉麵愛好會 #拉麵 #豚骨,青年夜市,高雄市
398,太陽蕃茄拉麵-左營新光店,81361高雄市左營區高鐵路123號B2,此店在高雄新光三越B2F。太陽蕃茄拉麵源自於日本「大阪王將」企業體系中的拉麵業態，「大阪王將」在日本當地及海外已擁有300餐廳以上的EAT&株式會社。品牌誕生的概念是「能保存美味及兼顧身體健康的日式拉麵」，第一家店誕生於2006年在日本東京的錦系町，以東京23區為中心開出17家店，而海外於2012年10月在台灣台北凱撒飯店B1美食廣場開出第一家，目前陸續籌畫展店中。太陽蕃茄拉麵以創新拉麵概念'「美味、美容、健康」，其創新獨特趕在日本及台灣人氣上昇中。,▎營業時間：(待確認)週日~週四11:00–22:00週五~週六11:00–22:30,22.68951235,120.3109147,Max Cheng - 太陽海味蝦拉麵   https://bit.ly/3eLexf4   Max Lin - 太陽滑蛋拉麵   https://bit.ly/2N77zWl   Daidai Huang - 野菇鮮蔬青醬拉麵   https://bit.ly/2wvGRx6,南,#ramentw #台灣拉麵愛好會 #拉麵 #雞清 #素食 #2019名店,左營新光三越／左營高鐵站,高雄市
399,太陽蕃茄拉麵-漢神本館店,801高雄市前金區成功一路266-1號號 B3,此店在高雄漢神本館B3F。太陽蕃茄拉麵源自於日本「大阪王將」企業體系中的拉麵業態，「大阪王將」在日本當地及海外已擁有300餐廳以上的EAT&株式會社。品牌誕生的概念是「能保存美味及兼顧身體健康的日式拉麵」，第一家店誕生於2006年在日本東京的錦系町，以東京23區為中心開出17家店，而海外於2012年10月在台灣台北凱撒飯店B1美食廣場開出第一家，目前陸續籌畫展店中。太陽蕃茄拉麵以創新拉麵概念'「美味、美容、健康」，其創新獨特趕在日本及台灣人氣上昇中。,11:30–22:00,22.619339,120.2961,Max Cheng - 太陽海味蝦拉麵   https://bit.ly/3eLexf4   Max Lin - 太陽滑蛋拉麵   https://bit.ly/2N77zWl   Daidai Huang - 野菇鮮蔬青醬拉麵   https://bit.ly/2wvGRx6,南,#ramentw #台灣拉麵愛好會 #拉麵 #雞清 #素食 #2019名店,漢神百貨,高雄市
400,叢林拉麵,800高雄市新興區忠孝一路10號,開幕於2015年11月，深受高雄在地民眾喜愛的深夜平價拉麵店，店家主推地獄拉麵，詳情可參閱下方麵友食記。,18:00–01:30,22.622153,120.307468,Key Tsai - 博多豚骨   http://bit.ly/2CB5Oen,南,#ramentw #台灣拉麵愛好會 #拉麵 #豚骨,忠孝夜市步行2分,高雄市
401,叢林拉麵 裕誠店,813高雄市左營區裕誠路205號,開幕於2017年7月，深受高雄在地民眾喜愛的深夜平價拉麵店分店，店家主推地獄拉麵，詳情可參閱下方麵友食記。,週一-日 17:00–00:30,22.664304,120.310461,Key Tsai - 博多豚骨   http://bit.ly/2CB5Oen,南,#ramentw #台灣拉麵愛好會,裕誠路、愛河旁，步行2分,高雄市
402,赤麵廠 - 岡山店,820高雄市岡山區開元街87號,開業於2018年9月，是屬於屋台形式的連鎖拉麵店，味覺層次感較弱，豚骨口感層次扁平，首推天神豚骨拉麵，是碗老少咸宜的拉麵，詳情可察看下方網友食記。,週一~五 11:00~14:00，17:00~23:30週六~日 11:00~23:30週四 公休,22.79381,120.292515,Jating Hong - 天神豚骨拉麵豪華版   http://bit.ly/2LMoMjZ,南,#ramentw #台灣拉麵愛好會 #拉麵 #豚骨,台新銀行岡山分行,高雄市
403,ひろ 麵屋,811高雄市楠梓區土庫二路221號,粉專創立於2016年7月，以豚湯為主體，招牌為鹽味無骨牛小排拉麵，詳情可察看下方網友食記。,週二~五 16:00~23:00週六 11:30~14:00、18:00~21:00週日、一 公休,22.739022,120.325465,由你來寫第一篇   ,南,#ramentw #台灣拉麵愛好會 #拉麵 #豚清湯,旺蓮素食店,高雄市
404,希ラーメン拉麵,813高雄市左營區蓮潭路121號,開幕於2016年10月，前身為「神社一郎燒」，後更名為目前店名，湯體為台式口味，店家主推赤凰拉麵，詳情請見下方食記。,週一-五 17:30–21:30週六-日 11:30–14:00、17:30–21:30,22.685558,120.295427,蘇漢民 - 赤凰   http://bit.ly/2FxwO1f,南,#ramentw #台灣拉麵愛好會 #拉麵,護安寺,高雄市
405,招福製麵所-拉麵,830高雄市鳳山區青年路二段135號,開業於2020年2月，以豚骨湯為主軸，詳情可察看下方網友食記。,17:30~00:30週二 公休,22.632695,120.3497,寒沐蝶 - 醬油豚骨拉麵   https://bit.ly/2W1lh0j,南,#ramentw #台灣拉麵愛好會 #拉麵  #豚骨,百元專業染燙護,高雄市
406,富士達人日本拉麵中山店,800高雄市新興區中山二路472-1號,在富士山下之「お食事処達磨也」修練，1997年到台南公園路開拉麵店，至今已有二十年，傳承日本經營40年的經驗與並發揮淡中不失真味的精神堅持。本店採用日本達磨也總店相同原料，經獨特方式調味，遵循日本傳統熬煮方式，並導入去油膩吃健康之全新概念，發展出更符合大眾的口味，讓每位顧客享受到最大的滿足。,"週一-週五 11:00-14:30, 17:00-21:00週六-週日 11:00-21:45",22.620699,120.302283,王顥學 - 醬油拉麵   https://bit.ly/2zRsJ2P,南,#ramentw #台灣拉麵愛好會 #拉麵,新崛江商圈，中央公園站,高雄市
407,目黑拉麵,900屏東縣屏東市民和路 21號,開業於2016年10月，詳情可察看下方網友食記。,11:30–14:00、17:30–21:00,,,Yao Cheng Lee - 鹽味豚骨拉麵   http://bit.ly/2PaF8aR   Yao Cheng Lee - 東京醬油拉麵   http://bit.ly/2CtMIa2,南,#ramentw #台灣拉麵愛好會 #拉麵,民生路與民和路交叉口步行1分,屏東縣
408,九州豚將日本拉麵-總店,806高雄市前鎮區一心二路190號,創立於1999年，本店為全國連鎖總本店，主打以超低價為號召，此風格深受當地居民喜愛，味道為清淡台式大眾風格，詳細情形請見下方食記。,週一 未營業週二-日 11:00–14:00、17:00–21:00,22.612939,120.30727,Mudu Yang - 鹽味拉麵／特濃味噌拉麵   http://bit.ly/2yOY5pB   張廷禧 - 辛辛豚拉麵   http://bit.ly/2CX28og,南,#ramentw #台灣拉麵愛好會,全聯一心二路店,高雄市
409,八幡 Yahata,900屏東縣屏東市廈門街1-1號,詳情參閱下方麵友食記。,週一公休週二-日 11:30-14:00、17:00-21:00,22.670191,120.494514,日式拉麵 - 原味拉麵／醬油拉麵   http://bit.ly/2OwIuDO   曾秋和 - 徹濃厚雞白湯拉麵   http://bit.ly/2C2cnG6,南,#ramentw #台灣拉麵愛好會 #拉麵,屏東市楠樹腳天后宮,屏東縣
410,幸花拉麵雞白湯專門店,900屏東縣屏東市仁愛路28號,開業於2015年3月，以日本屋台形式的明太子烤餅為營業項目，2017年9月新增拉麵品項，並轉移至本址營業，本店為連鎖形態的總本店(待確認)，本店特色是以淡麗系雞白湯為主軸，詳情可察看下方網友食記。,11:00–14:00、18:00–22:00週日 未營業,22.670367,120.492306,Soron Hsu-雞白湯拉麵(鹽味   http://bit.ly/37zCXDs   Ryan Jhan - 鹽味拉麵   http://bit.ly/2xSRxWa,南,#ramentw #台灣拉麵愛好會 #拉麵,合作金庫屏南分行,屏東縣
411,橫濱屋初代村田,80266高雄市苓雅區四維二路46號,開業於2019年10月，是以豚骨湯底為主體，屬二十年前橫濱區域地方拉麵風格，詳情可察看下方網友食記。,週一-五 17:30-賣完週六-日 11:30~13:30、17:30-賣完,22.623739,120.322861,未定   ,南,#ramentw #台灣拉麵愛好會 #拉麵 #豚骨,台灣銀行,高雄市
412,晴拉麵,80274高雄市苓雅區福德三路222號,於2020年1月19日開業，以大量的蔬果堆砌湯體層次，主打平價市場，可調整湯味鹹度，麵友們對此間的叉燒有較多的好評，詳情可察看下方網友食記。,週一~五 17:30~22:30週六~日 11:30~14:00，17:30~22:30週二 公休,22.627402,120.32727,寒沐蝶 - 醬油豚骨拉麵   https://bit.ly/3pwWUEL   槭玥 - 豚骨拉麵   https://bit.ly/33CYaMq   李孟庭 - 味噌拉麵   http://bit.ly/2Gi6Qww,南,#ramentw #台灣拉麵愛好會 #拉麵 #豚骨,五塊厝公園,高雄市
413,神山拉麵-高雄旗艦店,802高雄市苓雅區中華四路136號,開業於2019年7月，之後搬移至現址，來自關西的家系拉麵，口味為台日混合，詳情可察看下方網友食記。,11:00-14:00、17:00-21:00,22.615627,120.301496,未定   ,南,#ramentw #台灣拉麵愛好會,中華四路,高雄市
414,臥龍拉麵,813高雄市左營區明誠二路398號,開業於2020年4月，主打豚骨湯頭，詳情可察看下方網友食記。,11:30-14:30，17:30-21:30,22.661245,120.306031,由你來寫第一篇   ,南,#ramentw #台灣拉麵愛好會 #拉麵 #豚骨,明誠二路,高雄市
415,初代拉麵,900屏東縣屏東市民族路10-1號,開業於2015年11月，店家招牌為鹽味拉麵，詳情可察看下方網友食記。,週二 未營業週一、三-五 17:00–23:00週六-日 11:30–14:00、17:00–23:00,22.66945,120.491268,吳俊青 - 鹽味豚骨   http://bit.ly/2ztfzcn,南,#ramentw #台灣拉麵愛好會 #拉麵 #豚骨,屏東民族夜市,屏東縣
416,餃子 太陽,900屏東縣屏東市屏東市西區公有零售市場食品23號,開幕於2020年4月12日，以平價為訴求的在地小店，詳情可察看下方網友食記。,17:00~23:00不定休,22.66228287,120.491569,由你來寫第一篇   ,南,#ramentw #台灣拉麵愛好會 #拉麵 #醬油,屏東市西區公有零售市場,屏東縣
417,山形心心拉麵-高雄五福店,800高雄市新興區五福二路194號,此店位於五福二路、林森一路交叉口。將製麵者的心跟客人的心連繫在一起，為紀念此願景日本山形總店取名為心心，在台灣也希望能用此日本傳統精神將日本跟台灣人的心彼此更加靠近，故與日本總店取同名。,16:00~23:00週一 公休,22.624781,120.305463,寒沐蝶 - 豚野郎   https://bit.ly/3fmnf2A   楊德輝 - 辛味噌拉麵   https://bit.ly/2MOnHdw   林小逼 - 魚豚野郎(中)   https://bit.ly/2MrYVBz,南,#ramentw #台灣拉麵愛好會 #拉麵 #沾麵 #豚骨 #二郎風,新崛江,高雄市
418,元町家 橫濱家系拉麵 -屏東店,900屏東縣屏東市公勇路62號1,預定開業於2020年7月15日，位於屏東車站1F驛站商場內，是屬於元町家的第二家店，亦是屬於屏東當地首間橫濱家系拉麵，詳情可察看下方網友食記。,11:00~22:00,22.668711,120.486353,王邦任 - 醬油拉麵   http://bit.ly/2SM1u3u,南,#ramentw #台灣拉麵愛好會 #拉麵 #家系,屏東車站,屏東縣
419,一支炭拉麵屋,813高雄市左營區新庄仔路259號,於2020年7月開業，屋台造型，湯類以豚湯為主，叉燒是本店的主軸，詳情可察看下方網友食記。,18:00~23:00,22.669554,120.306706,李昱樺 - 醬油豚骨   https://bit.ly/3iVrGnq,南,#ramentw #台灣拉麵愛好會 #拉麵 #豚骨,漢神巨蛋,高雄市
420,品麵屋ラーメン,804高雄市鼓山區昌盛路29號,開業於2020年7月，是以雞白湯為主的拉麵店，詳情可察看下方網友食記。,18:00~24:00週一 公休,22.663674,120.301634,寒沐蝶 - 肉多多鹽味雞白湯拉麵   https://bit.ly/2EUtMof,南,#ramentw #台灣拉麵愛好會 #拉麵 #雞白湯,昌盛路／高雄巨蛋站,高雄市
421,食8番王者拉麵-成功店,806高雄市前鎮區中華五路1111號,開業於2020年7月3日，以【初丼】的【燒肉技術】，與【食八番拉麵】的【拉麵技術】聯合打造的二代目品牌，湯頭偏向淡麗豚骨風格，炙燒豬叉燒是本店亮點，詳情可察看下方網友食記。,11:00~21:00,22.604939,120.304258,寒沐蝶 - 雞豬雙拼鹽味拉麵   https://bit.ly/3c98qQa,南,#ramentw #台灣拉麵愛好會 #拉麵 # 豚骨,家樂福成功店,高雄市
422,麵魂家,265宜蘭縣羅東鎮南門路158號,開幕於2015年6月，深耕宜蘭，屬於全台知名的在地拉麵店家，部份麵友們暱稱本店為「宜蘭王」「搶孤王」，湯頭以博多豚骨為主體，且不定時會推出限定拉麵，以嚮麵友們的味蕾，詳情請見下方麵友食記。,週二~五：12:00–14:30、17:00–20:20週六~日：12:00–20:20,24.673032,121.764848,蔡承澔 - 鹽味魚介薩索雞白湯   https://bit.ly/3fOPwyB   Stars Yang - 肉男+魂黑   https://bit.ly/3awZxOa   吳俊青 - 濃厚白湯   https://bit.ly/2RFOiKw,東,#ramentw #台灣拉麵愛好會 #拉麵 #豚骨 #2019名店,羅東文化廣場對面,宜蘭縣
423,黑潮拉麵·炸串專賣店,970花蓮縣花蓮市復興街71號,開幕於2017年11月，2020年5月1日遷移至現址，是花蓮在地首屈一指的拉麵專門店，深受在地人以及麵友們喜愛，詳情參閱下方麵友食記。,11:30~13:30、17:30~20:10,23.98169069,121.6065823,Youmu K YK - 黑蒜拉麵   https://bit.ly/39o2aVm   林俊安 - 味噌拉麵／醬油拉麵 https://bit.ly/34gLkFd   Huang Wei - 厚切叉燒拉麵   https://bit.ly/30E7uOI,東,#ramentw #台灣拉麵愛好會 #拉麵 #豚骨 #炸串,花蓮市戶政事務所,花蓮縣
424,拉麵 匠心食堂,970花蓮縣花蓮市明禮路12號,粉專於2011年10月開設，是花蓮在地老字號拉麵店，深受在地人以及麵友們喜愛，甜點也是本店的特色之一，詳情參閱下方麵友食記。,11:30–14:00、17:15–19:45週日、一 休息,23.98170239,121.6090642,Raven Chen - 正油拉麵   http://bit.ly/2JMgZEt   吳俊青 - 豚骨拉麵   http://bit.ly/2VLk66J,東,#ramentw #台灣拉麵愛好會 #拉麵 #豚骨,明星手藝行,花蓮縣
425,倉麵屋ラーメン,970花蓮縣花蓮市進豐街57巷7弄44號,本店開業於2014年6月，分店位於中壢。以豚骨湯為主軸，口味偏台日混合，湯頭鹹度略低，此味深受在地民眾喜愛，詳情可察看下方網友食記。,11:30–14:00、17:00–21:00,23.98556335,121.6037357,韓璐彼 - 豚骨拉麵   http://bit.ly/2Sjb1xh   黃傑夫 - 醬油拉麵／地獄拉麵   http://bit.ly/2XOD5yg,東,#ramentw #台灣拉麵愛好會 #拉麵 #豚骨,邊境法式點心坊,花蓮縣
426,定置漁場三代目 The Fishery,970花蓮縣花蓮市建國路23號1樓,粉專建立於2019年4月，是以鮮魚系魚白湯為主體的拉麵店，大多客人推薦川椒酸菜拉麵，此店深受在地民眾喜愛，詳情可察看下方網友食記。,12:00~22:00,23.98285466,121.6061942,Faust Alastair - 鮮魚美白湯   https://bit.ly/302aDZh   魏孟辰 - 膠原魚白湯拉麵-招牌柚子鹽   https://bit.ly/382EbZn   林子祥 - 招牌柚子胡椒／三代目叉燒沾麵   https://bit.ly/2xMTd7B,東,#ramentw #台灣拉麵愛好會 #拉麵 #魚白 #鬼頭刀,建國路,花蓮縣
427,哈拉麵,950台東縣台東市福建路285號950,粉專建立於2018年3月，是以豚骨湯為主體的拉麵店，湯稠度稀，湯厚度略重，屬台日混合風格湯頭，價格平實，深受在地民眾喜愛，詳情可察看下方網友食記。,11:00~14:00、17:00~21:30,22.7506339,121.1506616,Liu Yen Ting - 厚切叉燒擔擔麵 https://bit.ly/3n1yh0R   林子祥 - 醬油豚骨   http://bit.ly/2Kv8Ow6   Liu Yen Ting - 厚切叉燒擔擔麵   https://bit.ly/3n1yh0R,東,#ramentw #台灣拉麵愛好會 #豚骨 #CP值,新生路與福建路交叉口,台東縣
428,一心拉麵,265宜蘭縣羅東鎮光榮路413號,開業於2015年5月，以豚骨系為主軸的湯底，價格平實，深受當地客人喜愛，詳情可察看下方網友食記。,週一-五 11:30~14:00、17:30~21:00週六-日 11:30~21:00週三 公休,24.67968806,121.777572,胡政佑 - 三星玉蔥、鹽味、醬油、味噌、地獄   http://bit.ly/2LYwh9q,東,#ramentw #台灣拉麵愛好會 #拉麵 #豚骨,晏京精品旅館,宜蘭縣
429,太子豚骨ラーメン,970花蓮縣花蓮市新港街23號,原在花蓮自由街，之後遷移至現址。本店開業於2014年4月，以豚骨湯為主軸，風格偏向為淡麗方向，深受在地民眾喜愛，詳情可察看下方網友食記。,12:00~14:00、17:30~20:30週三 公休,23.97818085,121.6073535,黃傑夫 - 骰子叉燒豚骨／地獄拉麵   http://bit.ly/2Sn41zo,東,#ramentw #台灣拉麵愛好會 #拉麵 #豚骨,新港街,花蓮縣
430,屋台拉麵,261宜蘭縣頭城鎮北宜路一段91號交流道,店家所在位置位於北宜公路宜蘭端山腳下，用餐環境是其特色。詳情參閱下方麵友食記。,11:00~17:00週二、三 公休有不定休可能，詳情請洽下方網站,24.842515,121.789747,Raven Chen - 豚骨拉麵   http://bit.ly/2B9CE3G   Chiu Cheng Chung - 豚骨拉麵／醬油拉麵   http://bit.ly/2PAGY1a   Yao Cheng Lee - 豚骨拉麵   http://bit.ly/2QS2Fyt,東,#ramentw #台灣拉麵愛好會 #拉麵 #豚骨,頭城交流道,宜蘭縣
431,宜蘭鬼匠拉麵-總店,260宜蘭縣宜蘭市光復路38號,以平價及多樣化的豚骨湯頭，深受愛好CP值的消費者享用。,平日 11:00~14:30、16:30~20:30假日 11:00~20:30,24.755238,121.756261,目前尚無食記   ,東,#ramentw #台灣拉麵愛好會 #拉麵 #豚骨,宜蘭消防局第一分隊,宜蘭縣
432,木村 Kimura,260宜蘭縣宜蘭市中山路二段187巷16號,開業於2019年3月，2020年8月15日，湯頭變更為濃厚豚骨層次風格，詳情可察看下方網友食記。,11:30-14:30，17:00-20:00週三 定休,24.750183,121.753219,Max Cheng - 木村豚骨拉麵   https://bit.ly/2XtEmcT,東,#ramentw #台灣拉麵愛好會 #拉麵 #豚骨,GOROGORO咖啡,宜蘭縣